{"type":"FeatureCollection","features":[{"type":"Feature","geometry":{"type":"Point","coordinates":[62.0301591,56.7721407]},"properties":{"landuse":"industrial","name":"Богдановичский хлебокомбинат"}},{"type":"Feature","geometry":{"type":"Polygon","coordinates":[[[62.0455417,56.7698975,0.0],[62.045475,56.7700225,0.0],[62.0453943,56.7702145,0.0],[62.0456503,56.7702318,0.0],[62.0463173,56.7699566,0.0],[62.0463183,56.7699271,0.0],[62.0456377,56.7699129,0.0],[62.0455417,56.7698975,0.0]]]},"properties":{"barrier":"fence","landuse":"residential"}},{"type":"Feature","geometry":{"type":"Polygon","coordinates":[[[62.0456391,56.7697009,0.0],[62.0455417,56.7698975,0.0],[62.0456377,56.7699129,0.0],[62.0463183,56.7699271,0.0],[62.0461801,56.769838,0.0],[62.0462758,56.7697934,0.0],[62.0456391,56.7697009,0.0]]]},"properties":{"barrier":"fence","landuse":"residential"}},{"type":"Feature","geometry":{"type":"Polygon","coordinates":[[[62.0407199,56.7721221,0.0],[62.0396907,56.7713554,0.0],[62.0408468,56.7709248,0.0],[62.0419397,56.7702839,0.0],[62.0431952,56.7711896,0.0],[62.0407199,56.7721221,0.0]]]},"properties":{"barrier":"fence","landuse":"residential"}},{"type":"Feature","geometry":{"type":"Polygon","coordinates":[[[62.0368278,56.7721506,0.0],[62.0395757,56.7713706,0.0],[62.0406078,56.7721835,0.0],[62.0392255,56.7727133,0.0],[62.0379101,56.7731815,0.0],[62.0377515,56.7730186,0.0],[62.0374616,56.7724713,0.0],[62.0371716,56.7725455,0.0],[62.0368278,56.7721506,0.0]]]},"properties":{"barrier":"fence","landuse":"residential"}},{"type":"Feature","geometry":{"type":"Polygon","coordinates":[[[62.0321571,56.7733183,0.0],[62.0366158,56.7722308,0.0],[62.0374956,56.7732698,0.0],[62.0368493,56.7734156,0.0],[62.0361829,56.7736418,0.0],[62.0338549,56.7747789,0.0],[62.0321571,56.7733183,0.0]]]},"properties":{"barrier":"fence","landuse":"residential"}},{"type":"Feature","geometry":{"type":"Polygon","coordinates":[[[62.0330653,56.7706718,0.0],[62.034036,56.7701504,0.0],[62.0355018,56.7710766,0.0],[62.0360026,56.7714427,0.0],[62.0366452,56.7720901,0.0],[62.0358904,56.7722849,0.0],[62.0330653,56.7706718,0.0]]]},"properties":{"barrier":"fence","landuse":"residential"}},{"type":"Feature","geometry":{"type":"Polygon","coordinates":[[[62.0387776,56.7806881,0.0],[62.038736,56.7802315,0.0],[62.0381667,56.7801865,0.0],[62.0381962,56.7797251,0.0],[62.0383009,56.7790536,0.0],[62.0451809,56.7793826,0.0],[62.0455375,56.7795177,0.0],[62.0451752,56.7816462,0.0],[62.0447761,56.7817388,0.0],[62.0432175,56.781647,0.0],[62.0422122,56.7807914,0.0],[62.0411773,56.7807166,0.0],[62.0409781,56.7807053,0.0],[62.0408813,56.7806998,0.0],[62.0408733,56.7807649,0.0],[62.0403885,56.7807469,0.0],[62.0387776,56.7806881,0.0]]]},"properties":{"barrier":"fence","landuse":"industrial"}},{"type":"Feature","geometry":{"type":"Polygon","coordinates":[[[62.0497954,56.7711758,0.0],[62.0485309,56.7711225,0.0],[62.0485351,56.7710924,0.0],[62.0497996,56.7711457,0.0],[62.0497954,56.7711758,0.0]]]},"properties":{"landuse":"forest"}},{"type":"Feature","geometry":{"type":"Polygon","coordinates":[[[62.0353462,56.7744109,0.0],[62.0346884,56.7747211,0.0],[62.0347495,56.77476,0.0],[62.0354073,56.7744499,0.0],[62.0353462,56.7744109,0.0]]]},"properties":{"landuse":"forest"}},{"type":"Feature","geometry":{"type":"Point","coordinates":[62.0476308,56.7729473]},"properties":{"amenity":"place_of_worship","name":"Храм во имя Святой Екатерины","building":"temple","denomination":"russian_orthodox","religion":"christian"}},{"type":"Feature","geometry":{"type":"Polygon","coordinates":[[[62.0491227,56.7721911,0.0],[62.0491193,56.7722148,0.0],[62.0487294,56.7721982,0.0],[62.0487331,56.7721718,0.0],[62.0486742,56.7721693,0.0],[62.0486961,56.7720146,0.0],[62.0489503,56.7720254,0.0],[62.0491933,56.7720357,0.0],[62.049171,56.7721931,0.0],[62.0491227,56.7721911,0.0]]]},"properties":{"building:levels":"2","building":"yes"}},{"type":"Feature","geometry":{"type":"Polygon","coordinates":[[[62.0349384,56.7751174,0.0],[62.034843,56.7750156,0.0],[62.0349511,56.7749852,0.0],[62.0349842,56.7750204,0.0],[62.0350347,56.7750744,0.0],[62.0350465,56.775087,0.0],[62.0349384,56.7751174,0.0]]]},"properties":{"addr:housenumber":"1","addr:country":"RU","building:levels":"1","addr:street":"улица Кунавина","building":"yes","addr:city":"Богданович"}},{"type":"Feature","geometry":{"type":"Polygon","coordinates":[[[62.0453178,56.7749547,0.0],[62.0455306,56.7749565,0.0],[62.0455496,56.7743069,0.0],[62.0453368,56.7743051,0.0],[62.0453178,56.7749547,0.0]]]},"properties":{"addr:housenumber":"5","building:levels":"5","addr:street":"Октябрьская улица","building":"yes"}},{"type":"Feature","geometry":{"type":"Polygon","coordinates":[[[62.0447995,56.7720982,0.0],[62.0445974,56.7720898,0.0],[62.0444335,56.7732713,0.0],[62.0446356,56.7732798,0.0],[62.0447995,56.7720982,0.0]]]},"properties":{"addr:housenumber":"12","addr:country":"RU","building:levels":"5","addr:street":"Октябрьская улица","building":"yes","addr:city":"Богданович"}},{"type":"Feature","geometry":{"type":"Polygon","coordinates":[[[62.0441807,56.7748855,0.0],[62.0443849,56.7748924,0.0],[62.0444509,56.7743028,0.0],[62.0442467,56.774296,0.0],[62.0441807,56.7748855,0.0]]]},"properties":{"addr:housenumber":"10","addr:country":"RU","building:levels":"5","addr:street":"Октябрьская улица","building":"yes","addr:city":"Богданович"}},{"type":"Feature","geometry":{"type":"Polygon","coordinates":[[[62.0475341,56.7764309,0.0],[62.0485906,56.7764817,0.0],[62.0486054,56.7763893,0.0],[62.0475489,56.7763386,0.0],[62.0475341,56.7764309,0.0]]]},"properties":{"addr:housenumber":"25А","building:levels":"5","addr:street":"Первомайская улица","building":"yes"}},{"type":"Feature","geometry":{"type":"Polygon","coordinates":[[[62.0288948,56.7703341,0.0],[62.0287184,56.7703956,0.0],[62.0293078,56.7709039,0.0],[62.0294842,56.7708425,0.0],[62.0288948,56.7703341,0.0]]]},"properties":{"addr:housenumber":"19","building:levels":"5","addr:street":"Рокицанская улица","building":"yes"}},{"type":"Feature","geometry":{"type":"Polygon","coordinates":[[[62.0468629,56.7739409,0.0],[62.0468466,56.7740432,0.0],[62.0479495,56.7740961,0.0],[62.0479659,56.7739938,0.0],[62.0468629,56.7739409,0.0]]]},"properties":{"addr:housenumber":"30","building:levels":"5","addr:street":"улица Гагарина","building":"yes"}},{"type":"Feature","geometry":{"type":"Polygon","coordinates":[[[62.0459242,56.7734839,0.0],[62.0459008,56.7736074,0.0],[62.0467118,56.7736535,0.0],[62.0468053,56.7736588,0.0],[62.0468287,56.7735354,0.0],[62.0459242,56.7734839,0.0]]]},"properties":{"addr:housenumber":"21","building:levels":"5","addr:street":"улица Гагарина","building":"yes"}},{"type":"Feature","geometry":{"type":"Polygon","coordinates":[[[62.0462978,56.7730197,0.0],[62.0464162,56.7730227,0.0],[62.0464208,56.772968,0.0],[62.0469476,56.7729813,0.0],[62.0469417,56.7730508,0.0],[62.04706,56.7730538,0.0],[62.0470687,56.7729502,0.0],[62.0470398,56.7729495,0.0],[62.0470476,56.7728566,0.0],[62.0463628,56.7728394,0.0],[62.0463568,56.772911,0.0],[62.046307,56.7729097,0.0],[62.0462978,56.7730197,0.0]]]},"properties":{"addr:housenumber":"21А","building:levels":"2","addr:street":"улица Гагарина","building":"yes"}},{"type":"Feature","geometry":{"type":"Polygon","coordinates":[[[62.030436,56.7715946,0.0],[62.0302549,56.7716599,0.0],[62.0303506,56.7717397,0.0],[62.0303133,56.7717531,0.0],[62.0309561,56.7722888,0.0],[62.0311377,56.7722234,0.0],[62.0305029,56.7716943,0.0],[62.0305397,56.771681,0.0],[62.030436,56.7715946,0.0]]]},"properties":{"addr:housenumber":"11","building:levels":"5","addr:street":"Рокицанская улица","building":"yes"}},{"type":"Feature","geometry":{"type":"Polygon","coordinates":[[[62.0481809,56.7740027,0.0],[62.0481635,56.7741018,0.0],[62.0488255,56.7741365,0.0],[62.0488428,56.7740374,0.0],[62.0481809,56.7740027,0.0]]]},"properties":{"addr:housenumber":"28","addr:country":"RU","building:levels":"3","addr:street":"улица Гагарина","building":"apartments","addr:city":"Богданович"}},{"type":"Feature","geometry":{"type":"Polygon","coordinates":[[[62.0476333,56.772974,0.0],[62.0476298,56.7730773,0.0],[62.0478119,56.7730791,0.0],[62.0478174,56.772914,0.0],[62.0476331,56.7729122,0.0],[62.0474663,56.7729105,0.0],[62.0474642,56.7729723,0.0],[62.0476333,56.772974,0.0]]]},"properties":{"building":"yes"}},{"type":"Feature","geometry":{"type":"Polygon","coordinates":[[[62.0470674,56.7736728,0.0],[62.0480805,56.7737289,0.0],[62.0481753,56.7737342,0.0],[62.0481956,56.7736244,0.0],[62.0470876,56.7735629,0.0],[62.0470674,56.7736728,0.0]]]},"properties":{"addr:housenumber":"19","building:levels":"5","addr:street":"улица Гагарина","building":"yes"}},{"type":"Feature","geometry":{"type":"Polygon","coordinates":[[[62.0484876,56.773754,0.0],[62.0496037,56.7738127,0.0],[62.0496226,56.773705,0.0],[62.0485064,56.7736463,0.0],[62.0484876,56.773754,0.0]]]},"properties":{"addr:housenumber":"17","building:levels":"5","addr:street":"улица Гагарина","building":"yes"}},{"type":"Feature","geometry":{"type":"Polygon","coordinates":[[[62.0435664,56.7726129,0.0],[62.0433696,56.7726868,0.0],[62.0433174,56.7726451,0.0],[62.042996,56.7727658,0.0],[62.0431114,56.7728581,0.0],[62.042972,56.7729104,0.0],[62.0428134,56.7727837,0.0],[62.0426825,56.7728329,0.0],[62.0425715,56.7727441,0.0],[62.0427583,56.772674,0.0],[62.0428126,56.7727174,0.0],[62.0431376,56.7725953,0.0],[62.0430081,56.7724918,0.0],[62.0428792,56.7725402,0.0],[62.0427555,56.7724414,0.0],[62.0429423,56.7723712,0.0],[62.0430069,56.7724228,0.0],[62.0432958,56.7723143,0.0],[62.0433862,56.7723865,0.0],[62.0431765,56.7724653,0.0],[62.0433147,56.7725758,0.0],[62.0434544,56.7725233,0.0],[62.0435664,56.7726129,0.0]]]},"properties":{"addr:housenumber":"14А","addr:country":"RU","building:levels":"2","addr:street":"Октябрьская улица","building":"yes","addr:city":"Богданович"}},{"type":"Feature","geometry":{"type":"Polygon","coordinates":[[[62.047662,56.7758034,0.0],[62.0487147,56.7758628,0.0],[62.0487316,56.7757724,0.0],[62.047679,56.775713,0.0],[62.047662,56.7758034,0.0]]]},"properties":{"addr:housenumber":"25","building:levels":"5","addr:street":"Первомайская улица","building":"yes"}},{"type":"Feature","geometry":{"type":"Polygon","coordinates":[[[62.0429225,56.7718785,0.0],[62.0428081,56.7717898,0.0],[62.0415512,56.7722763,0.0],[62.0416655,56.772365,0.0],[62.0429225,56.7718785,0.0]]]},"properties":{"addr:housenumber":"23","addr:country":"RU","building:levels":"5","addr:street":"улица Кунавина","building":"yes","addr:city":"Богданович"}},{"type":"Feature","geometry":{"type":"Polygon","coordinates":[[[62.0489233,56.7747485,0.0],[62.0490074,56.7742575,0.0],[62.048783,56.774246,0.0],[62.0486989,56.774737,0.0],[62.0489233,56.7747485,0.0]]]},"properties":{"addr:housenumber":"26","addr:country":"RU","building:levels":"5","addr:street":"улица Гагарина","building":"yes","addr:city":"Богданович"}},{"type":"Feature","geometry":{"type":"Polygon","coordinates":[[[62.0310262,56.771416,0.0],[62.0308535,56.7714785,0.0],[62.0315124,56.7720246,0.0],[62.0316851,56.771962,0.0],[62.0310771,56.7714582,0.0],[62.0310262,56.771416,0.0]]]},"properties":{"addr:housenumber":"13","building:levels":"5","addr:street":"Рокицанская улица","building":"yes"}},{"type":"Feature","geometry":{"type":"Polygon","coordinates":[[[62.0431157,56.7739955,0.0],[62.0431118,56.7740259,0.0],[62.0429316,56.7740189,0.0],[62.0429163,56.7741371,0.0],[62.0428615,56.7745598,0.0],[62.0430479,56.7745671,0.0],[62.0431051,56.7741253,0.0],[62.0431418,56.7741268,0.0],[62.0431436,56.7741128,0.0],[62.0444861,56.774165,0.0],[62.0445011,56.7740494,0.0],[62.0431157,56.7739955,0.0]]]},"properties":{"addr:housenumber":"34","building:levels":"5","addr:street":"улица Гагарина","building":"yes"}},{"type":"Feature","geometry":{"type":"Polygon","coordinates":[[[62.0459585,56.7739931,0.0],[62.0459408,56.7741545,0.0],[62.0461147,56.7741602,0.0],[62.0461206,56.7741061,0.0],[62.046377,56.7741146,0.0],[62.0463704,56.7741754,0.0],[62.046559,56.7741816,0.0],[62.0465773,56.7740134,0.0],[62.0462705,56.7740033,0.0],[62.0459585,56.7739931,0.0]]]},"properties":{"addr:housenumber":"32","building:levels":"3","addr:street":"улица Гагарина","building":"yes"}},{"type":"Feature","geometry":{"type":"Polygon","coordinates":[[[62.0295738,56.7699372,0.0],[62.0294189,56.7699922,0.0],[62.0301933,56.7706469,0.0],[62.0303482,56.7705919,0.0],[62.0295738,56.7699372,0.0]]]},"properties":{"addr:housenumber":"23","building:levels":"5","addr:street":"Рокицанская улица","building":"yes"}},{"type":"Feature","geometry":{"type":"Polygon","coordinates":[[[62.0304988,56.7707016,0.0],[62.0302863,56.7707769,0.0],[62.0308932,56.7712917,0.0],[62.0311058,56.7712164,0.0],[62.0304988,56.7707016,0.0]]]},"properties":{"addr:housenumber":"17","building:levels":"5","addr:street":"Рокицанская улица","building":"yes"}},{"type":"Feature","geometry":{"type":"Polygon","coordinates":[[[62.0429639,56.7717599,0.0],[62.0430801,56.7718506,0.0],[62.0443637,56.7713565,0.0],[62.0442916,56.7713005,0.0],[62.0442475,56.7712659,0.0],[62.0429639,56.7717599,0.0]]]},"properties":{"addr:housenumber":"25","addr:country":"RU","building:levels":"5","addr:street":"улица Кунавина","building":"yes","addr:city":"Богданович"}},{"type":"Feature","geometry":{"type":"Polygon","coordinates":[[[62.0426106,56.7734289,0.0],[62.0442344,56.7735112,0.0],[62.0442539,56.7733952,0.0],[62.0426302,56.7733129,0.0],[62.0426106,56.7734289,0.0]]]},"properties":{"addr:housenumber":"23","building:levels":"5","addr:street":"улица Гагарина","building":"yes"}},{"type":"Feature","geometry":{"type":"Polygon","coordinates":[[[62.04711,56.7763291,0.0],[62.0473198,56.7763397,0.0],[62.0474215,56.7757322,0.0],[62.0472118,56.7757217,0.0],[62.04711,56.7763291,0.0]]]},"properties":{"addr:housenumber":"27","addr:country":"RU","building:levels":"5","addr:street":"Первомайская улица","building":"yes","addr:city":"Богданович"}},{"type":"Feature","geometry":{"type":"Polygon","coordinates":[[[62.0454283,56.7762314,0.0],[62.0454076,56.7763419,0.0],[62.0468651,56.7764238,0.0],[62.0468858,56.7763133,0.0],[62.0454283,56.7762314,0.0]]]},"properties":{"addr:housenumber":"29","addr:country":"RU","building:levels":"5","addr:street":"Первомайская улица","building":"yes","addr:city":"Богданович"}},{"type":"Feature","geometry":{"type":"Polygon","coordinates":[[[62.0487876,56.7754851,0.0],[62.0488332,56.7751567,0.0],[62.0486227,56.7751479,0.0],[62.0485771,56.7754763,0.0],[62.0487876,56.7754851,0.0]]]},"properties":{"addr:housenumber":"26А","addr:country":"RU","addr:street":"улица Гагарина","building":"yes","addr:city":"Богданович"}},{"type":"Feature","geometry":{"type":"Polygon","coordinates":[[[62.0478725,56.7756117,0.0],[62.0479827,56.7750357,0.0],[62.0477687,56.7750234,0.0],[62.0476585,56.7755994,0.0],[62.0478725,56.7756117,0.0]]]},"properties":{"addr:housenumber":"27А","building:levels":"5","addr:street":"Первомайская улица","building":"yes"}},{"type":"Feature","geometry":{"type":"Polygon","coordinates":[[[62.0421485,56.7754074,0.0],[62.0423576,56.7754148,0.0],[62.0424238,56.7748529,0.0],[62.0422147,56.7748455,0.0],[62.0421485,56.7754074,0.0]]]},"properties":{"addr:housenumber":"36","building:levels":"5","addr:street":"улица Гагарина","building":"yes"}},{"type":"Feature","geometry":{"type":"Polygon","coordinates":[[[62.0452591,56.7754493,0.0],[62.0452904,56.7752581,0.0],[62.0450598,56.7752468,0.0],[62.0450319,56.7754175,0.0],[62.0451357,56.7754226,0.0],[62.0451323,56.775443,0.0],[62.0452591,56.7754493,0.0]]]},"properties":{"building":"yes"}},{"type":"Feature","geometry":{"type":"Polygon","coordinates":[[[62.0453096,56.7754517,0.0],[62.0452591,56.7754493,0.0],[62.0451323,56.775443,0.0],[62.0449922,56.7762999,0.0],[62.0451695,56.7763086,0.0],[62.0453096,56.7754517,0.0]]]},"properties":{"addr:housenumber":"1","building:levels":"5","addr:street":"Октябрьская улица","building":"yes"}},{"type":"Feature","geometry":{"type":"Polygon","coordinates":[[[62.0413579,56.7728,0.0],[62.0420591,56.7728485,0.0],[62.042107,56.7728523,0.0],[62.0421314,56.7727406,0.0],[62.041697,56.7727096,0.0],[62.0416889,56.7727339,0.0],[62.0415909,56.7727271,0.0],[62.0416655,56.772365,0.0],[62.0415512,56.7722763,0.0],[62.0414724,56.7723028,0.0],[62.0413579,56.7728,0.0]]]},"properties":{"addr:housenumber":"21","addr:country":"RU","building:levels":"5","addr:street":"улица Кунавина","building":"yes","addr:city":"Богданович"}},{"type":"Feature","geometry":{"type":"Polygon","coordinates":[[[62.0446303,56.7714147,0.0],[62.0445622,56.7719856,0.0],[62.044757,56.7719926,0.0],[62.0448251,56.7714217,0.0],[62.0447395,56.7714187,0.0],[62.0446303,56.7714147,0.0]]]},"properties":{"addr:housenumber":"14","addr:country":"RU","building:levels":"5","addr:street":"Октябрьская улица","building":"yes","addr:city":"Богданович"}},{"type":"Feature","geometry":{"type":"Polygon","coordinates":[[[62.0414724,56.7723028,0.0],[62.0412814,56.7722896,0.0],[62.0412341,56.7724949,0.0],[62.0411482,56.7728676,0.0],[62.0417407,56.7729086,0.0],[62.0417471,56.7728805,0.0],[62.042047,56.7729012,0.0],[62.0420591,56.7728485,0.0],[62.0413579,56.7728,0.0],[62.0414724,56.7723028,0.0]]]},"properties":{"building:levels":"1","building":"yes"}},{"type":"Feature","geometry":{"type":"Polygon","coordinates":[[[62.0447395,56.7714187,0.0],[62.0447412,56.7713708,0.0],[62.0445607,56.7712422,0.0],[62.0444296,56.7712966,0.0],[62.0443826,56.7712627,0.0],[62.0442916,56.7713005,0.0],[62.0443637,56.7713565,0.0],[62.0444068,56.7713868,0.0],[62.0444637,56.7713699,0.0],[62.0444806,56.7713868,0.0],[62.0445236,56.771374,0.0],[62.0445634,56.7714141,0.0],[62.0446303,56.7714147,0.0],[62.0447395,56.7714187,0.0]]]},"properties":{"building:levels":"5","building":"apartments"}},{"type":"Feature","geometry":{"type":"Polygon","coordinates":[[[62.0442344,56.7735112,0.0],[62.0442694,56.773513,0.0],[62.0442665,56.7735299,0.0],[62.0443467,56.773534,0.0],[62.0444981,56.7735416,0.0],[62.0445863,56.7735461,0.0],[62.0446088,56.7734132,0.0],[62.0442539,56.7733952,0.0],[62.0442344,56.7735112,0.0]]]},"properties":{"building:levels":"1","building":"yes"}},{"type":"Feature","geometry":{"type":"Polygon","coordinates":[[[62.0464597,56.7722007,0.0],[62.0464469,56.772316,0.0],[62.0466132,56.7723216,0.0],[62.0466051,56.7723947,0.0],[62.0464149,56.7723883,0.0],[62.0464021,56.772503,0.0],[62.0466351,56.7725108,0.0],[62.0466466,56.7724077,0.0],[62.0468204,56.7724135,0.0],[62.0468079,56.7725258,0.0],[62.047041,56.7725336,0.0],[62.0470536,56.7724203,0.0],[62.046879,56.7724145,0.0],[62.046887,56.7723418,0.0],[62.0470629,56.7723477,0.0],[62.0470757,56.7722325,0.0],[62.0468537,56.772225,0.0],[62.0468424,56.772326,0.0],[62.0467515,56.772323,0.0],[62.0466609,56.77232,0.0],[62.0466734,56.7722078,0.0],[62.0464597,56.7722007,0.0]]]},"properties":{"addr:housenumber":"13А","building:levels":"2","addr:street":"Октябрьская улица","building":"yes"}},{"type":"Feature","geometry":{"type":"Polygon","coordinates":[[[62.0438854,56.7731936,0.0],[62.0438806,56.7732473,0.0],[62.0440546,56.7732519,0.0],[62.0440593,56.7731982,0.0],[62.0438854,56.7731936,0.0]]]},"properties":{"building":"yes"}},{"type":"Feature","geometry":{"type":"Polygon","coordinates":[[[62.0489789,56.7728229,0.0],[62.0487737,56.7728513,0.0],[62.0488244,56.7729612,0.0],[62.0490082,56.7729358,0.0],[62.0491342,56.7729183,0.0],[62.0492083,56.7729081,0.0],[62.0492392,56.7729038,0.0],[62.0494334,56.7728769,0.0],[62.0493827,56.772767,0.0],[62.0490155,56.7728179,0.0],[62.0489789,56.7728229,0.0]]]},"properties":{"addr:housenumber":"16А","building:levels":"2","addr:street":"Партизанская улица","building":"yes"}},{"type":"Feature","geometry":{"type":"Polygon","coordinates":[[[62.0436567,56.775588,0.0],[62.0436429,56.7756858,0.0],[62.0442275,56.7757105,0.0],[62.0442413,56.7756127,0.0],[62.0436567,56.775588,0.0]]]},"properties":{"addr:housenumber":"2","addr:country":"RU","addr:street":"Октябрьская улица","building":"yes","addr:city":"Богданович"}},{"type":"Feature","geometry":{"type":"Polygon","coordinates":[[[62.0435055,56.776009,0.0],[62.0435014,56.7760374,0.0],[62.043332,56.77603,0.0],[62.0432992,56.7762583,0.0],[62.0437367,56.7762772,0.0],[62.0437697,56.7760481,0.0],[62.0435766,56.7760398,0.0],[62.0435806,56.7760122,0.0],[62.0435055,56.776009,0.0]]]},"properties":{"addr:housenumber":"41","addr:street":"Первомайская улица","building":"yes"}},{"type":"Feature","geometry":{"type":"Polygon","coordinates":[[[62.0428517,56.7749967,0.0],[62.0428347,56.7751007,0.0],[62.0434373,56.7751302,0.0],[62.0434543,56.7750262,0.0],[62.0428517,56.7749967,0.0]]]},"properties":{"addr:housenumber":"4","addr:country":"RU","addr:street":"Октябрьская улица","building":"yes","addr:city":"Богданович"}},{"type":"Feature","geometry":{"type":"Polygon","coordinates":[[[62.0432115,56.7748809,0.0],[62.0434568,56.7748951,0.0],[62.0434883,56.7747325,0.0],[62.043243,56.7747182,0.0],[62.0432115,56.7748809,0.0]]]},"properties":{"addr:housenumber":"6","addr:country":"RU","addr:street":"Октябрьская улица","building":"yes","addr:city":"Богданович"}},{"type":"Feature","geometry":{"type":"Polygon","coordinates":[[[62.0388645,56.7765878,0.0],[62.0388583,56.7767309,0.0],[62.0394504,56.7767386,0.0],[62.0394566,56.7765955,0.0],[62.0388645,56.7765878,0.0]]]},"properties":{"building":"yes"}},{"type":"Feature","geometry":{"type":"Polygon","coordinates":[[[62.0363494,56.7757615,0.0],[62.0363183,56.7757955,0.0],[62.0365729,56.7758656,0.0],[62.0366041,56.7758316,0.0],[62.0363494,56.7757615,0.0]]]},"properties":{"building":"yes"}},{"type":"Feature","geometry":{"type":"Polygon","coordinates":[[[62.0398523,56.7764341,0.0],[62.0398497,56.776494,0.0],[62.0403239,56.7765002,0.0],[62.0403265,56.7764402,0.0],[62.0398523,56.7764341,0.0]]]},"properties":{"building":"yes"}},{"type":"Feature","geometry":{"type":"Polygon","coordinates":[[[62.045475,56.7700225,0.0],[62.045571,56.7700379,0.0],[62.0456377,56.7699129,0.0],[62.0455417,56.7698975,0.0],[62.045475,56.7700225,0.0]]]},"properties":{"addr:housenumber":"35","addr:street":"Октябрьская улица","building":"house"}},{"type":"Feature","geometry":{"type":"Polygon","coordinates":[[[62.0456935,56.7767535,0.0],[62.0456822,56.7768637,0.0],[62.0459825,56.7768729,0.0],[62.0459938,56.7767627,0.0],[62.0456935,56.7767535,0.0]]]},"properties":{"addr:housenumber":"34","addr:street":"Первомайская улица","building":"yes"}},{"type":"Feature","geometry":{"type":"Polygon","coordinates":[[[62.0455435,56.7740172,0.0],[62.0455714,56.7740129,0.0],[62.0456002,56.7740148,0.0],[62.0456254,56.7740226,0.0],[62.0456433,56.7740351,0.0],[62.0456512,56.7740504,0.0],[62.0456477,56.7740661,0.0],[62.0456335,56.77408,0.0],[62.0456107,56.7740898,0.0],[62.0455828,56.7740941,0.0],[62.045554,56.7740922,0.0],[62.0455288,56.7740844,0.0],[62.0455109,56.7740719,0.0],[62.045503,56.7740566,0.0],[62.0455065,56.7740409,0.0],[62.0455207,56.774027,0.0],[62.0455435,56.7740172,0.0]]]},"properties":{"building:levels":"1","building":"yes","height":"5"}},{"type":"Feature","geometry":{"type":"Polygon","coordinates":[[[62.0455031,56.7701897,0.0],[62.0456329,56.7702051,0.0],[62.0456608,56.7701345,0.0],[62.045531,56.7701191,0.0],[62.0455031,56.7701897,0.0]]]},"properties":{"building":"yes"}},{"type":"Feature","geometry":{"type":"Polygon","coordinates":[[[62.0460836,56.7768712,0.0],[62.0460803,56.7769804,0.0],[62.0462221,56.7769818,0.0],[62.0462228,56.7769593,0.0],[62.0462615,56.7769597,0.0],[62.0462633,56.7769031,0.0],[62.0462351,56.7769029,0.0],[62.046236,56.7768726,0.0],[62.0460836,56.7768712,0.0]]]},"properties":{"addr:housenumber":"32","addr:street":"Первомайская улица","building":"yes"}},{"type":"Feature","geometry":{"type":"Polygon","coordinates":[[[62.0417514,56.7764772,0.0],[62.0417497,56.77654,0.0],[62.0420528,56.7765425,0.0],[62.0420545,56.7764797,0.0],[62.0417514,56.7764772,0.0]]]},"properties":{"building":"yes"}},{"type":"Feature","geometry":{"type":"Polygon","coordinates":[[[62.0471265,56.7769605,0.0],[62.0471596,56.7767487,0.0],[62.0473638,56.7767582,0.0],[62.0473764,56.7766775,0.0],[62.0477697,56.7766959,0.0],[62.0477397,56.7768883,0.0],[62.0474339,56.7768739,0.0],[62.0474182,56.7769742,0.0],[62.0471265,56.7769605,0.0]]]},"properties":{"addr:housenumber":"30А","addr:street":"Первомайская улица","building":"yes"}},{"type":"Feature","geometry":{"type":"Polygon","coordinates":[[[62.0433752,56.774566,0.0],[62.0434697,56.7745683,0.0],[62.0434764,56.7744834,0.0],[62.0433819,56.7744812,0.0],[62.0433752,56.774566,0.0]]]},"properties":{"building":"yes"}},{"type":"Feature","geometry":{"type":"Polygon","coordinates":[[[62.0461801,56.769838,0.0],[62.0463183,56.7699271,0.0],[62.0464586,56.7698617,0.0],[62.0463204,56.7697726,0.0],[62.0462758,56.7697934,0.0],[62.0461801,56.769838,0.0]]]},"properties":{"addr:housenumber":"90","addr:street":"улица Кунавина","building":"yes"}},{"type":"Feature","geometry":{"type":"Polygon","coordinates":[[[62.0354518,56.7755943,0.0],[62.0353795,56.7756861,0.0],[62.0358425,56.7757956,0.0],[62.0359148,56.7757039,0.0],[62.0354518,56.7755943,0.0]]]},"properties":{"addr:housenumber":"70","addr:street":"Первомайская улица","building":"yes"}},{"type":"Feature","geometry":{"type":"Polygon","coordinates":[[[62.0465877,56.7768024,0.0],[62.0465467,56.7768007,0.0],[62.0465353,56.776882,0.0],[62.0465752,56.7768837,0.0],[62.0465723,56.7769043,0.0],[62.0469729,56.7769212,0.0],[62.0469892,56.776806,0.0],[62.0465895,56.776789,0.0],[62.0465877,56.7768024,0.0]]]},"properties":{"addr:housenumber":"30","addr:street":"Первомайская улица","building":"yes"}},{"type":"Feature","geometry":{"type":"Polygon","coordinates":[[[62.0473077,56.7743668,0.0],[62.0474116,56.7743697,0.0],[62.0474188,56.7742929,0.0],[62.0473149,56.77429,0.0],[62.0473077,56.7743668,0.0]]]},"properties":{"building":"yes"}},{"type":"Feature","geometry":{"type":"Polygon","coordinates":[[[62.036006,56.7758365,0.0],[62.0361205,56.7758627,0.0],[62.0362362,56.7757108,0.0],[62.0361217,56.7756846,0.0],[62.036006,56.7758365,0.0]]]},"properties":{"addr:housenumber":"68","addr:street":"Первомайская улица","building":"yes"}},{"type":"Feature","geometry":{"type":"Polygon","coordinates":[[[62.0368999,56.7762042,0.0],[62.0368549,56.7762946,0.0],[62.0369118,56.7763031,0.0],[62.0368845,56.7763579,0.0],[62.0371829,56.7764025,0.0],[62.0372417,56.7762845,0.0],[62.0370033,56.7762489,0.0],[62.0370169,56.7762217,0.0],[62.0368999,56.7762042,0.0]]]},"properties":{"addr:housenumber":"58","addr:street":"Первомайская улица","building":"yes"}},{"type":"Feature","geometry":{"type":"Polygon","coordinates":[[[62.0431157,56.7739955,0.0],[62.0430588,56.7739933,0.0],[62.0430713,56.773897,0.0],[62.0429105,56.7738907,0.0],[62.0427432,56.7738842,0.0],[62.0427279,56.7740023,0.0],[62.0427848,56.7740045,0.0],[62.0427684,56.7741313,0.0],[62.0429163,56.7741371,0.0],[62.0429316,56.7740189,0.0],[62.0431118,56.7740259,0.0],[62.0431157,56.7739955,0.0]]]},"properties":{"building":"yes"}},{"type":"Feature","geometry":{"type":"Polygon","coordinates":[[[62.0463708,56.7754237,0.0],[62.0463544,56.775545,0.0],[62.046137,56.7755361,0.0],[62.0461233,56.775637,0.0],[62.0464641,56.7756509,0.0],[62.0464585,56.7756924,0.0],[62.0464059,56.7756902,0.0],[62.0463909,56.7758002,0.0],[62.0465588,56.7758071,0.0],[62.0465768,56.7756743,0.0],[62.0467826,56.7756826,0.0],[62.0467953,56.7755894,0.0],[62.0464533,56.7755754,0.0],[62.0464582,56.7755397,0.0],[62.0465027,56.7755415,0.0],[62.0465179,56.7754296,0.0],[62.0463708,56.7754237,0.0]]]},"properties":{"addr:housenumber":"3","addr:street":"Октябрьская улица","building":"yes"}},{"type":"Feature","geometry":{"type":"Polygon","coordinates":[[[62.0384808,56.7742817,0.0],[62.0386551,56.7742836,0.0],[62.0386975,56.7743261,0.0],[62.0386966,56.7743522,0.0],[62.0384783,56.7743498,0.0],[62.0384808,56.7742817,0.0]]]},"properties":{"building":"yes"}},{"type":"Feature","geometry":{"type":"Polygon","coordinates":[[[62.0307449,56.7731961,0.0],[62.0306293,56.7731019,0.0],[62.0299758,56.7733429,0.0],[62.0300913,56.773437,0.0],[62.0307449,56.7731961,0.0]]]},"properties":{"addr:housenumber":"4","addr:street":"Рокицанская улица","building":"yes"}},{"type":"Feature","geometry":{"type":"Polygon","coordinates":[[[62.0298474,56.7735887,0.0],[62.0291922,56.7738328,0.0],[62.0293061,56.7739245,0.0],[62.0299613,56.7736805,0.0],[62.0298474,56.7735887,0.0]]]},"properties":{"addr:housenumber":"12","addr:street":"улица Коммунальщиков","building":"yes"}},{"type":"Feature","geometry":{"type":"Polygon","coordinates":[[[62.0289108,56.773774,0.0],[62.0281355,56.7740658,0.0],[62.0277882,56.7741965,0.0],[62.0276635,56.774097,0.0],[62.027506,56.7741563,0.0],[62.0277473,56.7743488,0.0],[62.0279009,56.774291,0.0],[62.0290274,56.7738671,0.0],[62.0289108,56.773774,0.0]]]},"properties":{"building":"yes"}},{"type":"Feature","geometry":{"type":"Polygon","coordinates":[[[62.0302573,56.7739972,0.0],[62.0301347,56.774098,0.0],[62.0302672,56.7741465,0.0],[62.0303899,56.7740457,0.0],[62.0302573,56.7739972,0.0]]]},"properties":{"addr:housenumber":"10","addr:street":"улица Коммунальщиков","building":"yes"}},{"type":"Feature","geometry":{"type":"Polygon","coordinates":[[[62.030093,56.7699439,0.0],[62.0300028,56.7699772,0.0],[62.0300562,56.7700206,0.0],[62.0301263,56.7699948,0.0],[62.0304673,56.7702726,0.0],[62.0303845,56.7703031,0.0],[62.0304346,56.7703439,0.0],[62.0305222,56.7703116,0.0],[62.0304997,56.7702933,0.0],[62.0306709,56.7702301,0.0],[62.0302756,56.769908,0.0],[62.0301195,56.7699656,0.0],[62.030093,56.7699439,0.0]]]},"properties":{"addr:housenumber":"15А","addr:street":"Рокицанская улица","building":"yes"}},{"type":"Feature","geometry":{"type":"Polygon","coordinates":[[[62.0325102,56.775039,0.0],[62.0323004,56.7751282,0.0],[62.0322207,56.775072,0.0],[62.0321149,56.7751169,0.0],[62.0322831,56.7752357,0.0],[62.0325987,56.7751015,0.0],[62.0325102,56.775039,0.0]]]},"properties":{"addr:housenumber":"10","addr:country":"RU","addr:street":"улица Кунавина","building":"yes","addr:city":"Богданович"}},{"type":"Feature","geometry":{"type":"Polygon","coordinates":[[[62.0300717,56.7719768,0.0],[62.0298942,56.7720409,0.0],[62.030104,56.7722155,0.0],[62.0302815,56.7721515,0.0],[62.0300717,56.7719768,0.0]]]},"properties":{"addr:housenumber":"2","addr:street":"Рокицанская улица","building":"yes"}},{"type":"Feature","geometry":{"type":"Polygon","coordinates":[[[62.029744,56.7707378,0.0],[62.0297986,56.7707851,0.0],[62.0299519,56.7707321,0.0],[62.0298974,56.7706847,0.0],[62.029744,56.7707378,0.0]]]},"properties":{"building":"yes"}},{"type":"Feature","geometry":{"type":"Polygon","coordinates":[[[62.0313345,56.7723969,0.0],[62.0311489,56.7724653,0.0],[62.0314717,56.7727283,0.0],[62.0316573,56.77266,0.0],[62.0313345,56.7723969,0.0]]]},"properties":{"addr:housenumber":"1","building:levels":"3","addr:street":"Рокицанская улица","building":"yes"}},{"type":"Feature","geometry":{"type":"Polygon","coordinates":[[[62.0299181,56.7709801,0.0],[62.0297356,56.7710421,0.0],[62.0301845,56.7714391,0.0],[62.030367,56.7713772,0.0],[62.0299181,56.7709801,0.0]]]},"properties":{"addr:housenumber":"15А","building:levels":"1","addr:street":"Рокицанская улица","building":"yes"}},{"type":"Feature","geometry":{"type":"Polygon","coordinates":[[[62.031227,56.7730714,0.0],[62.0309398,56.7731714,0.0],[62.0311121,56.77332,0.0],[62.0310545,56.77334,0.0],[62.0311665,56.7734366,0.0],[62.0315113,56.7733166,0.0],[62.031227,56.7730714,0.0]]]},"properties":{"addr:housenumber":"2А","addr:country":"RU","addr:street":"Рокицанская улица","building":"yes","addr:city":"Богданович"}},{"type":"Feature","geometry":{"type":"Polygon","coordinates":[[[62.0312807,56.7811833,0.0],[62.0312862,56.78146,0.0],[62.0315474,56.7814585,0.0],[62.0315418,56.7811817,0.0],[62.0312807,56.7811833,0.0]]]},"properties":{"addr:housenumber":"36","addr:street":"улица Пищевиков","building":"yes"}},{"type":"Feature","geometry":{"type":"Polygon","coordinates":[[[62.0380366,56.7819043,0.0],[62.0382506,56.7819166,0.0],[62.0383172,56.7815687,0.0],[62.0381032,56.7815564,0.0],[62.0380366,56.7819043,0.0]]]},"properties":{"addr:housenumber":"14","addr:street":"улица Крылова","building":"yes"}},{"type":"Feature","geometry":{"type":"Polygon","coordinates":[[[62.0302382,56.7807809,0.0],[62.0302314,56.7808654,0.0],[62.0305809,56.7808738,0.0],[62.0305765,56.7809276,0.0],[62.0307408,56.7809316,0.0],[62.0307519,56.7807933,0.0],[62.0302382,56.7807809,0.0]]]},"properties":{"addr:housenumber":"38А","addr:street":"улица Пищевиков","building":"yes"}},{"type":"Feature","geometry":{"type":"Polygon","coordinates":[[[62.0295052,56.7807378,0.0],[62.030054,56.7807641,0.0],[62.0300351,56.780882,0.0],[62.0298837,56.7808748,0.0],[62.0298931,56.7808161,0.0],[62.0294957,56.780797,0.0],[62.0295052,56.7807378,0.0]]]},"properties":{"building":"yes"}},{"type":"Feature","geometry":{"type":"Polygon","coordinates":[[[62.0306129,56.7809993,0.0],[62.0305643,56.7814,0.0],[62.0306215,56.7814021,0.0],[62.0306159,56.781448,0.0],[62.0308667,56.7814571,0.0],[62.0309209,56.7810105,0.0],[62.0306129,56.7809993,0.0]]]},"properties":{"building":"yes"}},{"type":"Feature","geometry":{"type":"Polygon","coordinates":[[[62.0294174,56.7811015,0.0],[62.0296303,56.7811093,0.0],[62.0296639,56.7808335,0.0],[62.029451,56.7808257,0.0],[62.0294174,56.7811015,0.0]]]},"properties":{"building":"yes"}},{"type":"Feature","geometry":{"type":"Polygon","coordinates":[[[62.040465,56.7812805,0.0],[62.040458,56.7813485,0.0],[62.0405459,56.7813513,0.0],[62.0405412,56.7813957,0.0],[62.0405796,56.7813969,0.0],[62.0405745,56.7814458,0.0],[62.0404937,56.7814432,0.0],[62.0404836,56.7815399,0.0],[62.0408925,56.7815527,0.0],[62.0409193,56.7812947,0.0],[62.040465,56.7812805,0.0]]]},"properties":{"addr:housenumber":"10","addr:street":"улица Пищевиков","building":"yes"}},{"type":"Feature","geometry":{"type":"Polygon","coordinates":[[[62.0395351,56.7807153,0.0],[62.0395527,56.780572,0.0],[62.0402728,56.7805987,0.0],[62.0402688,56.7806313,0.0],[62.0404021,56.7806362,0.0],[62.0403885,56.7807469,0.0],[62.0395351,56.7807153,0.0]]]},"properties":{"addr:housenumber":"3","addr:street":"улица Пищевиков","building":"yes"}},{"type":"Feature","geometry":{"type":"Polygon","coordinates":[[[62.0403885,56.7807469,0.0],[62.0408733,56.7807649,0.0],[62.0408813,56.7806998,0.0],[62.0408869,56.7806542,0.0],[62.0404021,56.7806362,0.0],[62.0403885,56.7807469,0.0]]]},"properties":{"addr:housenumber":"1","addr:street":"улица Пищевиков","building":"yes"}},{"type":"Feature","geometry":{"type":"Polygon","coordinates":[[[62.0472861,56.7813764,0.0],[62.0474994,56.781385,0.0],[62.0475159,56.7812617,0.0],[62.0473026,56.7812531,0.0],[62.0472861,56.7813764,0.0]]]},"properties":{"building":"yes"}},{"type":"Feature","geometry":{"type":"Polygon","coordinates":[[[62.0483258,56.7769136,0.0],[62.0483182,56.7769665,0.0],[62.0483513,56.7769679,0.0],[62.0483437,56.777021,0.0],[62.0486887,56.7770359,0.0],[62.048704,56.7769299,0.0],[62.0483258,56.7769136,0.0]]]},"properties":{"building":"yes"}},{"type":"Feature","geometry":{"type":"Polygon","coordinates":[[[62.047539,56.7746562,0.0],[62.0477561,56.7746636,0.0],[62.0477609,56.7746209,0.0],[62.0481791,56.7746351,0.0],[62.0481729,56.7746898,0.0],[62.0483894,56.7746971,0.0],[62.0484021,56.7745848,0.0],[62.04823,56.774579,0.0],[62.048237,56.7745176,0.0],[62.0480001,56.7745096,0.0],[62.0477617,56.7745015,0.0],[62.0477561,56.7745507,0.0],[62.0475517,56.7745437,0.0],[62.047539,56.7746562,0.0]]]},"properties":{"addr:housenumber":"28А","addr:country":"RU","addr:street":"улица Гагарина","building":"yes","addr:city":"Богданович"}},{"type":"Feature","geometry":{"type":"Polygon","coordinates":[[[62.0480837,56.7771452,0.0],[62.0480612,56.7773012,0.0],[62.0485359,56.7773217,0.0],[62.0485584,56.7771657,0.0],[62.0480837,56.7771452,0.0]]]},"properties":{"addr:housenumber":"26А","addr:street":"Первомайская улица","building":"yes"}},{"type":"Feature","geometry":{"type":"Polygon","coordinates":[[[62.0481226,56.7768598,0.0],[62.0480329,56.776857,0.0],[62.0480301,56.7768833,0.0],[62.0478682,56.7768781,0.0],[62.0478601,56.776954,0.0],[62.0481117,56.776962,0.0],[62.0481226,56.7768598,0.0]]]},"properties":{"addr:housenumber":"28","addr:street":"Первомайская улица","building":"yes"}},{"type":"Feature","geometry":{"type":"Polygon","coordinates":[[[62.032055,56.7807001,0.0],[62.0321473,56.7807015,0.0],[62.03215,56.7806474,0.0],[62.0320577,56.780646,0.0],[62.032055,56.7807001,0.0]]]},"properties":{"addr:housenumber":"32","addr:street":"улица Пищевиков","building":"house"}},{"type":"Feature","geometry":{"type":"Polygon","coordinates":[[[62.0367483,56.7798449,0.0],[62.0368766,56.7798474,0.0],[62.0368825,56.779756,0.0],[62.0367542,56.7797535,0.0],[62.0367483,56.7798449,0.0]]]},"properties":{"building":"house"}},{"type":"Feature","geometry":{"type":"Polygon","coordinates":[[[62.0350861,56.7802246,0.0],[62.0352682,56.7802282,0.0],[62.0352709,56.7801867,0.0],[62.0350888,56.7801832,0.0],[62.0350861,56.7802246,0.0]]]},"properties":{"building":"house"}},{"type":"Feature","geometry":{"type":"Polygon","coordinates":[[[62.0349364,56.7814362,0.0],[62.0349245,56.7815568,0.0],[62.0350587,56.7815607,0.0],[62.0350705,56.7814401,0.0],[62.0349364,56.7814362,0.0]]]},"properties":{"addr:housenumber":"11","addr:street":"Комсомольская улица","building":"house"}},{"type":"Feature","geometry":{"type":"Polygon","coordinates":[[[62.0331888,56.7814453,0.0],[62.0331858,56.781506,0.0],[62.0333491,56.7815084,0.0],[62.0333521,56.7814477,0.0],[62.0331888,56.7814453,0.0]]]},"properties":{"addr:housenumber":"3","addr:street":"улица Молодёжи","building":"house"}},{"type":"Feature","geometry":{"type":"Polygon","coordinates":[[[62.0363293,56.7816744,0.0],[62.0364299,56.7816686,0.0],[62.0364116,56.781573,0.0],[62.0363111,56.7815788,0.0],[62.0363293,56.7816744,0.0]]]},"properties":{"addr:housenumber":"1","addr:street":"Комсомольский переулок","building":"house"}},{"type":"Feature","geometry":{"type":"Polygon","coordinates":[[[62.0338776,56.7805087,0.0],[62.0338767,56.7805721,0.0],[62.0340469,56.7805728,0.0],[62.0340478,56.7805094,0.0],[62.0338776,56.7805087,0.0]]]},"properties":{"building":"house"}},{"type":"Feature","geometry":{"type":"Polygon","coordinates":[[[62.032346,56.7793699,0.0],[62.0315977,56.7797404,0.0],[62.0322709,56.7801485,0.0],[62.0330976,56.7797392,0.0],[62.0325579,56.7794121,0.0],[62.0324795,56.7794509,0.0],[62.032346,56.7793699,0.0]]]},"properties":{"addr:housenumber":"1Б","addr:street":"Кооперативная улица","building":"yes"}},{"type":"Feature","geometry":{"type":"Polygon","coordinates":[[[62.0354883,56.7811597,0.0],[62.035669,56.781165,0.0],[62.0356744,56.7811102,0.0],[62.0354937,56.7811049,0.0],[62.0354883,56.7811597,0.0]]]},"properties":{"addr:housenumber":"10","addr:street":"Комсомольская улица","building":"house"}},{"type":"Feature","geometry":{"type":"Polygon","coordinates":[[[62.0346253,56.7796482,0.0],[62.0346216,56.7797048,0.0],[62.0347795,56.7797079,0.0],[62.0347832,56.7796513,0.0],[62.0346253,56.7796482,0.0]]]},"properties":{"building":"house"}},{"type":"Feature","geometry":{"type":"Polygon","coordinates":[[[62.0372199,56.7811058,0.0],[62.0373845,56.7811076,0.0],[62.0373857,56.781073,0.0],[62.0372212,56.7810712,0.0],[62.0372199,56.7811058,0.0]]]},"properties":{"addr:housenumber":"15","addr:street":"улица Крылова","building":"house"}},{"type":"Feature","geometry":{"type":"Polygon","coordinates":[[[62.0330121,56.7792305,0.0],[62.0332214,56.7793737,0.0],[62.0334645,56.779267,0.0],[62.0332552,56.7791238,0.0],[62.0330121,56.7792305,0.0]]]},"properties":{"building":"yes"}},{"type":"Feature","geometry":{"type":"Polygon","coordinates":[[[62.0351034,56.7806041,0.0],[62.0352106,56.7806062,0.0],[62.0352151,56.7805378,0.0],[62.0351079,56.7805357,0.0],[62.0351034,56.7806041,0.0]]]},"properties":{"building":"house"}},{"type":"Feature","geometry":{"type":"Polygon","coordinates":[[[62.0338467,56.7811707,0.0],[62.0338447,56.7812501,0.0],[62.0339871,56.7812512,0.0],[62.0339891,56.7811718,0.0],[62.0338467,56.7811707,0.0]]]},"properties":{"addr:housenumber":"12","addr:street":"улица Молодёжи","building":"house"}},{"type":"Feature","geometry":{"type":"Polygon","coordinates":[[[62.0316654,56.7806988,0.0],[62.0317225,56.7806997,0.0],[62.031726,56.7806274,0.0],[62.031669,56.7806266,0.0],[62.0316654,56.7806988,0.0]]]},"properties":{"addr:housenumber":"34","addr:street":"улица Пищевиков","building":"house"}},{"type":"Feature","geometry":{"type":"Polygon","coordinates":[[[62.0286645,56.7790671,0.0],[62.0286806,56.7792755,0.0],[62.0287711,56.7792734,0.0],[62.0287684,56.7792384,0.0],[62.0288808,56.7792358,0.0],[62.0288675,56.7790624,0.0],[62.0286645,56.7790671,0.0]]]},"properties":{"addr:housenumber":"1","addr:region":"Свердловская область","building:levels":"2","addr:street":"Кооперативная улица","building":"yes","addr:city":"Богданович"}},{"type":"Feature","geometry":{"type":"Polygon","coordinates":[[[62.0361499,56.7808204,0.0],[62.0361429,56.7808919,0.0],[62.0363016,56.7808966,0.0],[62.0363086,56.780825,0.0],[62.0361499,56.7808204,0.0]]]},"properties":{"addr:housenumber":"16","addr:street":"улица Пищевиков","building":"house"}},{"type":"Feature","geometry":{"type":"Polygon","coordinates":[[[62.0349749,56.7811645,0.0],[62.0349683,56.7812326,0.0],[62.03508,56.7812359,0.0],[62.0350866,56.7811678,0.0],[62.0349749,56.7811645,0.0]]]},"properties":{"addr:housenumber":"9","addr:street":"Комсомольская улица","building":"house"}},{"type":"Feature","geometry":{"type":"Polygon","coordinates":[[[62.0373439,56.7801967,0.0],[62.0374407,56.7801986,0.0],[62.0374462,56.7801136,0.0],[62.0373494,56.7801117,0.0],[62.0373439,56.7801967,0.0]]]},"properties":{"building":"house"}},{"type":"Feature","geometry":{"type":"Polygon","coordinates":[[[62.0332941,56.780758,0.0],[62.0333907,56.7807595,0.0],[62.0333939,56.7806962,0.0],[62.0332972,56.7806948,0.0],[62.0332941,56.780758,0.0]]]},"properties":{"addr:housenumber":"26","addr:street":"улица Пищевиков","building":"house"}},{"type":"Feature","geometry":{"type":"Polygon","coordinates":[[[62.0357407,56.779729,0.0],[62.0357349,56.779819,0.0],[62.0359003,56.7798223,0.0],[62.0359062,56.7797323,0.0],[62.0357407,56.779729,0.0]]]},"properties":{"building":"house"}},{"type":"Feature","geometry":{"type":"Polygon","coordinates":[[[62.0354356,56.7815225,0.0],[62.0354298,56.7815818,0.0],[62.0356117,56.7815872,0.0],[62.0356175,56.7815279,0.0],[62.0354356,56.7815225,0.0]]]},"properties":{"addr:housenumber":"14","addr:street":"Комсомольская улица","building":"house"}},{"type":"Feature","geometry":{"type":"Polygon","coordinates":[[[62.0363382,56.780607,0.0],[62.0363341,56.7806687,0.0],[62.0364861,56.7806717,0.0],[62.0364901,56.78061,0.0],[62.0363382,56.780607,0.0]]]},"properties":{"building":"house"}},{"type":"Feature","geometry":{"type":"Polygon","coordinates":[[[62.0339167,56.7801566,0.0],[62.034068,56.7801596,0.0],[62.0340723,56.780094,0.0],[62.033921,56.780091,0.0],[62.0339167,56.7801566,0.0]]]},"properties":{"building":"house"}},{"type":"Feature","geometry":{"type":"Polygon","coordinates":[[[62.0346572,56.7816307,0.0],[62.0346491,56.7817127,0.0],[62.0347808,56.7817166,0.0],[62.0347889,56.7816345,0.0],[62.0346572,56.7816307,0.0]]]},"properties":{"addr:housenumber":"3","addr:street":"Комсомольский переулок","building":"house"}},{"type":"Feature","geometry":{"type":"Polygon","coordinates":[[[62.0346447,56.7808408,0.0],[62.0346543,56.7807428,0.0],[62.0345349,56.7807393,0.0],[62.0345253,56.7808373,0.0],[62.0346447,56.7808408,0.0]]]},"properties":{"addr:housenumber":"22","addr:street":"улица Пищевиков","building":"house"}},{"type":"Feature","geometry":{"type":"Polygon","coordinates":[[[62.0372284,56.7804502,0.0],[62.037226,56.7805086,0.0],[62.0373819,56.7805106,0.0],[62.0373835,56.7804707,0.0],[62.0372709,56.7804693,0.0],[62.0372717,56.7804507,0.0],[62.0372284,56.7804502,0.0]]]},"properties":{"building":"house"}},{"type":"Feature","geometry":{"type":"Polygon","coordinates":[[[62.032397,56.7807105,0.0],[62.0325013,56.7807121,0.0],[62.0325039,56.7806578,0.0],[62.0323997,56.7806563,0.0],[62.032397,56.7807105,0.0]]]},"properties":{"addr:housenumber":"30","addr:street":"улица Пищевиков","building":"house"}},{"type":"Feature","geometry":{"type":"Polygon","coordinates":[[[62.0352329,56.7797698,0.0],[62.03535,56.7797721,0.0],[62.0353552,56.7796926,0.0],[62.0352381,56.7796903,0.0],[62.0352329,56.7797698,0.0]]]},"properties":{"building":"house"}},{"type":"Feature","geometry":{"type":"Polygon","coordinates":[[[62.0356598,56.7802847,0.0],[62.0356565,56.7803345,0.0],[62.035811,56.7803375,0.0],[62.0358142,56.7802877,0.0],[62.0356598,56.7802847,0.0]]]},"properties":{"building":"house"}},{"type":"Feature","geometry":{"type":"Polygon","coordinates":[[[62.0371642,56.7809131,0.0],[62.0372972,56.7809155,0.0],[62.0372999,56.7808684,0.0],[62.037167,56.7808661,0.0],[62.0371642,56.7809131,0.0]]]},"properties":{"addr:housenumber":"13","addr:street":"улица Крылова","building":"house"}},{"type":"Feature","geometry":{"type":"Polygon","coordinates":[[[62.0306453,56.7802618,0.0],[62.0307344,56.7803106,0.0],[62.0307993,56.780275,0.0],[62.0307102,56.7802262,0.0],[62.0306453,56.7802618,0.0]]]},"properties":{"building:levels":"1","building":"yes"}},{"type":"Feature","geometry":{"type":"Polygon","coordinates":[[[62.0367212,56.7817025,0.0],[62.0368217,56.7816994,0.0],[62.0368167,56.781652,0.0],[62.0367163,56.7816552,0.0],[62.0367212,56.7817025,0.0]]]},"properties":{"addr:housenumber":"21","addr:street":"улица Крылова","building":"house"}},{"type":"Feature","geometry":{"type":"Polygon","coordinates":[[[62.0338479,56.7809503,0.0],[62.0338467,56.7810002,0.0],[62.0339929,56.7810013,0.0],[62.0339941,56.7809514,0.0],[62.0338479,56.7809503,0.0]]]},"properties":{"addr:housenumber":"10","addr:street":"улица Молодёжи","building":"house"}},{"type":"Feature","geometry":{"type":"Polygon","coordinates":[[[62.0364034,56.7808397,0.0],[62.0363961,56.780914,0.0],[62.03658,56.7809194,0.0],[62.0365872,56.7808451,0.0],[62.0364034,56.7808397,0.0]]]},"properties":{"addr:housenumber":"14","addr:street":"улица Пищевиков","building":"house"}},{"type":"Feature","geometry":{"type":"Polygon","coordinates":[[[62.0339965,56.7797072,0.0],[62.0341273,56.7797098,0.0],[62.0341308,56.7796562,0.0],[62.034,56.7796537,0.0],[62.0339965,56.7797072,0.0]]]},"properties":{"building":"house"}},{"type":"Feature","geometry":{"type":"Polygon","coordinates":[[[62.0370604,56.7812678,0.0],[62.0372266,56.7812706,0.0],[62.0372304,56.7812005,0.0],[62.0370642,56.7811978,0.0],[62.0370604,56.7812678,0.0]]]},"properties":{"addr:housenumber":"17","addr:street":"улица Крылова","building":"house"}},{"type":"Feature","geometry":{"type":"Polygon","coordinates":[[[62.0373452,56.779874,0.0],[62.0374768,56.7798766,0.0],[62.0374821,56.7797953,0.0],[62.0373505,56.7797928,0.0],[62.0373452,56.779874,0.0]]]},"properties":{"building":"house"}},{"type":"Feature","geometry":{"type":"Polygon","coordinates":[[[62.0351154,56.7804074,0.0],[62.0352479,56.78041,0.0],[62.0352523,56.7803426,0.0],[62.0351198,56.78034,0.0],[62.0351154,56.7804074,0.0]]]},"properties":{"building":"house"}},{"type":"Feature","geometry":{"type":"Polygon","coordinates":[[[62.0327613,56.7793413,0.0],[62.0330425,56.7795337,0.0],[62.0331644,56.7794802,0.0],[62.0328832,56.7792878,0.0],[62.0327613,56.7793413,0.0]]]},"properties":{"building":"yes"}},{"type":"Feature","geometry":{"type":"Polygon","coordinates":[[[62.0332291,56.7810978,0.0],[62.0333701,56.7810999,0.0],[62.0333728,56.7810451,0.0],[62.0332318,56.7810431,0.0],[62.0332291,56.7810978,0.0]]]},"properties":{"addr:housenumber":"1","addr:street":"улица Молодёжи","building":"house"}},{"type":"Feature","geometry":{"type":"Polygon","coordinates":[[[62.0357229,56.7799843,0.0],[62.0357188,56.780047,0.0],[62.0359074,56.7800507,0.0],[62.0359115,56.7799879,0.0],[62.0357229,56.7799843,0.0]]]},"properties":{"building":"house"}},{"type":"Feature","geometry":{"type":"Polygon","coordinates":[[[62.0338244,56.7814021,0.0],[62.033823,56.7814567,0.0],[62.0339956,56.781458,0.0],[62.033997,56.7814034,0.0],[62.0338244,56.7814021,0.0]]]},"properties":{"addr:housenumber":"14","addr:street":"улица Молодёжи","building":"house"}},{"type":"Feature","geometry":{"type":"Polygon","coordinates":[[[62.0372073,56.7806344,0.0],[62.0372029,56.7807015,0.0],[62.0373519,56.7807045,0.0],[62.0373563,56.7806373,0.0],[62.0372073,56.7806344,0.0]]]},"properties":{"building":"house"}},{"type":"Feature","geometry":{"type":"Polygon","coordinates":[[[62.0350644,56.7808512,0.0],[62.0351589,56.780854,0.0],[62.0351668,56.7807733,0.0],[62.0350723,56.7807705,0.0],[62.0350644,56.7808512,0.0]]]},"properties":{"addr:housenumber":"20","addr:street":"улица Пищевиков","building":"house"}},{"type":"Feature","geometry":{"type":"Polygon","coordinates":[[[62.0372522,56.7803767,0.0],[62.0373953,56.7803795,0.0],[62.0373984,56.7803312,0.0],[62.0372553,56.7803284,0.0],[62.0372522,56.7803767,0.0]]]},"properties":{"building":"house"}},{"type":"Feature","geometry":{"type":"Polygon","coordinates":[[[62.0345664,56.7805945,0.0],[62.0346679,56.7805965,0.0],[62.0346737,56.7805084,0.0],[62.0345721,56.7805064,0.0],[62.0345664,56.7805945,0.0]]]},"properties":{"building":"house"}},{"type":"Feature","geometry":{"type":"Polygon","coordinates":[[[62.0327177,56.7807437,0.0],[62.0328163,56.7807452,0.0],[62.0328199,56.7806734,0.0],[62.0327213,56.780672,0.0],[62.0327177,56.7807437,0.0]]]},"properties":{"addr:housenumber":"28","addr:street":"улица Пищевиков","building":"house"}},{"type":"Feature","geometry":{"type":"Polygon","coordinates":[[[62.0351478,56.7799104,0.0],[62.0351444,56.7799626,0.0],[62.035306,56.7799658,0.0],[62.0353094,56.7799136,0.0],[62.0351478,56.7799104,0.0]]]},"properties":{"building":"house"}},{"type":"Feature","geometry":{"type":"Polygon","coordinates":[[[62.0354723,56.7812588,0.0],[62.0354642,56.7813419,0.0],[62.035584,56.7813454,0.0],[62.0355922,56.7812623,0.0],[62.0354723,56.7812588,0.0]]]},"properties":{"addr:housenumber":"12","addr:street":"Комсомольская улица","building":"house"}},{"type":"Feature","geometry":{"type":"Polygon","coordinates":[[[62.0339499,56.7799818,0.0],[62.0340715,56.7799842,0.0],[62.0340762,56.7799111,0.0],[62.0339547,56.7799088,0.0],[62.0339499,56.7799818,0.0]]]},"properties":{"building":"house"}},{"type":"Feature","geometry":{"type":"Polygon","coordinates":[[[62.0355725,56.7807976,0.0],[62.0355657,56.7808667,0.0],[62.0356535,56.7808693,0.0],[62.0356603,56.7808002,0.0],[62.0355725,56.7807976,0.0]]]},"properties":{"addr:housenumber":"18","addr:street":"улица Пищевиков","building":"house"}},{"type":"Feature","geometry":{"type":"Polygon","coordinates":[[[62.0370539,56.7815278,0.0],[62.0371819,56.7815278,0.0],[62.0371819,56.7814814,0.0],[62.0370539,56.7814814,0.0],[62.0370539,56.7815278,0.0]]]},"properties":{"addr:housenumber":"19","addr:street":"улица Крылова","building":"house"}},{"type":"Feature","geometry":{"type":"Polygon","coordinates":[[[62.03327,56.7803002,0.0],[62.0332754,56.7802664,0.0],[62.0332549,56.7802654,0.0],[62.0332837,56.7800859,0.0],[62.0331408,56.780079,0.0],[62.0330978,56.7803466,0.0],[62.0332407,56.7803535,0.0],[62.0332494,56.7802992,0.0],[62.03327,56.7803002,0.0]]]},"properties":{"building":"yes"}},{"type":"Feature","geometry":{"type":"Polygon","coordinates":[[[62.0357163,56.7805818,0.0],[62.0357123,56.7806439,0.0],[62.0358576,56.7806467,0.0],[62.0358616,56.7805847,0.0],[62.0357163,56.7805818,0.0]]]},"properties":{"building":"house"}},{"type":"Feature","geometry":{"type":"Polygon","coordinates":[[[62.0340886,56.7807187,0.0],[62.0340863,56.7808098,0.0],[62.0341697,56.7808104,0.0],[62.034172,56.7807193,0.0],[62.0340886,56.7807187,0.0]]]},"properties":{"addr:housenumber":"24","addr:street":"улица Пищевиков","building":"house"}},{"type":"Feature","geometry":{"type":"Polygon","coordinates":[[[62.0331972,56.7799326,0.0],[62.0331898,56.7800034,0.0],[62.0332786,56.7800062,0.0],[62.033286,56.7799354,0.0],[62.0331972,56.7799326,0.0]]]},"properties":{"building":"yes"}},{"type":"Feature","geometry":{"type":"Polygon","coordinates":[[[62.0338156,56.7816544,0.0],[62.0338142,56.7817127,0.0],[62.0340069,56.7817142,0.0],[62.0340084,56.7816558,0.0],[62.0338156,56.7816544,0.0]]]},"properties":{"addr:housenumber":"16","addr:street":"улица Молодёжи","building":"house"}},{"type":"Feature","geometry":{"type":"Polygon","coordinates":[[[62.0355823,56.7725069,0.0],[62.0356498,56.7725872,0.0],[62.0357692,56.772557,0.0],[62.0357017,56.7724767,0.0],[62.0355823,56.7725069,0.0]]]},"properties":{"addr:housenumber":"17","addr:street":"улица Победы","building":"yes"}},{"type":"Feature","geometry":{"type":"Polygon","coordinates":[[[62.0298734,56.7749779,0.0],[62.0299532,56.7750113,0.0],[62.0300479,56.7749433,0.0],[62.0299682,56.7749099,0.0],[62.0298734,56.7749779,0.0]]]},"properties":{"addr:housenumber":"5","addr:street":"улица Коммунальщиков","building":"yes"}},{"type":"Feature","geometry":{"type":"Polygon","coordinates":[[[62.0371798,56.7731908,0.0],[62.0372142,56.7732436,0.0],[62.0373204,56.7732227,0.0],[62.0372859,56.77317,0.0],[62.0371798,56.7731908,0.0]]]},"properties":{"addr:housenumber":"42","addr:street":"улица Кунавина","building":"yes"}},{"type":"Feature","geometry":{"type":"Polygon","coordinates":[[[62.0330395,56.7731658,0.0],[62.0331034,56.7732353,0.0],[62.0332572,56.7731928,0.0],[62.0331932,56.7731233,0.0],[62.0330395,56.7731658,0.0]]]},"properties":{"addr:housenumber":"3","addr:street":"улица Победы","building":"yes"}},{"type":"Feature","geometry":{"type":"Polygon","coordinates":[[[62.0295702,56.7746799,0.0],[62.0296783,56.7747271,0.0],[62.0297325,56.7746899,0.0],[62.0296244,56.7746427,0.0],[62.0295702,56.7746799,0.0]]]},"properties":{"addr:housenumber":"8","addr:street":"улица Коммунальщиков","building":"yes"}},{"type":"Feature","geometry":{"type":"Polygon","coordinates":[[[62.0317999,56.7744279,0.0],[62.0318592,56.7744804,0.0],[62.0320288,56.774423,0.0],[62.0319694,56.7743704,0.0],[62.0317999,56.7744279,0.0]]]},"properties":{"addr:housenumber":"8","addr:street":"переулок Кунавина","building":"yes"}},{"type":"Feature","geometry":{"type":"Polygon","coordinates":[[[62.0366073,56.7733149,0.0],[62.0366772,56.7732897,0.0],[62.0367598,56.7733586,0.0],[62.0366352,56.7734035,0.0],[62.0365868,56.7733631,0.0],[62.0366415,56.7733434,0.0],[62.0366073,56.7733149,0.0]]]},"properties":{"addr:housenumber":"36","addr:street":"улица Кунавина","building":"yes"}},{"type":"Feature","geometry":{"type":"Polygon","coordinates":[[[62.0350026,56.7726697,0.0],[62.035067,56.7727465,0.0],[62.0351506,56.7727255,0.0],[62.0350862,56.7726487,0.0],[62.0350026,56.7726697,0.0]]]},"properties":{"addr:housenumber":"13","addr:street":"улица Победы","building":"yes"}},{"type":"Feature","geometry":{"type":"Polygon","coordinates":[[[62.0346082,56.7741885,0.0],[62.0346779,56.7742379,0.0],[62.0348008,56.7741859,0.0],[62.0347311,56.7741365,0.0],[62.0346082,56.7741885,0.0]]]},"properties":{"addr:housenumber":"26","addr:street":"улица Кунавина","building":"yes"}},{"type":"Feature","geometry":{"type":"Polygon","coordinates":[[[62.0362804,56.773442,0.0],[62.0363709,56.773512,0.0],[62.0364519,56.7734806,0.0],[62.0363613,56.7734106,0.0],[62.0362804,56.773442,0.0]]]},"properties":{"addr:housenumber":"34","addr:street":"улица Кунавина","building":"yes"}},{"type":"Feature","geometry":{"type":"Polygon","coordinates":[[[62.0336008,56.7741082,0.0],[62.0336813,56.7741979,0.0],[62.0337763,56.7741723,0.0],[62.0336959,56.7740826,0.0],[62.0336008,56.7741082,0.0]]]},"properties":{"addr:housenumber":"16","addr:street":"улица Кунавина","building":"yes"}},{"type":"Feature","geometry":{"type":"Polygon","coordinates":[[[62.0293597,56.7748854,0.0],[62.0294643,56.7749276,0.0],[62.0295422,56.7748696,0.0],[62.0294376,56.7748274,0.0],[62.0293597,56.7748854,0.0]]]},"properties":{"addr:housenumber":"6","addr:street":"улица Коммунальщиков","building":"yes"}},{"type":"Feature","geometry":{"type":"Polygon","coordinates":[[[62.0296222,56.7757675,0.0],[62.0297114,56.775812,0.0],[62.0297884,56.7757657,0.0],[62.0296991,56.7757212,0.0],[62.0296222,56.7757675,0.0]]]},"properties":{"addr:housenumber":"1","addr:street":"улица Коммунальщиков","building":"yes"}},{"type":"Feature","geometry":{"type":"Polygon","coordinates":[[[62.0336404,56.7745172,0.0],[62.0337567,56.7745999,0.0],[62.0338308,56.7745686,0.0],[62.0337144,56.7744859,0.0],[62.0336404,56.7745172,0.0]]]},"properties":{"addr:housenumber":"14","addr:street":"улица Кунавина","building":"yes"}},{"type":"Feature","geometry":{"type":"Polygon","coordinates":[[[62.0362902,56.7723337,0.0],[62.0363802,56.7724171,0.0],[62.0364597,56.7723913,0.0],[62.0363696,56.7723079,0.0],[62.0362902,56.7723337,0.0]]]},"properties":{"addr:housenumber":"21","addr:street":"улица Победы","building":"yes"}},{"type":"Feature","geometry":{"type":"Polygon","coordinates":[[[62.0310012,56.7756157,0.0],[62.0310955,56.775692,0.0],[62.0311796,56.7756608,0.0],[62.0310853,56.7755845,0.0],[62.0310012,56.7756157,0.0]]]},"properties":{"addr:housenumber":"4","addr:street":"улица Кунавина","building":"yes"}},{"type":"Feature","geometry":{"type":"Polygon","coordinates":[[[62.03364,56.7731351,0.0],[62.0337204,56.7731149,0.0],[62.0336414,56.7730205,0.0],[62.033561,56.7730407,0.0],[62.03364,56.7731351,0.0]]]},"properties":{"addr:housenumber":"5","addr:street":"улица Победы","building":"yes"}},{"type":"Feature","geometry":{"type":"Polygon","coordinates":[[[62.0303772,56.77453,0.0],[62.0304791,56.7745686,0.0],[62.0305538,56.7745094,0.0],[62.0304519,56.7744708,0.0],[62.0303772,56.77453,0.0]]]},"properties":{"addr:housenumber":"9","addr:street":"улица Коммунальщиков","building":"yes"}},{"type":"Feature","geometry":{"type":"Polygon","coordinates":[[[62.03521,56.7738568,0.0],[62.035316,56.7739298,0.0],[62.0354744,56.7738607,0.0],[62.0353684,56.7737877,0.0],[62.03521,56.7738568,0.0]]]},"properties":{"addr:housenumber":"28","addr:street":"улица Кунавина","building":"yes"}},{"type":"Feature","geometry":{"type":"Polygon","coordinates":[[[62.0321964,56.7747057,0.0],[62.0322547,56.7747497,0.0],[62.0323812,56.7746993,0.0],[62.0323228,56.7746554,0.0],[62.0321964,56.7747057,0.0]]]},"properties":{"addr:housenumber":"4","addr:street":"переулок Кунавина","building":"yes"}},{"type":"Feature","geometry":{"type":"Polygon","coordinates":[[[62.032732,56.7732438,0.0],[62.0327861,56.7733061,0.0],[62.032904,56.7732754,0.0],[62.0328498,56.7732131,0.0],[62.032732,56.7732438,0.0]]]},"properties":{"addr:housenumber":"1","addr:street":"улица Победы","building":"yes"}},{"type":"Feature","geometry":{"type":"Polygon","coordinates":[[[62.0301188,56.774876,0.0],[62.0301786,56.7749042,0.0],[62.0302221,56.7748766,0.0],[62.0301623,56.7748484,0.0],[62.0301188,56.774876,0.0]]]},"properties":{"addr:housenumber":"7","addr:street":"улица Коммунальщиков","building":"yes"}},{"type":"Feature","geometry":{"type":"Polygon","coordinates":[[[62.0345785,56.7728574,0.0],[62.0346291,56.7729203,0.0],[62.0347041,56.7729022,0.0],[62.0346536,56.7728393,0.0],[62.0345785,56.7728574,0.0]]]},"properties":{"addr:housenumber":"11","addr:street":"улица Победы","building":"yes"}},{"type":"Feature","geometry":{"type":"Polygon","coordinates":[[[62.0368522,56.7732593,0.0],[62.0369082,56.7733223,0.0],[62.0369849,56.7733018,0.0],[62.0369289,56.7732388,0.0],[62.0368522,56.7732593,0.0]]]},"properties":{"addr:housenumber":"38","addr:street":"улица Кунавина","building":"yes"}},{"type":"Feature","geometry":{"type":"Polygon","coordinates":[[[62.0353382,56.772584,0.0],[62.0354015,56.7726621,0.0],[62.0354906,56.7726405,0.0],[62.0354274,56.7725624,0.0],[62.0353382,56.772584,0.0]]]},"properties":{"addr:housenumber":"15","addr:street":"улица Победы","building":"yes"}},{"type":"Feature","geometry":{"type":"Polygon","coordinates":[[[62.0296124,56.7751944,0.0],[62.0297365,56.7752478,0.0],[62.029792,56.7752091,0.0],[62.0296678,56.7751557,0.0],[62.0296124,56.7751944,0.0]]]},"properties":{"addr:housenumber":"3","addr:street":"улица Коммунальщиков","building":"yes"}},{"type":"Feature","geometry":{"type":"Polygon","coordinates":[[[62.0312482,56.7755358,0.0],[62.031329,56.7755911,0.0],[62.0313859,56.7755662,0.0],[62.0313051,56.7755108,0.0],[62.0312482,56.7755358,0.0]]]},"properties":{"addr:housenumber":"6","addr:street":"улица Кунавина","building":"yes"}},{"type":"Feature","geometry":{"type":"Polygon","coordinates":[[[62.0341985,56.772886,0.0],[62.0342543,56.7729558,0.0],[62.03436,56.7729304,0.0],[62.0343042,56.7728606,0.0],[62.0341985,56.772886,0.0]]]},"properties":{"addr:housenumber":"9","addr:street":"улица Победы","building":"yes"}},{"type":"Feature","geometry":{"type":"Polygon","coordinates":[[[62.0320398,56.7745782,0.0],[62.0321079,56.7746257,0.0],[62.0322286,56.7745738,0.0],[62.0321605,56.7745263,0.0],[62.0320398,56.7745782,0.0]]]},"properties":{"addr:housenumber":"6","addr:street":"переулок Кунавина","building":"yes"}},{"type":"Feature","geometry":{"type":"Polygon","coordinates":[[[62.0333049,56.7739586,0.0],[62.0333351,56.7740045,0.0],[62.0335621,56.7739597,0.0],[62.0335319,56.7739137,0.0],[62.0333049,56.7739586,0.0]]]},"properties":{"addr:housenumber":"18","addr:street":"улица Кунавина","building":"yes"}},{"type":"Feature","geometry":{"type":"Polygon","coordinates":[[[62.0359413,56.7736065,0.0],[62.0360025,56.7736496,0.0],[62.036093,56.773611,0.0],[62.0360318,56.7735679,0.0],[62.0359413,56.7736065,0.0]]]},"properties":{"addr:housenumber":"32","addr:street":"улица Кунавина","building":"yes"}},{"type":"Feature","geometry":{"type":"Polygon","coordinates":[[[62.0338584,56.7729706,0.0],[62.0339317,56.7730635,0.0],[62.0340311,56.7730399,0.0],[62.0339578,56.772947,0.0],[62.0338584,56.7729706,0.0]]]},"properties":{"addr:housenumber":"7","addr:street":"улица Победы","building":"yes"}},{"type":"Feature","geometry":{"type":"Polygon","coordinates":[[[62.0316461,56.774272,0.0],[62.0317256,56.7743362,0.0],[62.0318549,56.7742882,0.0],[62.0317754,56.774224,0.0],[62.0316461,56.774272,0.0]]]},"properties":{"addr:housenumber":"10","addr:street":"переулок Кунавина","building":"yes"}},{"type":"Feature","geometry":{"type":"Polygon","coordinates":[[[62.0292322,56.7750264,0.0],[62.0293034,56.7750586,0.0],[62.0293463,56.77503,0.0],[62.029275,56.7749979,0.0],[62.0292322,56.7750264,0.0]]]},"properties":{"addr:housenumber":"4","addr:street":"улица Коммунальщиков","building":"yes"}},{"type":"Feature","geometry":{"type":"Polygon","coordinates":[[[62.0340024,56.7744314,0.0],[62.0340652,56.7744798,0.0],[62.0342146,56.7744215,0.0],[62.0341518,56.7743732,0.0],[62.0340024,56.7744314,0.0]]]},"properties":{"addr:housenumber":"22","addr:street":"улица Кунавина","building":"yes"}},{"type":"Feature","geometry":{"type":"Polygon","coordinates":[[[62.0306061,56.7758027,0.0],[62.0306982,56.7758666,0.0],[62.0307602,56.7758398,0.0],[62.0306681,56.7757759,0.0],[62.0306061,56.7758027,0.0]]]},"properties":{"addr:housenumber":"2","addr:street":"улица Кунавина","building":"yes"}},{"type":"Feature","geometry":{"type":"Polygon","coordinates":[[[62.0355907,56.7737439,0.0],[62.0356506,56.7737907,0.0],[62.0357763,56.7737425,0.0],[62.0357165,56.7736957,0.0],[62.0355907,56.7737439,0.0]]]},"properties":{"addr:housenumber":"30","addr:street":"улица Кунавина","building":"yes"}},{"type":"Feature","geometry":{"type":"Polygon","coordinates":[[[62.0324377,56.7749076,0.0],[62.0325194,56.7749701,0.0],[62.0326523,56.7749179,0.0],[62.0325706,56.7748554,0.0],[62.0324377,56.7749076,0.0]]]},"properties":{"addr:housenumber":"2","addr:street":"переулок Кунавина","building":"yes"}},{"type":"Feature","geometry":{"type":"Polygon","coordinates":[[[62.0350673,56.7723221,0.0],[62.0351292,56.7723961,0.0],[62.0352333,56.77237,0.0],[62.0351714,56.7722959,0.0],[62.0350673,56.7723221,0.0]]]},"properties":{"addr:housenumber":"16","addr:street":"улица Победы","building":"yes"}},{"type":"Feature","geometry":{"type":"Polygon","coordinates":[[[62.0336267,56.7726712,0.0],[62.0336903,56.772741,0.0],[62.0337715,56.7727187,0.0],[62.0337078,56.772649,0.0],[62.0336267,56.7726712,0.0]]]},"properties":{"addr:housenumber":"8","addr:street":"улица Победы","building":"yes"}},{"type":"Feature","geometry":{"type":"Polygon","coordinates":[[[62.0346203,56.7718183,0.0],[62.0346807,56.7718477,0.0],[62.0347489,56.7718056,0.0],[62.0346885,56.7717762,0.0],[62.0346203,56.7718183,0.0]]]},"properties":{"addr:housenumber":"6","addr:street":"улица Пургина","building":"house"}},{"type":"Feature","geometry":{"type":"Polygon","coordinates":[[[62.0327606,56.7718008,0.0],[62.0328217,56.7718508,0.0],[62.0329582,56.7718007,0.0],[62.0328971,56.7717507,0.0],[62.0327606,56.7718008,0.0]]]},"properties":{"addr:housenumber":"7","addr:street":"улица Пархоменко","building":"house"}},{"type":"Feature","geometry":{"type":"Polygon","coordinates":[[[62.0328457,56.7708484,0.0],[62.0329207,56.770889,0.0],[62.0330204,56.7708337,0.0],[62.0329454,56.7707931,0.0],[62.0328457,56.7708484,0.0]]]},"properties":{"addr:housenumber":"1","addr:street":"улица Пургина","building":"house"}},{"type":"Feature","geometry":{"type":"Polygon","coordinates":[[[62.0336024,56.7712663,0.0],[62.0336636,56.7713014,0.0],[62.0337705,56.7712455,0.0],[62.0337093,56.7712104,0.0],[62.0336024,56.7712663,0.0]]]},"properties":{"addr:housenumber":"14","addr:street":"улица Пургина","building":"house"}},{"type":"Feature","geometry":{"type":"Polygon","coordinates":[[[62.0335728,56.7708867,0.0],[62.0336411,56.7709249,0.0],[62.0337826,56.7708487,0.0],[62.0337143,56.7708106,0.0],[62.0335728,56.7708867,0.0]]]},"properties":{"addr:housenumber":"15","addr:street":"улица Пургина","building":"house"}},{"type":"Feature","geometry":{"type":"Polygon","coordinates":[[[62.0326562,56.7729055,0.0],[62.0327475,56.7729963,0.0],[62.0328337,56.7729703,0.0],[62.0327424,56.7728795,0.0],[62.0326562,56.7729055,0.0]]]},"properties":{"addr:housenumber":"2","addr:street":"улица Победы","building":"yes"}},{"type":"Feature","geometry":{"type":"Polygon","coordinates":[[[62.0353694,56.7722511,0.0],[62.0354351,56.7723262,0.0],[62.0355391,56.7722989,0.0],[62.0354735,56.7722238,0.0],[62.0353694,56.7722511,0.0]]]},"properties":{"addr:housenumber":"18","addr:street":"улица Победы","building":"yes"}},{"type":"Feature","geometry":{"type":"Polygon","coordinates":[[[62.035272,56.7718487,0.0],[62.0353413,56.771889,0.0],[62.0354374,56.7718393,0.0],[62.0353681,56.7717991,0.0],[62.035272,56.7718487,0.0]]]},"properties":{"addr:housenumber":"3","addr:street":"улица Пургина","building":"house"}},{"type":"Feature","geometry":{"type":"Polygon","coordinates":[[[62.0340597,56.7711689,0.0],[62.0341492,56.771218,0.0],[62.0342515,56.771162,0.0],[62.0341619,56.7711129,0.0],[62.0340597,56.7711689,0.0]]]},"properties":{"addr:housenumber":"11","addr:street":"улица Пургина","building":"house"}},{"type":"Feature","geometry":{"type":"Polygon","coordinates":[[[62.0327114,56.772293,0.0],[62.0328356,56.772397,0.0],[62.0329502,56.7723559,0.0],[62.032826,56.7722519,0.0],[62.0327114,56.772293,0.0]]]},"properties":{"addr:housenumber":"2","addr:street":"улица Пархоменко","building":"house"}},{"type":"Feature","geometry":{"type":"Polygon","coordinates":[[[62.0339173,56.7725896,0.0],[62.0339858,56.7726653,0.0],[62.0340878,56.7726376,0.0],[62.0340193,56.7725619,0.0],[62.0339173,56.7725896,0.0]]]},"properties":{"addr:housenumber":"10","addr:street":"улица Победы","building":"yes"}},{"type":"Feature","geometry":{"type":"Polygon","coordinates":[[[62.0322156,56.7718511,0.0],[62.03235,56.7719668,0.0],[62.0324606,56.7719282,0.0],[62.0323262,56.7718125,0.0],[62.0322156,56.7718511,0.0]]]},"properties":{"addr:housenumber":"6","addr:street":"улица Пархоменко","building":"house"}},{"type":"Feature","geometry":{"type":"Polygon","coordinates":[[[62.0343128,56.7716761,0.0],[62.0344031,56.7717312,0.0],[62.0345165,56.7716754,0.0],[62.0344262,56.7716203,0.0],[62.0343128,56.7716761,0.0]]]},"properties":{"addr:housenumber":"8","addr:street":"улица Пургина","building":"house"}},{"type":"Feature","geometry":{"type":"Polygon","coordinates":[[[62.0321503,56.7712222,0.0],[62.0322512,56.7712788,0.0],[62.0323252,56.7712392,0.0],[62.0322243,56.7711826,0.0],[62.0321503,56.7712222,0.0]]]},"properties":{"building":"yes"}},{"type":"Feature","geometry":{"type":"Polygon","coordinates":[[[62.033324,56.7727634,0.0],[62.0333804,56.7728233,0.0],[62.0334814,56.7727947,0.0],[62.033425,56.7727348,0.0],[62.033324,56.7727634,0.0]]]},"properties":{"addr:housenumber":"6","addr:street":"улица Победы","building":"yes"}},{"type":"Feature","geometry":{"type":"Polygon","coordinates":[[[62.0324425,56.7715263,0.0],[62.0325872,56.7716505,0.0],[62.0327016,56.7716104,0.0],[62.0325569,56.7714863,0.0],[62.0324425,56.7715263,0.0]]]},"properties":{"addr:housenumber":"7","addr:street":"улица Пархоменко","building":"house"}},{"type":"Feature","geometry":{"type":"Polygon","coordinates":[[[62.0349892,56.7716806,0.0],[62.0350885,56.7717398,0.0],[62.0351718,56.7716979,0.0],[62.0350725,56.7716386,0.0],[62.0349892,56.7716806,0.0]]]},"properties":{"addr:housenumber":"5","addr:street":"улица Пургина","building":"house"}},{"type":"Feature","geometry":{"type":"Polygon","coordinates":[[[62.0329681,56.7719818,0.0],[62.0330431,56.7720492,0.0],[62.0331494,56.7720136,0.0],[62.0330743,56.7719463,0.0],[62.0329681,56.7719818,0.0]]]},"properties":{"addr:housenumber":"5","addr:street":"улица Пархоменко","building":"house"}},{"type":"Feature","geometry":{"type":"Polygon","coordinates":[[[62.0344938,56.7724698,0.0],[62.0345467,56.772533,0.0],[62.0346695,56.7725022,0.0],[62.0346166,56.772439,0.0],[62.0344938,56.7724698,0.0]]]},"properties":{"addr:housenumber":"14","addr:street":"улица Победы","building":"yes"}},{"type":"Feature","geometry":{"type":"Polygon","coordinates":[[[62.0337921,56.7710112,0.0],[62.0338561,56.7710469,0.0],[62.0339557,56.7709933,0.0],[62.0338917,56.7709576,0.0],[62.0337921,56.7710112,0.0]]]},"properties":{"addr:housenumber":"13","addr:street":"улица Пургина","building":"house"}},{"type":"Feature","geometry":{"type":"Polygon","coordinates":[[[62.0333586,56.7711577,0.0],[62.0334132,56.771187,0.0],[62.0335357,56.7711186,0.0],[62.0334811,56.7710893,0.0],[62.0333586,56.7711577,0.0]]]},"properties":{"addr:housenumber":"16","addr:street":"улица Пургина","building":"house"}},{"type":"Feature","geometry":{"type":"Polygon","coordinates":[[[62.0347605,56.7719152,0.0],[62.0348475,56.7719628,0.0],[62.0349417,56.7719112,0.0],[62.0348547,56.7718636,0.0],[62.0347605,56.7719152,0.0]]]},"properties":{"addr:housenumber":"4","addr:street":"улица Пургина","building":"house"}},{"type":"Feature","geometry":{"type":"Polygon","coordinates":[[[62.0342548,56.7725317,0.0],[62.0343089,56.7725863,0.0],[62.0344038,56.7725581,0.0],[62.0343498,56.7725035,0.0],[62.0342548,56.7725317,0.0]]]},"properties":{"addr:housenumber":"12","addr:street":"улица Победы","building":"yes"}},{"type":"Feature","geometry":{"type":"Polygon","coordinates":[[[62.0337657,56.7713716,0.0],[62.033836,56.7714135,0.0],[62.0339549,56.7713536,0.0],[62.0338846,56.7713117,0.0],[62.0337657,56.7713716,0.0]]]},"properties":{"addr:housenumber":"12","addr:street":"улица Пургина","building":"house"}},{"type":"Feature","geometry":{"type":"Polygon","coordinates":[[[62.0354664,56.7719511,0.0],[62.0355443,56.7719928,0.0],[62.0356415,56.7719384,0.0],[62.0355636,56.7718966,0.0],[62.0354664,56.7719511,0.0]]]},"properties":{"addr:housenumber":"1","addr:street":"улица Пургина","building":"house"}},{"type":"Feature","geometry":{"type":"Polygon","coordinates":[[[62.0317186,56.7714273,0.0],[62.0318425,56.7715301,0.0],[62.0319606,56.7714874,0.0],[62.0318367,56.7713846,0.0],[62.0317186,56.7714273,0.0]]]},"properties":{"addr:housenumber":"10","addr:street":"улица Пархоменко","building":"house"}},{"type":"Feature","geometry":{"type":"Polygon","coordinates":[[[62.0329889,56.7728535,0.0],[62.0330449,56.7729133,0.0],[62.0331734,56.7728771,0.0],[62.0331174,56.7728173,0.0],[62.0329889,56.7728535,0.0]]]},"properties":{"addr:housenumber":"4","addr:street":"улица Победы","building":"yes"}},{"type":"Feature","geometry":{"type":"Polygon","coordinates":[[[62.0320804,56.7715942,0.0],[62.0319536,56.7716401,0.0],[62.0320404,56.7717122,0.0],[62.0319851,56.7717322,0.0],[62.0320352,56.7717739,0.0],[62.0322174,56.771708,0.0],[62.0320804,56.7715942,0.0]]]},"properties":{"addr:housenumber":"8","addr:street":"улица Пархоменко","building":"house"}},{"type":"Feature","geometry":{"type":"Polygon","coordinates":[[[62.0349652,56.7720378,0.0],[62.0350479,56.7720836,0.0],[62.035143,56.772032,0.0],[62.0350603,56.7719862,0.0],[62.0349652,56.7720378,0.0]]]},"properties":{"addr:housenumber":"2","addr:street":"улица Пургина","building":"house"}},{"type":"Feature","geometry":{"type":"Polygon","coordinates":[[[62.0325539,56.771009,0.0],[62.0326226,56.7710493,0.0],[62.0327319,56.7709933,0.0],[62.0326632,56.770953,0.0],[62.0325539,56.771009,0.0]]]},"properties":{"building":"yes"}},{"type":"Feature","geometry":{"type":"Polygon","coordinates":[[[62.0332356,56.7722137,0.0],[62.0333093,56.7722743,0.0],[62.033418,56.7722346,0.0],[62.0333443,56.772174,0.0],[62.0332356,56.7722137,0.0]]]},"properties":{"addr:housenumber":"3","addr:street":"улица Пархоменко","building":"house"}},{"type":"Feature","geometry":{"type":"Polygon","coordinates":[[[62.0344712,56.7713935,0.0],[62.0345272,56.771422,0.0],[62.0346093,56.7713737,0.0],[62.0345533,56.7713451,0.0],[62.0344712,56.7713935,0.0]]]},"properties":{"addr:housenumber":"9","addr:street":"улица Пургина","building":"house"}},{"type":"Feature","geometry":{"type":"Polygon","coordinates":[[[62.0358549,56.7721563,0.0],[62.0359049,56.7722141,0.0],[62.036008,56.7721873,0.0],[62.035958,56.7721295,0.0],[62.0358549,56.7721563,0.0]]]},"properties":{"addr:housenumber":"20","addr:street":"улица Победы","building":"yes"}},{"type":"Feature","geometry":{"type":"Polygon","coordinates":[[[62.0333369,56.7707541,0.0],[62.0333988,56.7707894,0.0],[62.0334888,56.770742,0.0],[62.0334269,56.7707067,0.0],[62.0333369,56.7707541,0.0]]]},"properties":{"addr:housenumber":"17","addr:street":"улица Пургина","building":"house"}},{"type":"Feature","geometry":{"type":"Polygon","coordinates":[[[62.0324813,56.7720843,0.0],[62.0325936,56.7721787,0.0],[62.0326955,56.7721423,0.0],[62.0325832,56.7720479,0.0],[62.0324813,56.7720843,0.0]]]},"properties":{"addr:housenumber":"4","addr:street":"улица Пархоменко","building":"house"}},{"type":"Feature","geometry":{"type":"Polygon","coordinates":[[[62.0347544,56.7715537,0.0],[62.0348113,56.7715875,0.0],[62.0348954,56.771545,0.0],[62.0348385,56.7715112,0.0],[62.0347544,56.7715537,0.0]]]},"properties":{"addr:housenumber":"7","addr:street":"улица Пургина","building":"house"}},{"type":"Feature","geometry":{"type":"Polygon","coordinates":[[[62.034061,56.7714855,0.0],[62.0341011,56.7715093,0.0],[62.0341626,56.7714783,0.0],[62.0341225,56.7714544,0.0],[62.034061,56.7714855,0.0]]]},"properties":{"addr:housenumber":"10","addr:street":"улица Пургина","building":"house"}},{"type":"Feature","geometry":{"type":"Polygon","coordinates":[[[62.0422067,56.7713955,0.0],[62.0422558,56.7714329,0.0],[62.0423615,56.7713912,0.0],[62.0423124,56.7713538,0.0],[62.0422067,56.7713955,0.0]]]},"properties":{"addr:housenumber":"72","addr:street":"улица Кунавина","building":"house"}},{"type":"Feature","geometry":{"type":"Polygon","coordinates":[[[62.0445976,56.7703732,0.0],[62.0447615,56.7703732,0.0],[62.0447615,56.7703116,0.0],[62.0445976,56.7703116,0.0],[62.0445976,56.7703732,0.0]]]},"properties":{"addr:housenumber":"28","addr:street":"Октябрьская улица","building":"house"}},{"type":"Feature","geometry":{"type":"Polygon","coordinates":[[[62.039824,56.7722609,0.0],[62.0399096,56.7723208,0.0],[62.0399879,56.7722871,0.0],[62.0399023,56.7722273,0.0],[62.039824,56.7722609,0.0]]]},"properties":{"addr:housenumber":"58","addr:street":"улица Кунавина","building":"yes"}},{"type":"Feature","geometry":{"type":"Polygon","coordinates":[[[62.0438856,56.7706719,0.0],[62.0439784,56.7707353,0.0],[62.0440693,56.7706953,0.0],[62.0439765,56.7706319,0.0],[62.0438856,56.7706719,0.0]]]},"properties":{"addr:housenumber":"84","addr:street":"улица Кунавина","building":"house"}},{"type":"Feature","geometry":{"type":"Polygon","coordinates":[[[62.0395262,56.7723622,0.0],[62.0396272,56.7724377,0.0],[62.0397256,56.7723982,0.0],[62.0396245,56.7723227,0.0],[62.0395262,56.7723622,0.0]]]},"properties":{"addr:housenumber":"56","addr:street":"улица Кунавина","building":"yes"}},{"type":"Feature","geometry":{"type":"Polygon","coordinates":[[[62.0414704,56.7716512,0.0],[62.0415479,56.7717032,0.0],[62.0416021,56.771679,0.0],[62.0415245,56.7716269,0.0],[62.0414704,56.7716512,0.0]]]},"properties":{"addr:housenumber":"68","addr:street":"улица Кунавина","building":"house"}},{"type":"Feature","geometry":{"type":"Polygon","coordinates":[[[62.0428689,56.7710934,0.0],[62.0429703,56.7711618,0.0],[62.0430412,56.7711303,0.0],[62.0429399,56.7710618,0.0],[62.0428689,56.7710934,0.0]]]},"properties":{"addr:housenumber":"78","addr:street":"улица Кунавина","building":"house"}},{"type":"Feature","geometry":{"type":"Polygon","coordinates":[[[62.0446301,56.770209,0.0],[62.0447776,56.7702096,0.0],[62.0447783,56.7701551,0.0],[62.0446309,56.7701545,0.0],[62.0446301,56.770209,0.0]]]},"properties":{"addr:housenumber":"30","addr:street":"Октябрьская улица","building":"house"}},{"type":"Feature","geometry":{"type":"Polygon","coordinates":[[[62.0378474,56.7729906,0.0],[62.0379118,56.7730666,0.0],[62.0379832,56.7730484,0.0],[62.0379188,56.7729724,0.0],[62.0378474,56.7729906,0.0]]]},"properties":{"addr:housenumber":"44","addr:street":"улица Кунавина","building":"yes"}},{"type":"Feature","geometry":{"type":"Polygon","coordinates":[[[62.0410625,56.771783,0.0],[62.0411512,56.771854,0.0],[62.0412576,56.7718142,0.0],[62.0411688,56.7717431,0.0],[62.0410625,56.771783,0.0]]]},"properties":{"addr:housenumber":"66","addr:street":"улица Кунавина","building":"house"}},{"type":"Feature","geometry":{"type":"Polygon","coordinates":[[[62.044377,56.77046,0.0],[62.0444633,56.770521,0.0],[62.0445315,56.7704921,0.0],[62.0444452,56.7704311,0.0],[62.044377,56.77046,0.0]]]},"properties":{"addr:housenumber":"88","addr:street":"улица Кунавина","building":"house"}},{"type":"Feature","geometry":{"type":"Polygon","coordinates":[[[62.0388655,56.7726109,0.0],[62.0389671,56.7726953,0.0],[62.0390369,56.77267,0.0],[62.0389353,56.7725857,0.0],[62.0388655,56.7726109,0.0]]]},"properties":{"addr:housenumber":"52","addr:street":"улица Кунавина","building":"yes"}},{"type":"Feature","geometry":{"type":"Polygon","coordinates":[[[62.0424347,56.7712825,0.0],[62.0425177,56.7713438,0.0],[62.0426069,56.7713075,0.0],[62.0425239,56.7712462,0.0],[62.0424347,56.7712825,0.0]]]},"properties":{"addr:housenumber":"74","addr:street":"улица Кунавина","building":"house"}},{"type":"Feature","geometry":{"type":"Polygon","coordinates":[[[62.0383789,56.7727522,0.0],[62.0385309,56.7726939,0.0],[62.0385879,56.7727385,0.0],[62.0385204,56.7727645,0.0],[62.0385,56.7727485,0.0],[62.0384156,56.7727809,0.0],[62.0383789,56.7727522,0.0]]]},"properties":{"addr:housenumber":"50","addr:street":"улица Кунавина","building":"yes"}},{"type":"Feature","geometry":{"type":"Polygon","coordinates":[[[62.0418166,56.7715099,0.0],[62.0418974,56.7715716,0.0],[62.0420069,56.7715285,0.0],[62.041926,56.7714668,0.0],[62.0418166,56.7715099,0.0]]]},"properties":{"addr:housenumber":"70","addr:street":"улица Кунавина","building":"house"}},{"type":"Feature","geometry":{"type":"Polygon","coordinates":[[[62.0402779,56.7721165,0.0],[62.0403011,56.772134,0.0],[62.0403394,56.772163,0.0],[62.0404549,56.7721171,0.0],[62.0403934,56.7720706,0.0],[62.0402779,56.7721165,0.0]]]},"properties":{"addr:housenumber":"62","addr:street":"улица Кунавина","building":"yes"}},{"type":"Feature","geometry":{"type":"Polygon","coordinates":[[[62.0402258,56.7720772,0.0],[62.0401552,56.7721052,0.0],[62.0402109,56.7721473,0.0],[62.0402529,56.7721306,0.0],[62.0402725,56.7721454,0.0],[62.0403011,56.772134,0.0],[62.0402779,56.7721165,0.0],[62.0402258,56.7720772,0.0]]]},"properties":{"building":"yes"}},{"type":"Feature","geometry":{"type":"Polygon","coordinates":[[[62.0441259,56.7705905,0.0],[62.044194,56.7706352,0.0],[62.0442999,56.7705867,0.0],[62.0442318,56.770542,0.0],[62.0441259,56.7705905,0.0]]]},"properties":{"addr:housenumber":"86","addr:street":"улица Кунавина","building":"house"}},{"type":"Feature","geometry":{"type":"Polygon","coordinates":[[[62.0380461,56.772914,0.0],[62.0381259,56.7729984,0.0],[62.0382329,56.772968,0.0],[62.0381532,56.7728836,0.0],[62.0380461,56.772914,0.0]]]},"properties":{"addr:housenumber":"46","addr:street":"улица Кунавина","building":"yes"}},{"type":"Feature","geometry":{"type":"Polygon","coordinates":[[[62.0392492,56.7724786,0.0],[62.0393361,56.7725432,0.0],[62.0394316,56.7725047,0.0],[62.0393447,56.77244,0.0],[62.0392492,56.7724786,0.0]]]},"properties":{"addr:housenumber":"54","addr:street":"улица Кунавина","building":"yes"}},{"type":"Feature","geometry":{"type":"Polygon","coordinates":[[[62.0436071,56.7708173,0.0],[62.0436718,56.7708577,0.0],[62.0437515,56.7708194,0.0],[62.0436869,56.770779,0.0],[62.0436071,56.7708173,0.0]]]},"properties":{"addr:housenumber":"82","addr:street":"улица Кунавина","building":"house"}},{"type":"Feature","geometry":{"type":"Polygon","coordinates":[[[62.0405337,56.771979,0.0],[62.0406306,56.7720508,0.0],[62.0407181,56.7720154,0.0],[62.0406211,56.7719436,0.0],[62.0405337,56.771979,0.0]]]},"properties":{"addr:housenumber":"64","addr:street":"улица Кунавина","building":"house"}},{"type":"Feature","geometry":{"type":"Polygon","coordinates":[[[62.0384234,56.7728045,0.0],[62.0383872,56.7728164,0.0],[62.0384345,56.7728598,0.0],[62.0383842,56.7728762,0.0],[62.0384151,56.7729046,0.0],[62.0385016,56.7728763,0.0],[62.0384234,56.7728045,0.0]]]},"properties":{"addr:housenumber":"48","addr:street":"улица Кунавина","building":"yes"}},{"type":"Feature","geometry":{"type":"Polygon","coordinates":[[[62.0332973,56.7699134,0.0],[62.0333846,56.7699638,0.0],[62.0334841,56.769912,0.0],[62.0333968,56.7698616,0.0],[62.0332973,56.7699134,0.0]]]},"properties":{"addr:housenumber":"21","addr:street":"Озёрная улица","building":"house"}},{"type":"Feature","geometry":{"type":"Polygon","coordinates":[[[62.0312515,56.7699921,0.0],[62.0313192,56.7700296,0.0],[62.0314538,56.7699569,0.0],[62.0313862,56.7699193,0.0],[62.0312515,56.7699921,0.0]]]},"properties":{"addr:housenumber":"30","addr:street":"улица Пургина","building":"house"}},{"type":"Feature","geometry":{"type":"Polygon","coordinates":[[[62.0428326,56.7707177,0.0],[62.0428963,56.7707565,0.0],[62.0430137,56.7706985,0.0],[62.0429499,56.7706598,0.0],[62.0428326,56.7707177,0.0]]]},"properties":{"addr:housenumber":"63","addr:street":"улица Победы","building":"yes"}},{"type":"Feature","geometry":{"type":"Polygon","coordinates":[[[62.033882,56.7702678,0.0],[62.0339559,56.7703124,0.0],[62.0340597,56.7702608,0.0],[62.0339858,56.7702161,0.0],[62.033882,56.7702678,0.0]]]},"properties":{"addr:housenumber":"17","addr:street":"Озёрная улица","building":"house"}},{"type":"Feature","geometry":{"type":"Polygon","coordinates":[[[62.0364121,56.7720344,0.0],[62.036465,56.7720843,0.0],[62.0365572,56.7720549,0.0],[62.0365042,56.772005,0.0],[62.0364121,56.7720344,0.0]]]},"properties":{"addr:housenumber":"22","addr:street":"улица Победы","building":"yes"}},{"type":"Feature","geometry":{"type":"Polygon","coordinates":[[[62.0318452,56.7699304,0.0],[62.0319111,56.7699649,0.0],[62.0320185,56.7699034,0.0],[62.0319525,56.7698688,0.0],[62.0318452,56.7699304,0.0]]]},"properties":{"addr:housenumber":"23","addr:street":"улица Пургина","building":"house"}},{"type":"Feature","geometry":{"type":"Polygon","coordinates":[[[62.0422202,56.7707146,0.0],[62.0422822,56.7707595,0.0],[62.0424245,56.7707004,0.0],[62.0423625,56.7706556,0.0],[62.0422202,56.7707146,0.0]]]},"properties":{"addr:housenumber":"59","addr:street":"улица Победы","building":"yes"}},{"type":"Feature","geometry":{"type":"Polygon","coordinates":[[[62.0378887,56.7718977,0.0],[62.0379478,56.7719661,0.0],[62.0380849,56.7719305,0.0],[62.0380258,56.7718621,0.0],[62.0378887,56.7718977,0.0]]]},"properties":{"addr:housenumber":"27","addr:street":"улица Победы","building":"yes"}},{"type":"Feature","geometry":{"type":"Polygon","coordinates":[[[62.0425979,56.7699756,0.0],[62.0427229,56.7700463,0.0],[62.0428037,56.7700033,0.0],[62.0426786,56.7699327,0.0],[62.0425979,56.7699756,0.0]]]},"properties":{"addr:housenumber":"71","addr:street":"улица Победы","building":"yes"}},{"type":"Feature","geometry":{"type":"Polygon","coordinates":[[[62.0402638,56.7712037,0.0],[62.0403523,56.7712554,0.0],[62.0404048,56.7712283,0.0],[62.0403163,56.7711767,0.0],[62.0402638,56.7712037,0.0]]]},"properties":{"addr:housenumber":"43","addr:street":"улица Победы","building":"yes"}},{"type":"Feature","geometry":{"type":"Polygon","coordinates":[[[62.0418854,56.7703878,0.0],[62.0419701,56.7704384,0.0],[62.0420189,56.7704139,0.0],[62.0419342,56.7703633,0.0],[62.0418854,56.7703878,0.0]]]},"properties":{"addr:housenumber":"55","addr:street":"улица Победы","building":"yes"}},{"type":"Feature","geometry":{"type":"Polygon","coordinates":[[[62.0424344,56.7704553,0.0],[62.0425141,56.7705061,0.0],[62.0426237,56.7704544,0.0],[62.042544,56.7704036,0.0],[62.0424344,56.7704553,0.0]]]},"properties":{"addr:housenumber":"67","addr:street":"улица Победы","building":"yes"}},{"type":"Feature","geometry":{"type":"Polygon","coordinates":[[[62.0321441,56.7704538,0.0],[62.0323211,56.7705529,0.0],[62.0324212,56.7704992,0.0],[62.0322442,56.7704001,0.0],[62.0321441,56.7704538,0.0]]]},"properties":{"addr:housenumber":"22","addr:street":"улица Пургина","building":"house"}},{"type":"Feature","geometry":{"type":"Polygon","coordinates":[[[62.0352434,56.7710951,0.0],[62.0353121,56.7711333,0.0],[62.0354168,56.7710768,0.0],[62.035348,56.7710386,0.0],[62.0352434,56.7710951,0.0]]]},"properties":{"addr:housenumber":"7","addr:street":"Озёрная улица","building":"house"}},{"type":"Feature","geometry":{"type":"Polygon","coordinates":[[[62.0317536,56.7702292,0.0],[62.0318276,56.7702706,0.0],[62.0319199,56.7702211,0.0],[62.031846,56.7701797,0.0],[62.0317536,56.7702292,0.0]]]},"properties":{"addr:housenumber":"26","addr:street":"улица Пургина","building":"house"}},{"type":"Feature","geometry":{"type":"Polygon","coordinates":[[[62.03949,56.7714731,0.0],[62.0395793,56.7715362,0.0],[62.039695,56.7714869,0.0],[62.0396057,56.7714239,0.0],[62.03949,56.7714731,0.0]]]},"properties":{"addr:housenumber":"35","addr:street":"улица Победы","building":"yes"}},{"type":"Feature","geometry":{"type":"Polygon","coordinates":[[[62.0406582,56.7710298,0.0],[62.040787,56.7711183,0.0],[62.0408725,56.771081,0.0],[62.0407436,56.7709924,0.0],[62.0406582,56.7710298,0.0]]]},"properties":{"addr:housenumber":"45","addr:street":"улица Победы","building":"yes"}},{"type":"Feature","geometry":{"type":"Polygon","coordinates":[[[62.0320885,56.7700556,0.0],[62.0321607,56.770095,0.0],[62.0322602,56.7700403,0.0],[62.032188,56.7700009,0.0],[62.0320885,56.7700556,0.0]]]},"properties":{"addr:housenumber":"21","addr:street":"улица Пургина","building":"house"}},{"type":"Feature","geometry":{"type":"Polygon","coordinates":[[[62.034157,56.7704417,0.0],[62.0342362,56.7704835,0.0],[62.0343381,56.7704255,0.0],[62.034259,56.7703837,0.0],[62.034157,56.7704417,0.0]]]},"properties":{"addr:housenumber":"15","addr:street":"Озёрная улица","building":"house"}},{"type":"Feature","geometry":{"type":"Polygon","coordinates":[[[62.036874,56.7721704,0.0],[62.0369485,56.772264,0.0],[62.0370412,56.7722418,0.0],[62.0369667,56.7721482,0.0],[62.036874,56.7721704,0.0]]]},"properties":{"addr:housenumber":"23","addr:street":"улица Победы","building":"yes"}},{"type":"Feature","geometry":{"type":"Polygon","coordinates":[[[62.0401642,56.7716717,0.0],[62.0402067,56.7716532,0.0],[62.0402484,56.771682,0.0],[62.0403005,56.7716593,0.0],[62.040348,56.7716921,0.0],[62.0402535,56.7717333,0.0],[62.0401642,56.7716717,0.0]]]},"properties":{"addr:housenumber":"39","addr:street":"улица Победы","building":"yes"}},{"type":"Feature","geometry":{"type":"Polygon","coordinates":[[[62.0386615,56.7717032,0.0],[62.0387255,56.7717794,0.0],[62.0388381,56.771751,0.0],[62.0387741,56.7716748,0.0],[62.0386615,56.7717032,0.0]]]},"properties":{"addr:housenumber":"31","addr:street":"улица Победы","building":"yes"}},{"type":"Feature","geometry":{"type":"Polygon","coordinates":[[[62.0348079,56.7708513,0.0],[62.0349065,56.7709061,0.0],[62.0350281,56.7708403,0.0],[62.0349294,56.7707856,0.0],[62.0348079,56.7708513,0.0]]]},"properties":{"addr:housenumber":"11","addr:street":"Озёрная улица","building":"house"}},{"type":"Feature","geometry":{"type":"Polygon","coordinates":[[[62.0420624,56.7705818,0.0],[62.0421404,56.7706405,0.0],[62.0422673,56.7705899,0.0],[62.0421894,56.7705312,0.0],[62.0420624,56.7705818,0.0]]]},"properties":{"addr:housenumber":"57","addr:street":"улица Победы","building":"yes"}},{"type":"Feature","geometry":{"type":"Polygon","coordinates":[[[62.0357576,56.7714465,0.0],[62.0358251,56.7714902,0.0],[62.0359298,56.7714416,0.0],[62.0358623,56.7713979,0.0],[62.0357576,56.7714465,0.0]]]},"properties":{"addr:housenumber":"3","addr:street":"Озёрная улица","building":"house"}},{"type":"Feature","geometry":{"type":"Polygon","coordinates":[[[62.0421343,56.770256,0.0],[62.0422305,56.7703003,0.0],[62.0422976,56.7702565,0.0],[62.0422014,56.7702122,0.0],[62.0421343,56.770256,0.0]]]},"properties":{"addr:housenumber":"69","addr:street":"улица Победы","building":"yes"}},{"type":"Feature","geometry":{"type":"Polygon","coordinates":[[[62.0355312,56.7712747,0.0],[62.0355936,56.7713149,0.0],[62.0356859,56.7712719,0.0],[62.0356235,56.7712317,0.0],[62.0355312,56.7712747,0.0]]]},"properties":{"addr:housenumber":"5","addr:street":"Озёрная улица","building":"house"}},{"type":"Feature","geometry":{"type":"Polygon","coordinates":[[[62.0399329,56.7712796,0.0],[62.0399826,56.7713195,0.0],[62.0400615,56.7712899,0.0],[62.0400118,56.7712501,0.0],[62.0399329,56.7712796,0.0]]]},"properties":{"addr:housenumber":"41","addr:street":"улица Победы","building":"yes"}},{"type":"Feature","geometry":{"type":"Polygon","coordinates":[[[62.031517,56.7700975,0.0],[62.0315963,56.7701384,0.0],[62.0316906,56.7700836,0.0],[62.0316113,56.7700427,0.0],[62.031517,56.7700975,0.0]]]},"properties":{"addr:housenumber":"28","addr:street":"улица Пургина","building":"house"}},{"type":"Feature","geometry":{"type":"Polygon","coordinates":[[[62.0336361,56.7701158,0.0],[62.0337078,56.7701543,0.0],[62.0338013,56.770102,0.0],[62.0337297,56.7700635,0.0],[62.0336361,56.7701158,0.0]]]},"properties":{"addr:housenumber":"19","addr:street":"Озёрная улица","building":"house"}},{"type":"Feature","geometry":{"type":"Polygon","coordinates":[[[62.0426633,56.7706113,0.0],[62.0427134,56.7706464,0.0],[62.0428192,56.7706011,0.0],[62.0427691,56.770566,0.0],[62.0426633,56.7706113,0.0]]]},"properties":{"addr:housenumber":"65","addr:street":"улица Победы","building":"yes"}},{"type":"Feature","geometry":{"type":"Polygon","coordinates":[[[62.0412795,56.7707125,0.0],[62.0413911,56.7707842,0.0],[62.041469,56.7707477,0.0],[62.0413574,56.7706761,0.0],[62.0412795,56.7707125,0.0]]]},"properties":{"addr:housenumber":"51","addr:street":"улица Победы","building":"yes"}},{"type":"Feature","geometry":{"type":"Polygon","coordinates":[[[62.0381821,56.771816,0.0],[62.038235,56.7718772,0.0],[62.0383721,56.7718417,0.0],[62.0383191,56.7717804,0.0],[62.0381821,56.771816,0.0]]]},"properties":{"addr:housenumber":"29","addr:street":"улица Победы","building":"yes"}},{"type":"Feature","geometry":{"type":"Polygon","coordinates":[[[62.0398194,56.771384,0.0],[62.0399079,56.7714398,0.0],[62.0399715,56.7714096,0.0],[62.039883,56.7713537,0.0],[62.0398194,56.771384,0.0]]]},"properties":{"building":"yes"}},{"type":"Feature","geometry":{"type":"Polygon","coordinates":[[[62.0424799,56.7708917,0.0],[62.0425408,56.7709348,0.0],[62.0426774,56.7708768,0.0],[62.0426164,56.7708337,0.0],[62.0424799,56.7708917,0.0]]]},"properties":{"addr:housenumber":"61","addr:street":"улица Победы","building":"yes"}},{"type":"Feature","geometry":{"type":"Polygon","coordinates":[[[62.0325317,56.770312,0.0],[62.0326352,56.7703707,0.0],[62.0327058,56.7703333,0.0],[62.0326024,56.7702746,0.0],[62.0325317,56.770312,0.0]]]},"properties":{"addr:housenumber":"19","addr:street":"улица Пургина","building":"house"}},{"type":"Feature","geometry":{"type":"Polygon","coordinates":[[[62.0372659,56.7720689,0.0],[62.0373477,56.7721546,0.0],[62.0374337,56.7721299,0.0],[62.0373519,56.7720443,0.0],[62.0372659,56.7720689,0.0]]]},"properties":{"addr:housenumber":"25","addr:street":"улица Победы","building":"yes"}},{"type":"Feature","geometry":{"type":"Polygon","coordinates":[[[62.031921,56.7703832,0.0],[62.0320098,56.77043,0.0],[62.0321541,56.7703477,0.0],[62.0320653,56.7703009,0.0],[62.031921,56.7703832,0.0]]]},"properties":{"addr:housenumber":"24","addr:street":"улица Пургина","building":"house"}},{"type":"Feature","geometry":{"type":"Polygon","coordinates":[[[62.0344264,56.7705977,0.0],[62.0345055,56.770642,0.0],[62.0346036,56.7705893,0.0],[62.0345245,56.770545,0.0],[62.0344264,56.7705977,0.0]]]},"properties":{"addr:housenumber":"13","addr:street":"Озёрная улица","building":"house"}},{"type":"Feature","geometry":{"type":"Polygon","coordinates":[[[62.0397256,56.7716819,0.0],[62.0397778,56.7717223,0.0],[62.0399059,56.7716727,0.0],[62.0398536,56.7716322,0.0],[62.0397256,56.7716819,0.0]]]},"properties":{"addr:housenumber":"37","addr:street":"улица Победы","building":"yes"}},{"type":"Feature","geometry":{"type":"Polygon","coordinates":[[[62.0410544,56.7708232,0.0],[62.0411949,56.7709043,0.0],[62.0412735,56.7708635,0.0],[62.0411331,56.7707823,0.0],[62.0410544,56.7708232,0.0]]]},"properties":{"addr:housenumber":"47","addr:street":"улица Победы","building":"yes"}},{"type":"Feature","geometry":{"type":"Polygon","coordinates":[[[62.0350679,56.770977,0.0],[62.0351757,56.7710369,0.0],[62.0352639,56.7709892,0.0],[62.0351562,56.7709293,0.0],[62.0350679,56.770977,0.0]]]},"properties":{"addr:housenumber":"9","addr:street":"Озёрная улица","building":"house"}},{"type":"Feature","geometry":{"type":"Polygon","coordinates":[[[62.0390936,56.7715878,0.0],[62.0391331,56.7716292,0.0],[62.0392599,56.7715927,0.0],[62.0392204,56.7715514,0.0],[62.0390936,56.7715878,0.0]]]},"properties":{"addr:housenumber":"33","addr:street":"улица Победы","building":"yes"}},{"type":"Feature","geometry":{"type":"Polygon","coordinates":[[[62.0351056,56.7706384,0.0],[62.0351926,56.7706901,0.0],[62.0353098,56.7706309,0.0],[62.0352228,56.7705792,0.0],[62.0351056,56.7706384,0.0]]]},"properties":{"addr:housenumber":"12","addr:street":"Озёрная улица","building":"house"}},{"type":"Feature","geometry":{"type":"Polygon","coordinates":[[[62.0342138,56.7700713,0.0],[62.0342801,56.770108,0.0],[62.0343836,56.770052,0.0],[62.0343173,56.7700152,0.0],[62.0342138,56.7700713,0.0]]]},"properties":{"addr:housenumber":"18","addr:street":"Озёрная улица","building":"house"}},{"type":"Feature","geometry":{"type":"Polygon","coordinates":[[[62.0338977,56.7698955,0.0],[62.033986,56.769942,0.0],[62.0340974,56.7698784,0.0],[62.0340092,56.7698319,0.0],[62.0338977,56.7698955,0.0]]]},"properties":{"addr:housenumber":"20","addr:street":"Озёрная улица","building":"house"}},{"type":"Feature","geometry":{"type":"Polygon","coordinates":[[[62.0361386,56.7714467,0.0],[62.0362106,56.7715137,0.0],[62.0363399,56.7714719,0.0],[62.0362679,56.7714049,0.0],[62.0361386,56.7714467,0.0]]]},"properties":{"addr:housenumber":"2","addr:street":"Озёрная улица","building":"house"}},{"type":"Feature","geometry":{"type":"Polygon","coordinates":[[[62.0353125,56.7707694,0.0],[62.0353696,56.7708061,0.0],[62.0354638,56.770762,0.0],[62.0354067,56.7707253,0.0],[62.0353125,56.7707694,0.0]]]},"properties":{"addr:housenumber":"10","addr:street":"Озёрная улица","building":"house"}},{"type":"Feature","geometry":{"type":"Polygon","coordinates":[[[62.034732,56.7703966,0.0],[62.0348154,56.7704466,0.0],[62.0349211,56.7703937,0.0],[62.0348378,56.7703437,0.0],[62.034732,56.7703966,0.0]]]},"properties":{"addr:housenumber":"14","addr:street":"Озёрная улица","building":"house"}},{"type":"Feature","geometry":{"type":"Polygon","coordinates":[[[62.0405503,56.7707266,0.0],[62.0406559,56.7707807,0.0],[62.0407572,56.7707214,0.0],[62.0406517,56.7706673,0.0],[62.0405503,56.7707266,0.0]]]},"properties":{"addr:housenumber":"38","addr:street":"улица Победы","building":"yes"}},{"type":"Feature","geometry":{"type":"Polygon","coordinates":[[[62.0376711,56.7716908,0.0],[62.0377329,56.7717499,0.0],[62.0378083,56.7717262,0.0],[62.0377466,56.7716671,0.0],[62.0376711,56.7716908,0.0]]]},"properties":{"addr:housenumber":"28А","addr:street":"улица Победы","building":"yes"}},{"type":"Feature","geometry":{"type":"Polygon","coordinates":[[[62.040058,56.7710103,0.0],[62.04015,56.7710685,0.0],[62.0402278,56.7710317,0.0],[62.0401358,56.7709734,0.0],[62.040058,56.7710103,0.0]]]},"properties":{"addr:housenumber":"34","addr:street":"улица Победы","building":"yes"}},{"type":"Feature","geometry":{"type":"Polygon","coordinates":[[[62.0391685,56.7710746,0.0],[62.0392613,56.7711386,0.0],[62.0394054,56.7710758,0.0],[62.0393126,56.7710118,0.0],[62.0391685,56.7710746,0.0]]]},"properties":{"addr:housenumber":"30","addr:street":"улица Победы","building":"yes"}},{"type":"Feature","geometry":{"type":"Polygon","coordinates":[[[62.0379584,56.7715822,0.0],[62.038036,56.7716593,0.0],[62.0381276,56.7716317,0.0],[62.0380501,56.7715545,0.0],[62.0379584,56.7715822,0.0]]]},"properties":{"addr:housenumber":"28Б","addr:street":"улица Победы","building":"yes"}},{"type":"Feature","geometry":{"type":"Polygon","coordinates":[[[62.0403142,56.7708779,0.0],[62.0404303,56.770821,0.0],[62.0405162,56.7708737,0.0],[62.0404366,56.7709127,0.0],[62.0404008,56.7708907,0.0],[62.0403643,56.7709086,0.0],[62.0403142,56.7708779,0.0]]]},"properties":{"addr:housenumber":"36","addr:street":"улица Победы","building":"yes"}},{"type":"Feature","geometry":{"type":"Polygon","coordinates":[[[62.0369714,56.7718758,0.0],[62.0370389,56.7719467,0.0],[62.0371207,56.7719233,0.0],[62.0370532,56.7718524,0.0],[62.0369714,56.7718758,0.0]]]},"properties":{"addr:housenumber":"26","addr:street":"улица Победы","building":"yes"}},{"type":"Feature","geometry":{"type":"Polygon","coordinates":[[[62.0359159,56.771233,0.0],[62.0359781,56.7712859,0.0],[62.0361011,56.7712424,0.0],[62.0360389,56.7711895,0.0],[62.0359159,56.771233,0.0]]]},"properties":{"addr:housenumber":"4","addr:street":"Озёрная улица","building":"house"}},{"type":"Feature","geometry":{"type":"Polygon","coordinates":[[[62.038559,56.77142,0.0],[62.0386265,56.7714924,0.0],[62.0387194,56.7714664,0.0],[62.0386519,56.771394,0.0],[62.038559,56.77142,0.0]]]},"properties":{"addr:housenumber":"28Е","addr:street":"улица Победы","building":"yes"}},{"type":"Feature","geometry":{"type":"Polygon","coordinates":[[[62.0382587,56.7714948,0.0],[62.038342,56.7715798,0.0],[62.0384448,56.7715496,0.0],[62.0383615,56.7714645,0.0],[62.0382587,56.7714948,0.0]]]},"properties":{"addr:housenumber":"28В","addr:street":"улица Победы","building":"yes"}},{"type":"Feature","geometry":{"type":"Polygon","coordinates":[[[62.0373421,56.7717703,0.0],[62.0374067,56.7718396,0.0],[62.0374813,56.7718187,0.0],[62.0374166,56.7717495,0.0],[62.0373421,56.7717703,0.0]]]},"properties":{"addr:housenumber":"28","addr:street":"улица Победы","building":"yes"}},{"type":"Feature","geometry":{"type":"Polygon","coordinates":[[[62.0355527,56.7709263,0.0],[62.0356332,56.7709877,0.0],[62.0357677,56.7709348,0.0],[62.0356872,56.7708734,0.0],[62.0355527,56.7709263,0.0]]]},"properties":{"addr:housenumber":"8","addr:street":"Озёрная улица","building":"house"}},{"type":"Feature","geometry":{"type":"Polygon","coordinates":[[[62.0345275,56.7702555,0.0],[62.0346032,56.7702979,0.0],[62.0347112,56.7702399,0.0],[62.0346355,56.7701975,0.0],[62.0345275,56.7702555,0.0]]]},"properties":{"addr:housenumber":"16","addr:street":"Озёрная улица","building":"house"}},{"type":"Feature","geometry":{"type":"Polygon","coordinates":[[[62.0366596,56.7719475,0.0],[62.0367228,56.772012,0.0],[62.0368174,56.7719842,0.0],[62.0367542,56.7719197,0.0],[62.0366596,56.7719475,0.0]]]},"properties":{"addr:housenumber":"24","addr:street":"улица Победы","building":"yes"}},{"type":"Feature","geometry":{"type":"Polygon","coordinates":[[[62.036321,56.771575,0.0],[62.0363873,56.7716274,0.0],[62.0364993,56.7715849,0.0],[62.0364331,56.7715325,0.0],[62.036321,56.771575,0.0]]]},"properties":{"addr:housenumber":"2А","addr:street":"Озёрная улица","building":"house"}},{"type":"Feature","geometry":{"type":"Polygon","coordinates":[[[62.035709,56.7710629,0.0],[62.035787,56.7711114,0.0],[62.0359135,56.7710503,0.0],[62.0358354,56.7710019,0.0],[62.035709,56.7710629,0.0]]]},"properties":{"addr:housenumber":"6","addr:street":"Озёрная улица","building":"house"}},{"type":"Feature","geometry":{"type":"Polygon","coordinates":[[[62.0410587,56.7704431,0.0],[62.041158,56.7704929,0.0],[62.0412237,56.7704536,0.0],[62.0411244,56.7704037,0.0],[62.0410587,56.7704431,0.0]]]},"properties":{"addr:housenumber":"42","addr:street":"улица Победы","building":"yes"}},{"type":"Feature","geometry":{"type":"Polygon","coordinates":[[[62.0417998,56.7700158,0.0],[62.0419047,56.7700671,0.0],[62.0420208,56.769996,0.0],[62.0419159,56.7699446,0.0],[62.0417998,56.7700158,0.0]]]},"properties":{"addr:housenumber":"46","addr:street":"улица Победы","building":"yes"}},{"type":"Feature","geometry":{"type":"Polygon","coordinates":[[[62.0407723,56.7705823,0.0],[62.0408885,56.7706452,0.0],[62.0409471,56.7706127,0.0],[62.0408308,56.7705498,0.0],[62.0407723,56.7705823,0.0]]]},"properties":{"addr:housenumber":"40","addr:street":"улица Победы","building":"yes"}},{"type":"Feature","geometry":{"type":"Polygon","coordinates":[[[62.0413584,56.770245,0.0],[62.0414733,56.7703065,0.0],[62.0415339,56.7702725,0.0],[62.041419,56.770211,0.0],[62.0413584,56.770245,0.0]]]},"properties":{"addr:housenumber":"44","addr:street":"улица Победы","building":"yes"}},{"type":"Feature","geometry":{"type":"Polygon","coordinates":[[[62.0392115,56.7741683,0.0],[62.0394665,56.774167,0.0],[62.0394585,56.7736729,0.0],[62.0392035,56.7736742,0.0],[62.0392115,56.7741683,0.0]]]},"properties":{"addr:housenumber":"9","addr:country":"RU","building:levels":"9","addr:street":"улица Кунавина","building":"yes","addr:city":"Богданович"}},{"type":"Feature","geometry":{"type":"Polygon","coordinates":[[[62.0455418,56.7706404,0.0],[62.0462716,56.7711677,0.0],[62.0461022,56.7712381,0.0],[62.0453724,56.7707108,0.0],[62.0455418,56.7706404,0.0]]]},"properties":{"addr:housenumber":"19","addr:region":"Свердловская область","building:levels":"5","addr:street":"Октябрьская улица","building":"apartments","addr:city":"Богданович"}},{"type":"Feature","geometry":{"type":"Polygon","coordinates":[[[62.0452489,56.772913,0.0],[62.0453524,56.7723303,0.0],[62.0455359,56.7723401,0.0],[62.0454324,56.7729228,0.0],[62.0452489,56.772913,0.0]]]},"properties":{"addr:housenumber":"9","addr:country":"RU","building:levels":"5","addr:street":"Октябрьская улица","building":"yes","addr:city":"Богданович"}},{"type":"Feature","geometry":{"type":"Polygon","coordinates":[[[62.0478235,56.7710604,0.0],[62.0477266,56.7717155,0.0],[62.047926,56.7717244,0.0],[62.0480229,56.7710693,0.0],[62.0478235,56.7710604,0.0]]]},"properties":{"addr:housenumber":"17","building:levels":"5","addr:street":"Октябрьская улица","building":"yes"}},{"type":"Feature","geometry":{"type":"Polygon","coordinates":[[[62.046588,56.7719455,0.0],[62.0466065,56.7718262,0.0],[62.0476943,56.7718771,0.0],[62.0476757,56.7719964,0.0],[62.046588,56.7719455,0.0]]]},"properties":{"building:levels":"5","building":"apartments"}},{"type":"Feature","geometry":{"type":"Polygon","coordinates":[[[62.0482221,56.7717717,0.0],[62.0482398,56.7716609,0.0],[62.0498209,56.7717368,0.0],[62.0498032,56.7718477,0.0],[62.0482221,56.7717717,0.0]]]},"properties":{"building:levels":"5","building":"apartments"}},{"type":"Feature","geometry":{"type":"Polygon","coordinates":[[[62.0460724,56.7704402,0.0],[62.0462472,56.770369,0.0],[62.0469533,56.7708898,0.0],[62.0467785,56.770961,0.0],[62.0460724,56.7704402,0.0]]]},"properties":{"addr:housenumber":"27","addr:region":"Свердловская область","building:levels":"5","addr:street":"улица Кунавина","building":"yes","addr:city":"Богданович"}},{"type":"Feature","geometry":{"type":"Polygon","coordinates":[[[62.0468325,56.7701472,0.0],[62.0477235,56.7708809,0.0],[62.0479074,56.7708139,0.0],[62.0470165,56.7700801,0.0],[62.0468325,56.7701472,0.0]]]},"properties":{"addr:housenumber":"29","building:levels":"5","addr:street":"улица Кунавина","building":"yes"}},{"type":"Feature","geometry":{"type":"Polygon","coordinates":[[[62.047924,56.7728212,0.0],[62.0480904,56.7719516,0.0],[62.0482058,56.7719582,0.0],[62.048318,56.7719647,0.0],[62.0481516,56.7728343,0.0],[62.047924,56.7728212,0.0]]]},"properties":{"addr:housenumber":"13","building:levels":"5","addr:street":"Октябрьская улица","building":"yes","addr:city":"Богданович"}},{"type":"Feature","geometry":{"type":"Polygon","coordinates":[[[62.0459712,56.7718998,0.0],[62.0461207,56.7713209,0.0],[62.046335,56.7713376,0.0],[62.0461854,56.7719164,0.0],[62.0459712,56.7718998,0.0]]]},"properties":{"building:levels":"5","building":"apartments"}},{"type":"Feature","geometry":{"type":"Polygon","coordinates":[[[62.045551,56.7722039,0.0],[62.0455586,56.7721559,0.0],[62.0455948,56.7719257,0.0],[62.0459021,56.7719402,0.0],[62.0458583,56.7722184,0.0],[62.045551,56.7722039,0.0]]]},"properties":{"addr:housenumber":"11А","addr:country":"RU","building:levels":"2","addr:street":"Октябрьская улица","building":"yes","addr:city":"Богданович"}},{"type":"Feature","geometry":{"type":"Polygon","coordinates":[[[62.0453162,56.7735769,0.0],[62.0454324,56.7729228,0.0],[62.0456343,56.7729335,0.0],[62.0455181,56.7735877,0.0],[62.0453162,56.7735769,0.0]]]},"properties":{"addr:housenumber":"7","addr:country":"RU","building:levels":"5","addr:street":"Октябрьская улица","building":"yes","addr:city":"Богданович"}},{"type":"Feature","geometry":{"type":"Polygon","coordinates":[[[62.0484451,56.7731555,0.0],[62.0484422,56.7732467,0.0],[62.0488469,56.7732506,0.0],[62.0488498,56.7731593,0.0],[62.0484451,56.7731555,0.0]]]},"properties":{"building":"warehouse"}},{"type":"Feature","geometry":{"type":"Polygon","coordinates":[[[62.0486716,56.7699813,0.0],[62.0487451,56.7700411,0.0],[62.0489364,56.7701973,0.0],[62.0485449,56.7703414,0.0],[62.0483535,56.7701853,0.0],[62.0482801,56.7701254,0.0],[62.0480902,56.7701953,0.0],[62.0484877,56.7705195,0.0],[62.0488002,56.7704045,0.0],[62.0488664,56.7703801,0.0],[62.04895,56.7703493,0.0],[62.0493881,56.770188,0.0],[62.0489906,56.7698638,0.0],[62.0486716,56.7699813,0.0]]]},"properties":{"addr:housenumber":"31","addr:region":"Свердловская область","building:levels":"3","addr:street":"улица Кунавина","building":"school","addr:city":"Богданович"}},{"type":"Feature","geometry":{"type":"Polygon","coordinates":[[[62.0419368,56.7753646,0.0],[62.0417916,56.7762415,0.0],[62.0416585,56.776238,0.0],[62.0418004,56.7753612,0.0],[62.041883,56.7743958,0.0],[62.0420194,56.7743992,0.0],[62.0419368,56.7753646,0.0]]]},"properties":{"building":"garages"}},{"type":"Feature","geometry":{"type":"Polygon","coordinates":[[[62.0373585,56.7727361,0.0],[62.0375549,56.7727057,0.0],[62.0374711,56.7725433,0.0],[62.0372747,56.7725737,0.0],[62.0373585,56.7727361,0.0]]]},"properties":{"building":"retail"}},{"type":"Feature","geometry":{"type":"Polygon","coordinates":[[[62.0375131,56.7728279,0.0],[62.0376109,56.7728117,0.0],[62.0375579,56.7727157,0.0],[62.0374601,56.7727319,0.0],[62.0375131,56.7728279,0.0]]]},"properties":{"building":"retail"}},{"type":"Feature","geometry":{"type":"Polygon","coordinates":[[[62.0293646,56.7730856,0.0],[62.029107,56.7731765,0.0],[62.0288545,56.7729617,0.0],[62.0291121,56.7728707,0.0],[62.0293646,56.7730856,0.0]]]},"properties":{"building":"industrial"}},{"type":"Feature","geometry":{"type":"Polygon","coordinates":[[[62.02948,56.772771,0.0],[62.0298093,56.7730392,0.0],[62.0302872,56.772863,0.0],[62.0304061,56.7729599,0.0],[62.0307122,56.7728471,0.0],[62.030264,56.772482,0.0],[62.02948,56.772771,0.0]]]},"properties":{"building":"industrial"}},{"type":"Feature","geometry":{"type":"Polygon","coordinates":[[[62.0291487,56.7727575,0.0],[62.0288978,56.772845,0.0],[62.0284786,56.7724838,0.0],[62.0290452,56.7722864,0.0],[62.0291142,56.7723459,0.0],[62.0287986,56.7724558,0.0],[62.0291487,56.7727575,0.0]]]},"properties":{"building":"industrial"}},{"type":"Feature","geometry":{"type":"Polygon","coordinates":[[[62.0290246,56.7699886,0.0],[62.0290378,56.7699777,0.0],[62.0290576,56.7699705,0.0],[62.029081,56.7699679,0.0],[62.0291044,56.7699704,0.0],[62.0291242,56.7699776,0.0],[62.0291375,56.7699885,0.0],[62.0291422,56.7700013,0.0],[62.0291376,56.7700141,0.0],[62.0291244,56.770025,0.0],[62.0291046,56.7700323,0.0],[62.0290812,56.7700348,0.0],[62.0290578,56.7700323,0.0],[62.029038,56.7700251,0.0],[62.0290247,56.7700142,0.0],[62.02902,56.7700014,0.0],[62.0290246,56.7699886,0.0]]]},"properties":{"building":"yes"}},{"type":"Feature","geometry":{"type":"Polygon","coordinates":[[[62.0295928,56.771649,0.0],[62.029419,56.7717088,0.0],[62.0292728,56.7715814,0.0],[62.0294466,56.7715215,0.0],[62.0295928,56.771649,0.0]]]},"properties":{"building":"residential"}},{"type":"Feature","geometry":{"type":"Polygon","coordinates":[[[62.028883,56.771669,0.0],[62.028367,56.7718495,0.0],[62.0285199,56.7719806,0.0],[62.0286261,56.7719435,0.0],[62.028556,56.7718833,0.0],[62.0288704,56.7717733,0.0],[62.0289403,56.7718332,0.0],[62.0290355,56.7717999,0.0],[62.028883,56.771669,0.0]]]},"properties":{"building":"yes"}},{"type":"Feature","geometry":{"type":"Polygon","coordinates":[[[62.0464475,56.7815889,0.0],[62.0464456,56.7816302,0.0],[62.0465772,56.781632,0.0],[62.0465789,56.7815906,0.0],[62.0464475,56.7815889,0.0]]]},"properties":{"building":"yes"}},{"type":"Feature","geometry":{"type":"Polygon","coordinates":[[[62.0357783,56.7766119,0.0],[62.0336337,56.7764889,0.0],[62.0336006,56.7766623,0.0],[62.0357452,56.7767853,0.0],[62.0357783,56.7766119,0.0]]]},"properties":{"building":"hangar"}},{"type":"Feature","geometry":{"type":"Polygon","coordinates":[[[62.0330615,56.776102,0.0],[62.0331386,56.7759176,0.0],[62.0323937,56.7758242,0.0],[62.0323167,56.7760086,0.0],[62.0330615,56.776102,0.0]]]},"properties":{"building":"hangar"}},{"type":"Feature","geometry":{"type":"Polygon","coordinates":[[[62.0365991,56.7760267,0.0],[62.0366509,56.775925,0.0],[62.036545,56.7759088,0.0],[62.0364932,56.7760105,0.0],[62.0365991,56.7760267,0.0]]]},"properties":{"building":"yes"}},{"type":"Feature","geometry":{"type":"Polygon","coordinates":[[[62.0346705,56.7759105,0.0],[62.0347442,56.7757246,0.0],[62.0336799,56.7755978,0.0],[62.0336062,56.7757837,0.0],[62.0346705,56.7759105,0.0]]]},"properties":{"building":"hangar"}},{"type":"Feature","geometry":{"type":"Polygon","coordinates":[[[62.0330132,56.7766389,0.0],[62.0330962,56.7764747,0.0],[62.0317551,56.7762712,0.0],[62.0316721,56.7764355,0.0],[62.0330132,56.7766389,0.0]]]},"properties":{"building":"hangar"}},{"type":"Feature","geometry":{"type":"Polygon","coordinates":[[[62.0360308,56.7764801,0.0],[62.0361081,56.7762916,0.0],[62.0353063,56.7761928,0.0],[62.035229,56.7763813,0.0],[62.0360308,56.7764801,0.0]]]},"properties":{"building":"hangar"}},{"type":"Feature","geometry":{"type":"Polygon","coordinates":[[[62.0348134,56.7763217,0.0],[62.0348904,56.7761401,0.0],[62.0335438,56.7759686,0.0],[62.0334668,56.7761502,0.0],[62.0348134,56.7763217,0.0]]]},"properties":{"building":"hangar"}},{"type":"Feature","geometry":{"type":"Polygon","coordinates":[[[62.0364979,56.7763561,0.0],[62.0365276,56.776291,0.0],[62.0366254,56.7763043,0.0],[62.0366454,56.7762605,0.0],[62.0365511,56.7762476,0.0],[62.0365727,56.7762003,0.0],[62.0365169,56.7761927,0.0],[62.0364763,56.7761871,0.0],[62.0364052,56.7763435,0.0],[62.0364979,56.7763561,0.0]]]},"properties":{"building":"yes"}},{"type":"Feature","geometry":{"type":"Polygon","coordinates":[[[62.0474165,56.7708749,0.0],[62.0473314,56.7709072,0.0],[62.0473978,56.7709597,0.0],[62.0474829,56.7709274,0.0],[62.0474165,56.7708749,0.0]]]},"properties":{"building":"yes"}},{"type":"Feature","geometry":{"type":"Polygon","coordinates":[[[62.042244,56.7730198,0.0],[62.0422369,56.7730666,0.0],[62.0417742,56.7730453,0.0],[62.0417814,56.7729985,0.0],[62.042244,56.7730198,0.0]]]},"properties":{"building":"garages"}},{"type":"Feature","geometry":{"type":"Polygon","coordinates":[[[62.046724,56.7711864,0.0],[62.0468296,56.771165,0.0],[62.0467896,56.7711056,0.0],[62.046684,56.7711269,0.0],[62.046724,56.7711864,0.0]]]},"properties":{"building":"garages"}},{"type":"Feature","geometry":{"type":"Polygon","coordinates":[[[62.0284591,56.771023,0.0],[62.0285946,56.7709744,0.0],[62.0288909,56.7712228,0.0],[62.0287554,56.7712713,0.0],[62.0284591,56.771023,0.0]]]},"properties":{"addr:housenumber":"6А","addr:country":"RU","building:levels":"1","addr:street":"Рокицанская улица","building":"yes","addr:city":"Богданович"}},{"type":"Feature","geometry":{"type":"Polygon","coordinates":[[[62.0300974,56.7764334,0.0],[62.03013,56.776395,0.0],[62.0302704,56.7764308,0.0],[62.0302378,56.7764692,0.0],[62.0300974,56.7764334,0.0]]]},"properties":{"name":"Переезд 8 км.","building:levels":"1","building":"yes"}},{"type":"Feature","geometry":{"type":"Polygon","coordinates":[[[62.0290509,56.7768891,0.0],[62.029057,56.7768308,0.0],[62.029265,56.7768373,0.0],[62.0292589,56.7768957,0.0],[62.0290509,56.7768891,0.0]]]},"properties":{"building:levels":"1","building":"yes"}},{"type":"Feature","geometry":{"type":"Polygon","coordinates":[[[62.0488316,56.7727394,0.0],[62.0489705,56.7727202,0.0],[62.0491436,56.7726962,0.0],[62.0490913,56.7725828,0.0],[62.0486757,56.7726403,0.0],[62.048728,56.7727537,0.0],[62.0488316,56.7727394,0.0]]]},"properties":{"building:levels":"2","addr:street":"Партизанская улица","building":"yes"}},{"type":"Feature","geometry":{"type":"Polygon","coordinates":[[[62.0482801,56.7701254,0.0],[62.0483535,56.7701853,0.0],[62.0487451,56.7700411,0.0],[62.0486716,56.7699813,0.0],[62.0482801,56.7701254,0.0]]]},"properties":{"building:min_level":"1","building:part":"school","building:levels":"2","building":"school"}},{"type":"Feature","geometry":{"type":"Polygon","coordinates":[[[62.0438933,56.7768282,0.0],[62.0441267,56.7768377,0.0],[62.0441696,56.776521,0.0],[62.0439363,56.7765115,0.0],[62.0438933,56.7768282,0.0]]]},"properties":{"building:levels":"1","building":"garages"}},{"type":"Feature","geometry":{"type":"Polygon","coordinates":[[[62.0442393,56.7768414,0.0],[62.0444727,56.7768509,0.0],[62.0445156,56.7765342,0.0],[62.0442823,56.7765247,0.0],[62.0442393,56.7768414,0.0]]]},"properties":{"building:levels":"1","building":"garages"}},{"type":"Feature","geometry":{"type":"Polygon","coordinates":[[[62.0450171,56.7768737,0.0],[62.0452505,56.7768832,0.0],[62.0452935,56.7765666,0.0],[62.0450601,56.776557,0.0],[62.0450171,56.7768737,0.0]]]},"properties":{"building:levels":"1","building":"garages"}},{"type":"Feature","geometry":{"type":"Polygon","coordinates":[[[62.0446309,56.7768579,0.0],[62.0448643,56.7768674,0.0],[62.0449073,56.7765508,0.0],[62.0446739,56.7765412,0.0],[62.0446309,56.7768579,0.0]]]},"properties":{"building:levels":"1","building":"garages"}},{"type":"Feature","geometry":{"type":"Polygon","coordinates":[[[62.0300994,56.7793387,0.0],[62.0305265,56.779245,0.0],[62.0309097,56.7791051,0.0],[62.0310536,56.7792229,0.0],[62.0306424,56.7793679,0.0],[62.030185,56.7794626,0.0],[62.0300994,56.7793387,0.0]]]},"properties":{"building":"hangar"}},{"type":"Feature","geometry":{"type":"Polygon","coordinates":[[[62.0293633,56.7795194,0.0],[62.0294148,56.779611,0.0],[62.0299806,56.7795154,0.0],[62.029929,56.7794238,0.0],[62.0293633,56.7795194,0.0]]]},"properties":{"building:levels":"1","building":"yes"}},{"type":"Feature","geometry":{"type":"Polygon","coordinates":[[[62.0296763,56.779833,0.0],[62.029664,56.7797454,0.0],[62.0300357,56.7797297,0.0],[62.030048,56.7798174,0.0],[62.0296763,56.779833,0.0]]]},"properties":{"building":"yes"}},{"type":"Feature","geometry":{"type":"Polygon","coordinates":[[[62.0301651,56.7789939,0.0],[62.0301859,56.778997,0.0],[62.0302028,56.7790043,0.0],[62.0302134,56.7790145,0.0],[62.0302161,56.7790262,0.0],[62.0302104,56.7790376,0.0],[62.0301971,56.7790469,0.0],[62.0301784,56.7790527,0.0],[62.0301571,56.7790541,0.0],[62.0301363,56.779051,0.0],[62.0301194,56.7790438,0.0],[62.0301088,56.7790335,0.0],[62.0301061,56.7790218,0.0],[62.0301118,56.7790105,0.0],[62.0301251,56.7790012,0.0],[62.0301438,56.7789953,0.0],[62.0301651,56.7789939,0.0]]]},"properties":{"building:levels":"3","building":"storage_tank"}},{"type":"Feature","geometry":{"type":"Polygon","coordinates":[[[62.0299023,56.778988,0.0],[62.029923,56.7789912,0.0],[62.02994,56.7789984,0.0],[62.0299506,56.7790087,0.0],[62.0299532,56.7790203,0.0],[62.0299475,56.7790317,0.0],[62.0299343,56.779041,0.0],[62.0299156,56.7790468,0.0],[62.0298942,56.7790483,0.0],[62.0298735,56.7790451,0.0],[62.0298565,56.7790379,0.0],[62.0298459,56.7790276,0.0],[62.0298433,56.7790159,0.0],[62.029849,56.7790046,0.0],[62.0298622,56.7789953,0.0],[62.0298809,56.7789895,0.0],[62.0299023,56.778988,0.0]]]},"properties":{"building:levels":"3","building":"storage_tank"}},{"type":"Feature","geometry":{"type":"Polygon","coordinates":[[[62.0296153,56.7789843,0.0],[62.029636,56.7789875,0.0],[62.029653,56.7789947,0.0],[62.0296636,56.779005,0.0],[62.0296662,56.7790167,0.0],[62.0296605,56.779028,0.0],[62.0296473,56.7790373,0.0],[62.0296286,56.7790431,0.0],[62.0296072,56.7790446,0.0],[62.0295865,56.7790415,0.0],[62.0295695,56.7790342,0.0],[62.0295589,56.779024,0.0],[62.0295563,56.7790123,0.0],[62.029562,56.7790009,0.0],[62.0295752,56.7789916,0.0],[62.0295939,56.7789858,0.0],[62.0296153,56.7789843,0.0]]]},"properties":{"building:levels":"3","building":"storage_tank"}},{"type":"Feature","geometry":{"type":"Polygon","coordinates":[[[62.029331,56.778977,0.0],[62.0293517,56.7789801,0.0],[62.0293687,56.7789874,0.0],[62.0293793,56.7789976,0.0],[62.0293819,56.7790093,0.0],[62.0293762,56.7790207,0.0],[62.029363,56.77903,0.0],[62.0293443,56.7790358,0.0],[62.0293229,56.7790372,0.0],[62.0293022,56.7790341,0.0],[62.0292852,56.7790269,0.0],[62.0292746,56.7790166,0.0],[62.0292719,56.7790049,0.0],[62.0292777,56.7789936,0.0],[62.0292909,56.7789843,0.0],[62.0293096,56.7789784,0.0],[62.029331,56.778977,0.0]]]},"properties":{"building:levels":"3","building":"storage_tank"}},{"type":"Feature","geometry":{"type":"Polygon","coordinates":[[[62.0301383,56.7786427,0.0],[62.030159,56.7786458,0.0],[62.030176,56.7786531,0.0],[62.0301866,56.7786633,0.0],[62.0301893,56.778675,0.0],[62.0301835,56.7786864,0.0],[62.0301703,56.7786957,0.0],[62.0301516,56.7787015,0.0],[62.0301303,56.7787029,0.0],[62.0301095,56.7786998,0.0],[62.0300925,56.7786926,0.0],[62.0300819,56.7786823,0.0],[62.0300793,56.7786706,0.0],[62.030085,56.7786592,0.0],[62.0300982,56.7786499,0.0],[62.0301169,56.7786441,0.0],[62.0301383,56.7786427,0.0]]]},"properties":{"building:levels":"3","building":"storage_tank"}},{"type":"Feature","geometry":{"type":"Polygon","coordinates":[[[62.0298915,56.7786449,0.0],[62.0299123,56.778648,0.0],[62.0299292,56.7786553,0.0],[62.0299399,56.7786655,0.0],[62.0299425,56.7786772,0.0],[62.0299368,56.7786886,0.0],[62.0299235,56.7786979,0.0],[62.0299048,56.7787037,0.0],[62.0298835,56.7787051,0.0],[62.0298628,56.778702,0.0],[62.0298458,56.7786948,0.0],[62.0298352,56.7786845,0.0],[62.0298325,56.7786728,0.0],[62.0298383,56.7786614,0.0],[62.0298515,56.7786522,0.0],[62.0298702,56.7786463,0.0],[62.0298915,56.7786449,0.0]]]},"properties":{"building:levels":"3","building":"storage_tank"}},{"type":"Feature","geometry":{"type":"Polygon","coordinates":[[[62.0296441,56.77865,0.0],[62.0296648,56.7786532,0.0],[62.0296818,56.7786604,0.0],[62.0296924,56.7786707,0.0],[62.0296951,56.7786824,0.0],[62.0296893,56.7786937,0.0],[62.0296761,56.778703,0.0],[62.0296574,56.7787088,0.0],[62.0296361,56.7787103,0.0],[62.0296153,56.7787071,0.0],[62.0295984,56.7786999,0.0],[62.0295877,56.7786896,0.0],[62.0295851,56.778678,0.0],[62.0295908,56.7786666,0.0],[62.029604,56.7786573,0.0],[62.0296228,56.7786515,0.0],[62.0296441,56.77865,0.0]]]},"properties":{"building:levels":"3","building":"storage_tank"}},{"type":"Feature","geometry":{"type":"Polygon","coordinates":[[[62.0293001,56.7788014,0.0],[62.0293271,56.7788035,0.0],[62.0293506,56.778811,0.0],[62.029367,56.7788229,0.0],[62.0293739,56.7788374,0.0],[62.0293701,56.7788522,0.0],[62.0293563,56.7788651,0.0],[62.0293345,56.7788741,0.0],[62.0293082,56.7788778,0.0],[62.0292812,56.7788757,0.0],[62.0292577,56.7788682,0.0],[62.0292412,56.7788563,0.0],[62.0292344,56.7788418,0.0],[62.0292382,56.778827,0.0],[62.029252,56.7788141,0.0],[62.0292737,56.7788051,0.0],[62.0293001,56.7788014,0.0]]]},"properties":{"building:levels":"5","building":"storage_tank"}},{"type":"Feature","geometry":{"type":"Polygon","coordinates":[[[62.029001,56.7787999,0.0],[62.029028,56.778802,0.0],[62.0290515,56.7788096,0.0],[62.029068,56.7788215,0.0],[62.0290748,56.7788359,0.0],[62.029071,56.7788507,0.0],[62.0290572,56.7788636,0.0],[62.0290355,56.7788726,0.0],[62.0290091,56.7788763,0.0],[62.0289821,56.7788743,0.0],[62.0289586,56.7788667,0.0],[62.0289422,56.7788548,0.0],[62.0289353,56.7788403,0.0],[62.0289391,56.7788255,0.0],[62.0289529,56.7788127,0.0],[62.0289747,56.7788037,0.0],[62.029001,56.7787999,0.0]]]},"properties":{"building:levels":"5","building":"storage_tank"}},{"type":"Feature","geometry":{"type":"Polygon","coordinates":[[[62.0293296,56.7786405,0.0],[62.0293566,56.7786425,0.0],[62.0293801,56.7786501,0.0],[62.0293965,56.778662,0.0],[62.0294034,56.7786765,0.0],[62.0293996,56.7786913,0.0],[62.0293858,56.7787041,0.0],[62.029364,56.7787131,0.0],[62.0293377,56.7787169,0.0],[62.0293107,56.7787148,0.0],[62.0292872,56.7787073,0.0],[62.0292707,56.7786953,0.0],[62.0292639,56.7786809,0.0],[62.0292677,56.7786661,0.0],[62.0292815,56.7786532,0.0],[62.0293032,56.7786442,0.0],[62.0293296,56.7786405,0.0]]]},"properties":{"building:levels":"5","building":"storage_tank"}},{"type":"Feature","geometry":{"type":"Polygon","coordinates":[[[62.0289849,56.7786306,0.0],[62.0290119,56.7786326,0.0],[62.0290354,56.7786402,0.0],[62.0290519,56.7786521,0.0],[62.0290587,56.7786666,0.0],[62.0290549,56.7786814,0.0],[62.0290411,56.7786942,0.0],[62.0290194,56.7787032,0.0],[62.028993,56.778707,0.0],[62.028966,56.7787049,0.0],[62.0289425,56.7786973,0.0],[62.0289261,56.7786854,0.0],[62.0289192,56.778671,0.0],[62.028923,56.7786562,0.0],[62.0289368,56.7786433,0.0],[62.0289586,56.7786343,0.0],[62.0289849,56.7786306,0.0]]]},"properties":{"building:levels":"5","building":"storage_tank"}},{"type":"Feature","geometry":{"type":"Polygon","coordinates":[[[62.0309912,56.7784068,0.0],[62.0310923,56.7785021,0.0],[62.0310017,56.778531,0.0],[62.0309005,56.7784357,0.0],[62.0309912,56.7784068,0.0]]]},"properties":{"building:levels":"1","building":"yes"}},{"type":"Feature","geometry":{"type":"Polygon","coordinates":[[[62.0453602,56.7716856,0.0],[62.0453743,56.771529,0.0],[62.0455512,56.7715338,0.0],[62.0455371,56.7716903,0.0],[62.0453602,56.7716856,0.0]]]},"properties":{"building:levels":"1","building":"retail"}},{"type":"Feature","geometry":{"type":"Point","coordinates":[62.045086,56.7706231]},"properties":{"highway":"traffic_signals"}},{"type":"Feature","geometry":{"type":"Point","coordinates":[62.050491,56.7769559]},"properties":{"highway":"crossing","crossing":"uncontrolled"}},{"type":"Feature","geometry":{"type":"Point","coordinates":[62.0520264,56.7770529]},"properties":{"highway":"crossing","crossing":"uncontrolled"}},{"type":"Feature","geometry":{"type":"Point","coordinates":[62.051276,56.7740304]},"properties":{"highway":"traffic_signals"}},{"type":"Feature","geometry":{"type":"Point","coordinates":[62.0449874,56.7737001]},"properties":{"highway":"traffic_signals"}},{"type":"Feature","geometry":{"type":"Point","coordinates":[62.0635306,56.7739453]},"properties":{"highway":"traffic_signals"}},{"type":"Feature","geometry":{"type":"Point","coordinates":[62.052667,56.7677895]},"properties":{"highway":"traffic_signals"}},{"type":"Feature","geometry":{"type":"Point","coordinates":[62.0338214,56.7749712]},"properties":{"highway":"traffic_signals"}},{"type":"Feature","geometry":{"type":"Point","coordinates":[62.0583156,56.7664261]},"properties":{"button_operated":"yes","highway":"crossing","crossing":"traffic_signals"}},{"type":"Feature","geometry":{"type":"Point","coordinates":[62.0362643,56.7849568]},"properties":{"highway":"traffic_signals"}},{"type":"Feature","geometry":{"type":"Point","coordinates":[62.0512909,56.7739367]},"properties":{"highway":"crossing","crossing":"traffic_signals"}},{"type":"Feature","geometry":{"type":"Point","coordinates":[62.0511292,56.7740225]},"properties":{"highway":"crossing","crossing":"traffic_signals"}},{"type":"Feature","geometry":{"type":"Point","coordinates":[62.0514141,56.7740385]},"properties":{"highway":"crossing","crossing":"traffic_signals"}},{"type":"Feature","geometry":{"type":"Point","coordinates":[62.0512627,56.774114]},"properties":{"highway":"crossing","crossing":"traffic_signals"}},{"type":"Feature","geometry":{"type":"Point","coordinates":[62.0449663,56.7737988]},"properties":{"highway":"crossing","crossing":"traffic_signals"}},{"type":"Feature","geometry":{"type":"Point","coordinates":[62.055243,56.7741795]},"properties":{"highway":"crossing","crossing":"traffic_signals"}},{"type":"Feature","geometry":{"type":"Point","coordinates":[62.0551817,56.7743413]},"properties":{"highway":"crossing","crossing":"traffic_signals"}},{"type":"Feature","geometry":{"type":"Point","coordinates":[62.0450064,56.7735925]},"properties":{"highway":"crossing","crossing":"traffic_signals"}},{"type":"Feature","geometry":{"type":"Point","coordinates":[62.0506373,56.7767531]},"properties":{"highway":"crossing","crossing":"uncontrolled"}},{"type":"Feature","geometry":{"type":"Point","coordinates":[62.0508639,56.7767669]},"properties":{"highway":"crossing","crossing":"uncontrolled"}},{"type":"Feature","geometry":{"type":"Point","coordinates":[62.0509826,56.7769873]},"properties":{"highway":"crossing","crossing":"uncontrolled"}},{"type":"Feature","geometry":{"type":"Point","coordinates":[62.050777,56.7766923]},"properties":{"highway":"crossing","crossing":"uncontrolled"}},{"type":"Feature","geometry":{"type":"Point","coordinates":[62.0546892,56.7769163]},"properties":{"highway":"crossing","crossing":"uncontrolled"}},{"type":"Feature","geometry":{"type":"Point","coordinates":[62.0352872,56.7753025]},"properties":{"shelter":"no","highway":"bus_stop"}},{"type":"Feature","geometry":{"type":"Point","coordinates":[62.0346281,56.775255]},"properties":{"shelter":"yes","highway":"bus_stop"}},{"type":"Feature","geometry":{"type":"Point","coordinates":[62.0550495,56.7742496]},"properties":{"bicycle":"yes","highway":"crossing","crossing":"traffic_signals"}},{"type":"Feature","geometry":{"type":"Point","coordinates":[62.0553119,56.7742653]},"properties":{"highway":"crossing","crossing":"traffic_signals"}},{"type":"Feature","geometry":{"type":"Point","coordinates":[62.0552096,56.774259]},"properties":{"highway":"traffic_signals"}},{"type":"Feature","geometry":{"type":"Point","coordinates":[62.0521976,56.7679759]},"properties":{"highway":"crossing","crossing":"traffic_signals","traffic_signals:sound":"yes"}},{"type":"Feature","geometry":{"type":"Point","coordinates":[62.0523976,56.7680795]},"properties":{"highway":"crossing","crossing":"traffic_signals","traffic_signals:sound":"yes"}},{"type":"Feature","geometry":{"type":"Point","coordinates":[62.0635568,56.7740226]},"properties":{"highway":"crossing","crossing":"traffic_signals"}},{"type":"Feature","geometry":{"type":"Point","coordinates":[62.0387331,56.7731232]},"properties":{"button_operated":"yes","highway":"crossing","crossing":"traffic_signals"}},{"type":"Feature","geometry":{"type":"Point","coordinates":[62.0524355,56.7678814]},"properties":{"highway":"traffic_signals"}},{"type":"Feature","geometry":{"type":"Point","coordinates":[62.0481613,56.7693457]},"properties":{"highway":"crossing","crossing":"uncontrolled"}},{"type":"Feature","geometry":{"type":"Point","coordinates":[62.048608,56.7628224]},"properties":{"highway":"crossing","crossing":"uncontrolled"}},{"type":"Feature","geometry":{"type":"Point","coordinates":[62.0449297,56.7706867]},"properties":{"highway":"crossing","crossing":"traffic_signals"}},{"type":"Feature","geometry":{"type":"Point","coordinates":[62.0450886,56.7707497]},"properties":{"highway":"crossing","crossing":"traffic_signals"}},{"type":"Feature","geometry":{"type":"Point","coordinates":[62.0448132,56.7736916]},"properties":{"highway":"crossing","crossing":"traffic_signals"}},{"type":"Feature","geometry":{"type":"Point","coordinates":[62.0451685,56.7737099]},"properties":{"highway":"crossing","crossing":"traffic_signals"}},{"type":"Feature","geometry":{"type":"Point","coordinates":[62.0339921,56.7749036]},"properties":{"highway":"crossing","crossing":"traffic_signals"}},{"type":"Feature","geometry":{"type":"Point","coordinates":[62.045126,56.770463]},"properties":{"highway":"crossing","crossing":"traffic_signals"}},{"type":"Feature","geometry":{"type":"Point","coordinates":[62.0407704,56.7726346]},"properties":{"highway":"rest_area"}},{"type":"Feature","geometry":{"type":"Point","coordinates":[62.0336822,56.7748529]},"properties":{"highway":"crossing","crossing":"traffic_signals"}},{"type":"Feature","geometry":{"type":"Point","coordinates":[62.0525591,56.7678323]},"properties":{"highway":"crossing","crossing":"traffic_signals","traffic_signals:sound":"yes"}},{"type":"Feature","geometry":{"type":"Point","coordinates":[62.0450853,56.771874]},"properties":{"highway":"crossing","crossing":"uncontrolled"}},{"type":"Feature","geometry":{"type":"Point","coordinates":[62.0242385,56.7756691]},"properties":{"ref":"Р-351","distance":"94.0","description":"94.0 км а/д Р-351 Екатеринбург - Тюмень","highway":"milestone"}},{"type":"Feature","geometry":{"type":"Point","coordinates":[62.0478701,56.7643407]},"properties":{"highway":"crossing","crossing":"uncontrolled"}},{"type":"Feature","geometry":{"type":"Point","coordinates":[62.0470135,56.7662439]},"properties":{"highway":"crossing","crossing":"uncontrolled"}},{"type":"Feature","geometry":{"type":"Point","coordinates":[62.0488417,56.7739028]},"properties":{"highway":"crossing","crossing":"uncontrolled"}},{"type":"Feature","geometry":{"type":"Point","coordinates":[62.0450065,56.7818499]},"properties":{"highway":"crossing","crossing":"uncontrolled"}},{"type":"Feature","geometry":{"type":"Point","coordinates":[62.0476891,56.7819823]},"properties":{"tactile_paving":"no","highway":"crossing","crossing":"marked"}},{"type":"Feature","geometry":{"type":"Point","coordinates":[62.0421639,56.7832254]},"properties":{"highway":"crossing","crossing":"unmarked"}},{"type":"Feature","geometry":{"type":"LineString","coordinates":[[62.045086,56.7706231,0.0],[62.045126,56.770463,0.0],[62.0451484,56.7703733,0.0],[62.0454468,56.7696981,0.0],[62.0458367,56.7688089,0.0],[62.0463964,56.7675925,0.0],[62.0469376,56.766411,0.0],[62.0469816,56.7663149,0.0],[62.0470135,56.7662439,0.0],[62.0470442,56.7661754,0.0],[62.0478409,56.7644003,0.0],[62.0478701,56.7643407,0.0],[62.0481665,56.763736,0.0],[62.048608,56.7628224,0.0],[62.0487584,56.7624982,0.0]]},"properties":{"surface":"asphalt","lanes":"2","name":"Октябрьская улица","highway":"secondary"}},{"type":"Feature","geometry":{"type":"LineString","coordinates":[[62.0242385,56.7756691,0.0],[62.0248554,56.7757937,0.0],[62.0257464,56.7759941,0.0],[62.0261898,56.7760938,0.0],[62.0269015,56.776202,0.0],[62.0274121,56.7762597,0.0],[62.0294215,56.7764296,0.0],[62.0296299,56.7764303,0.0],[62.0298557,56.7764102,0.0],[62.030107,56.7763551,0.0]]},"properties":{"int_ref":"E 22","surface":"asphalt","lanes":"2","maxspeed":"60","highway":"trunk"}},{"type":"Feature","geometry":{"type":"LineString","coordinates":[[62.0490479,56.7820494,0.0],[62.0476891,56.7819823,0.0],[62.0470373,56.7819501,0.0],[62.0459131,56.7818947,0.0],[62.0450065,56.7818499,0.0],[62.0432639,56.7817639,0.0],[62.0430488,56.7817252,0.0],[62.0428672,56.7816473,0.0],[62.0426896,56.781525,0.0],[62.0423846,56.7811918,0.0],[62.0422619,56.7810849,0.0],[62.0421303,56.7810029,0.0],[62.0419274,56.7809587,0.0],[62.0416836,56.7809225,0.0],[62.0403979,56.7809408,0.0],[62.039066,56.7809465,0.0],[62.0383413,56.780918,0.0],[62.0376835,56.7808459,0.0],[62.0373346,56.7807881,0.0],[62.0365305,56.7807421,0.0],[62.0354073,56.7807026,0.0],[62.0335682,56.7806031,0.0],[62.0328727,56.7805693,0.0],[62.0318531,56.780529,0.0],[62.0310577,56.7805133,0.0],[62.0308133,56.7805121,0.0],[62.0302292,56.7804972,0.0],[62.0296623,56.780478,0.0],[62.026774,56.78044,0.0],[62.0250126,56.7803691,0.0],[62.024204,56.7803045,0.0],[62.0238727,56.780267,0.0]]},"properties":{"surface":"asphalt","name":"улица Пищевиков","highway":"secondary"}},{"type":"Feature","geometry":{"type":"LineString","coordinates":[[62.0482477,56.776588,0.0],[62.0490723,56.776645,0.0],[62.0506373,56.7767531,0.0],[62.0507618,56.7767617,0.0],[62.0508639,56.7767669,0.0],[62.0516166,56.7768054,0.0],[62.0527045,56.7768705,0.0],[62.0537265,56.7769301,0.0],[62.0546744,56.7769829,0.0],[62.0557099,56.7770461,0.0],[62.0558943,56.7770565,0.0],[62.057141,56.7771267,0.0],[62.0572563,56.7771332,0.0]]},"properties":{"name":"Первомайская улица","highway":"residential"}},{"type":"Feature","geometry":{"type":"LineString","coordinates":[[62.045086,56.7706231,0.0],[62.0450886,56.7707497,0.0],[62.0450898,56.7708057,0.0],[62.0451009,56.7713488,0.0],[62.0450853,56.771874,0.0],[62.0450863,56.7719432,0.0],[62.0450841,56.7720387,0.0],[62.0450827,56.7721597,0.0],[62.0450789,56.7722551,0.0],[62.0450212,56.7733504,0.0],[62.045014,56.7734615,0.0],[62.0450064,56.7735925,0.0],[62.0449874,56.7737001,0.0],[62.0449663,56.7737988,0.0],[62.0449043,56.7742254,0.0],[62.0447868,56.7750334,0.0],[62.0447674,56.775183,0.0],[62.0446142,56.7763633,0.0],[62.0446072,56.7764205,0.0]]},"properties":{"surface":"asphalt","hgv":"destination","name":"Октябрьская улица","highway":"residential"}},{"type":"Feature","geometry":{"type":"LineString","coordinates":[[62.0354711,56.7867251,0.0],[62.0355282,56.7864857,0.0],[62.0356754,56.7863234,0.0],[62.0357883,56.7861167,0.0],[62.0360039,56.7855574,0.0],[62.0361555,56.7852077,0.0],[62.0362643,56.7849568,0.0],[62.0366208,56.7840958,0.0],[62.0369992,56.7832005,0.0],[62.0372932,56.7825251,0.0],[62.037518,56.7817275,0.0],[62.0376835,56.7808459,0.0]]},"properties":{"name":"улица Крылова","highway":"tertiary"}},{"type":"Feature","geometry":{"type":"LineString","coordinates":[[62.0392643,56.763418,0.0],[62.0390962,56.7635838,0.0],[62.0390855,56.7636751,0.0],[62.0391916,56.7638009,0.0],[62.0424999,56.7657046,0.0],[62.0427267,56.765871,0.0],[62.0428911,56.7660193,0.0],[62.0432638,56.7664315,0.0],[62.0434863,56.7667355,0.0],[62.0435434,56.7668458,0.0],[62.0435708,56.7669663,0.0],[62.0435987,56.7672026,0.0],[62.0435826,56.7674461,0.0],[62.0435473,56.7676871,0.0],[62.0434309,56.7681826,0.0],[62.0433745,56.7683564,0.0],[62.0431701,56.7688666,0.0],[62.0429082,56.7694084,0.0],[62.0427713,56.7696771,0.0],[62.0425068,56.7698784,0.0],[62.0419328,56.7702075,0.0],[62.0405171,56.7709739,0.0],[62.0401171,56.7711495,0.0],[62.0395831,56.7713276,0.0],[62.0367318,56.7721139,0.0],[62.0366231,56.772148,0.0],[62.035909,56.7723221,0.0],[62.0338924,56.7728238,0.0],[62.0328678,56.7730854,0.0],[62.0323824,56.7731956,0.0],[62.031951,56.773252,0.0],[62.0318188,56.7732693,0.0]]},"properties":{"surface":"asphalt","name":"улица Победы","highway":"residential"}},{"type":"Feature","geometry":{"type":"LineString","coordinates":[[62.0467442,56.7701795,0.0],[62.0476339,56.770902,0.0],[62.0477001,56.7710078,0.0],[62.0476514,56.7714269,0.0],[62.0475904,56.7717929,0.0],[62.0479853,56.7718776,0.0],[62.047962,56.7720195,0.0],[62.0479561,56.7720553,0.0],[62.0478909,56.7724514,0.0],[62.0478323,56.7728137,0.0],[62.0478678,56.7728466,0.0],[62.0479338,56.7729076,0.0],[62.0480501,56.7732545,0.0],[62.0480982,56.7733877,0.0],[62.0482383,56.7735531,0.0],[62.0482549,56.7735832,0.0],[62.0482824,56.773633,0.0],[62.0482867,56.7737734,0.0],[62.0482726,56.7738711,0.0]]},"properties":{"living_street":"yes","highway":"service"}},{"type":"Feature","geometry":{"type":"LineString","coordinates":[[62.035909,56.7723221,0.0],[62.0329269,56.7706686,0.0],[62.0319836,56.7701265,0.0],[62.031419,56.7698142,0.0],[62.0310591,56.7696463,0.0]]},"properties":{"name":"улица Пургина","highway":"residential"}},{"type":"Feature","geometry":{"type":"LineString","coordinates":[[62.0476691,56.7749866,0.0],[62.047555,56.7756664,0.0],[62.0475226,56.7758653,0.0],[62.047457,56.7762666,0.0],[62.0474191,56.7764986,0.0],[62.0474127,56.7765377,0.0]]},"properties":{"living_street":"yes","highway":"service"}},{"type":"Feature","geometry":{"type":"LineString","coordinates":[[62.0367914,56.7761646,0.0],[62.03699,56.7758557,0.0]]},"properties":{"highway":"service"}},{"type":"Feature","geometry":{"type":"LineString","coordinates":[[62.0355269,56.7741889,0.0],[62.0356415,56.7743032,0.0],[62.0355684,56.7745745,0.0],[62.0355086,56.774793,0.0],[62.0349866,56.7749467,0.0],[62.0347301,56.7748808,0.0],[62.0343437,56.7747643,0.0]]},"properties":{"highway":"service","oneway":"yes"}},{"type":"Feature","geometry":{"type":"LineString","coordinates":[[62.0639503,56.7753403,0.0],[62.0636269,56.7754204,0.0],[62.0623308,56.7755992,0.0],[62.0619183,56.7756772,0.0],[62.061708,56.7757473,0.0],[62.0615412,56.7758478,0.0],[62.0614789,56.7759452,0.0],[62.0614403,56.7760448,0.0],[62.0614194,56.7761824,0.0],[62.0614307,56.776384,0.0],[62.0614747,56.7769442,0.0],[62.0613996,56.7771497,0.0],[62.0612277,56.7773221,0.0],[62.061003,56.7775238,0.0],[62.0606333,56.7776939,0.0],[62.0603155,56.7776706,0.0],[62.0595516,56.777596,0.0],[62.059143,56.7775682,0.0],[62.0586957,56.7775549,0.0],[62.0572006,56.7775347,0.0],[62.0569029,56.7775208,0.0],[62.0564475,56.7774849,0.0],[62.0546196,56.7772432,0.0],[62.0541282,56.7771886,0.0],[62.0531961,56.7771121,0.0],[62.0520264,56.7770529,0.0],[62.0509826,56.7769873,0.0],[62.0507144,56.7769686,0.0],[62.050491,56.7769559,0.0],[62.0494427,56.7768857,0.0],[62.0490357,56.776821,0.0],[62.0486821,56.7767245,0.0],[62.0482477,56.776588,0.0],[62.0474127,56.7765377,0.0],[62.0469412,56.7765179,0.0],[62.0452741,56.7764479,0.0],[62.04502,56.7764372,0.0],[62.0447824,56.7764272,0.0],[62.0446072,56.7764205,0.0],[62.0442455,56.7764117,0.0],[62.0422994,56.7763643,0.0],[62.0417446,56.7763508,0.0],[62.0400466,56.7763181,0.0],[62.0391605,56.7763011,0.0],[62.0388223,56.776284,0.0],[62.0385468,56.776255,0.0],[62.038257,56.7761976,0.0],[62.03699,56.7758557,0.0],[62.0354118,56.7754025,0.0],[62.0338214,56.7749712,0.0]]},"properties":{"name":"Первомайская улица","highway":"secondary"}},{"type":"Feature","geometry":{"type":"LineString","coordinates":[[62.0308034,56.786457,0.0],[62.0309117,56.786194,0.0],[62.0310715,56.7856566,0.0],[62.0311235,56.7850255,0.0],[62.0311207,56.7846383,0.0],[62.0311124,56.7834743,0.0],[62.0311032,56.782976,0.0],[62.0310577,56.7805133,0.0]]},"properties":{"name":"Школьная улица","highway":"residential"}},{"type":"Feature","geometry":{"type":"LineString","coordinates":[[62.0338214,56.7749712,0.0],[62.0339921,56.7749036,0.0],[62.0343437,56.7747643,0.0],[62.0355269,56.7741889,0.0],[62.0364262,56.7737454,0.0],[62.0366605,56.7736458,0.0],[62.0370325,56.7735454,0.0],[62.0377882,56.7733903,0.0],[62.0382113,56.7732948,0.0],[62.0387331,56.7731232,0.0],[62.0388932,56.7730684,0.0],[62.040872,56.7722982,0.0],[62.0426423,56.771612,0.0],[62.0434394,56.7712927,0.0],[62.0449297,56.7706867,0.0],[62.045086,56.7706231,0.0],[62.0458061,56.7703166,0.0],[62.046473,56.7700328,0.0],[62.0469139,56.769851,0.0],[62.0478087,56.769482,0.0],[62.0481613,56.7693457,0.0],[62.0483287,56.7692958,0.0],[62.0493816,56.7689763,0.0],[62.0500397,56.7687579,0.0],[62.0506969,56.7685487,0.0],[62.0512769,56.76833,0.0],[62.0515958,56.7682108,0.0],[62.0521976,56.7679759,0.0],[62.0524355,56.7678814,0.0],[62.0525591,56.7678323,0.0],[62.052667,56.7677895,0.0],[62.0533866,56.7675181,0.0],[62.0541252,56.76726,0.0],[62.0545112,56.767147,0.0],[62.0549318,56.767037,0.0],[62.0554386,56.7669383,0.0],[62.0583156,56.7664261,0.0],[62.0585535,56.7663716,0.0],[62.0594475,56.7661116,0.0]]},"properties":{"int_ref":"E 22","surface":"asphalt","lanes":"2","name":"улица Кунавина","highway":"trunk"}},{"type":"Feature","geometry":{"type":"LineString","coordinates":[[62.0457871,56.7737429,0.0],[62.0457704,56.7738336,0.0],[62.0457256,56.7741166,0.0],[62.0457136,56.7748737,0.0],[62.0456999,56.7750472,0.0],[62.045122,56.7750441,0.0],[62.0447868,56.7750334,0.0]]},"properties":{"living_street":"yes","highway":"service"}},{"type":"Feature","geometry":{"type":"LineString","coordinates":[[62.0304048,56.7677345,0.0],[62.0308445,56.7681483,0.0],[62.0317411,56.7687076,0.0],[62.032139,56.7688949,0.0],[62.0340535,56.7700954,0.0],[62.0355245,56.7710354,0.0],[62.0359989,56.7713962,0.0],[62.0367318,56.7721139,0.0]]},"properties":{"name":"Озёрная улица","highway":"residential"}},{"type":"Feature","geometry":{"type":"LineString","coordinates":[[62.0340535,56.7700954,0.0],[62.0329269,56.7706686,0.0],[62.0318861,56.7711921,0.0],[62.0312971,56.7712849,0.0],[62.0308845,56.7713451,0.0],[62.0308064,56.771373,0.0],[62.0306874,56.7714154,0.0],[62.0304496,56.7715003,0.0],[62.0300451,56.7716447,0.0],[62.0299334,56.7716846,0.0]]},"properties":{"highway":"residential"}},{"type":"Feature","geometry":{"type":"LineString","coordinates":[[62.0355765,56.7795587,0.0],[62.0338596,56.7795091,0.0],[62.0336952,56.7795926,0.0]]},"properties":{"highway":"residential"}},{"type":"Feature","geometry":{"type":"LineString","coordinates":[[62.0310591,56.7696463,0.0],[62.030506,56.7694284,0.0],[62.030212,56.7694632,0.0],[62.0295029,56.7697026,0.0],[62.0295434,56.7698838,0.0],[62.0293711,56.7699899,0.0],[62.0293144,56.7701006,0.0],[62.0288738,56.7702697,0.0],[62.0285618,56.7703838,0.0],[62.0284415,56.7704278,0.0]]},"properties":{"living_street":"yes","highway":"service"}},{"type":"Feature","geometry":{"type":"LineString","coordinates":[[62.0318188,56.7732693,0.0],[62.0313127,56.7734788,0.0],[62.0310429,56.7736894,0.0],[62.0306242,56.773964,0.0],[62.0302218,56.7743564,0.0],[62.0300692,56.7746127,0.0],[62.0298493,56.7747876,0.0],[62.0295898,56.7749976,0.0],[62.0294765,56.7751256,0.0],[62.0294657,56.7752373,0.0],[62.0294389,56.7753034,0.0],[62.0293986,56.7753519,0.0],[62.0291985,56.7755321,0.0],[62.0291358,56.7755959,0.0],[62.0291305,56.7756444,0.0],[62.0292163,56.7757002,0.0],[62.0293692,56.7757943,0.0],[62.0296186,56.7758825,0.0],[62.0298278,56.7759427,0.0],[62.0300558,56.7760015,0.0],[62.030265,56.7760632,0.0],[62.0303977,56.7760995,0.0],[62.0305359,56.7761573,0.0],[62.0306501,56.7762228,0.0]]},"properties":{"name":"улица Коммунальщиков","highway":"residential"}},{"type":"Feature","geometry":{"type":"LineString","coordinates":[[62.0310429,56.7736894,0.0],[62.0318818,56.7740585,0.0],[62.0328444,56.7747371,0.0]]},"properties":{"name":"переулок Кунавина","highway":"residential"}},{"type":"Feature","geometry":{"type":"LineString","coordinates":[[62.0283723,56.7698333,0.0],[62.0288738,56.7702697,0.0],[62.0295152,56.7707741,0.0]]},"properties":{"living_street":"yes","highway":"service"}},{"type":"Feature","geometry":{"type":"LineString","coordinates":[[62.0318861,56.7711921,0.0],[62.0329894,56.7722096,0.0]]},"properties":{"name":"улица Пархоменко","highway":"residential"}},{"type":"Feature","geometry":{"type":"LineString","coordinates":[[62.0288834,56.7696871,0.0],[62.0293144,56.7701006,0.0],[62.030096,56.7707697,0.0],[62.0293615,56.7710668,0.0],[62.0292514,56.7711113,0.0]]},"properties":{"living_street":"yes","highway":"service"}},{"type":"Feature","geometry":{"type":"LineString","coordinates":[[62.0447674,56.775183,0.0],[62.0450097,56.7751961,0.0],[62.0453693,56.7752114,0.0],[62.0456386,56.7752217,0.0],[62.0456999,56.7750472,0.0]]},"properties":{"living_street":"yes","highway":"service"}},{"type":"Feature","geometry":{"type":"LineString","coordinates":[[62.0453693,56.7752114,0.0],[62.0453984,56.7754559,0.0],[62.0453229,56.7761457,0.0],[62.0452822,56.776398,0.0],[62.0452741,56.7764479,0.0]]},"properties":{"living_street":"yes","highway":"service"}},{"type":"Feature","geometry":{"type":"LineString","coordinates":[[62.0336952,56.7795926,0.0],[62.0335682,56.7806031,0.0],[62.0335972,56.7818002,0.0],[62.0335548,56.7828253,0.0]]},"properties":{"name":"улица Молодёжи","highway":"residential"}},{"type":"Feature","geometry":{"type":"LineString","coordinates":[[62.0448099,56.7737914,0.0],[62.0449663,56.7737988,0.0],[62.0451643,56.7738068,0.0],[62.0457704,56.7738336,0.0],[62.0468179,56.7738811,0.0],[62.0480713,56.7739468,0.0],[62.0488281,56.7739865,0.0],[62.0491546,56.7740036,0.0],[62.0511116,56.7741062,0.0],[62.0512627,56.774114,0.0],[62.0513958,56.7741219,0.0],[62.0521799,56.7741683,0.0],[62.0532095,56.7742319,0.0],[62.0542411,56.7742859,0.0],[62.0550304,56.7743347,0.0],[62.0551817,56.7743413,0.0],[62.0552956,56.7743495,0.0],[62.0561575,56.7743951,0.0],[62.0562132,56.774398,0.0],[62.056314,56.7744033,0.0],[62.056871,56.7744296,0.0],[62.0575516,56.7744617,0.0],[62.0576433,56.774466,0.0],[62.0577841,56.7744727,0.0],[62.0581039,56.7744766,0.0],[62.0586895,56.7744215,0.0],[62.0606511,56.7742069,0.0],[62.0617936,56.774081,0.0],[62.0620595,56.7740711,0.0],[62.062384,56.7740601,0.0],[62.0634271,56.7740248,0.0],[62.0635568,56.7740226,0.0],[62.0639277,56.7740101,0.0],[62.0640203,56.774007,0.0],[62.0642379,56.7739998,0.0],[62.0643961,56.7739954,0.0],[62.0644712,56.7741703,0.0],[62.0644847,56.7743129,0.0],[62.0646054,56.7746156,0.0],[62.064659,56.7746685,0.0],[62.0647529,56.7748552,0.0],[62.0649192,56.7749801,0.0],[62.0651686,56.7755885,0.0]]},"properties":{"highway":"footway"}},{"type":"Feature","geometry":{"type":"LineString","coordinates":[[62.042576,56.7734681,0.0],[62.0447797,56.7735796,0.0],[62.0450064,56.7735925,0.0],[62.0451648,56.7736021,0.0],[62.0456962,56.7736313,0.0],[62.0469309,56.773699,0.0],[62.0482867,56.7737734,0.0],[62.0488566,56.7738038,0.0],[62.0497879,56.7738536,0.0],[62.0511488,56.7739293,0.0],[62.0512909,56.7739367,0.0],[62.0514348,56.7739443,0.0],[62.0532405,56.7740552,0.0],[62.0542698,56.7741184,0.0],[62.0550607,56.7741669,0.0],[62.055243,56.7741795,0.0],[62.0553985,56.7741923,0.0]]},"properties":{"highway":"footway"}},{"type":"Feature","geometry":{"type":"LineString","coordinates":[[62.0240901,56.7791431,0.0],[62.0250125,56.7791927,0.0],[62.0261194,56.7792356,0.0],[62.0279912,56.7792644,0.0],[62.0288412,56.779321,0.0],[62.0296188,56.7793439,0.0],[62.0302191,56.7792409,0.0],[62.0307044,56.7790951,0.0],[62.0309184,56.7788577,0.0]]},"properties":{"name":"Кооперативная улица","highway":"residential"}},{"type":"Feature","geometry":{"type":"LineString","coordinates":[[62.0453425,56.7706444,0.0],[62.0453437,56.7706743,0.0],[62.0453512,56.7708548,0.0],[62.0452875,56.7718832,0.0],[62.0452809,56.7719541,0.0],[62.0452616,56.7721604,0.0],[62.0452521,56.772262,0.0],[62.0452258,56.7725436,0.0],[62.0451648,56.7736021,0.0],[62.0451685,56.7737099,0.0],[62.0451643,56.7738068,0.0],[62.045122,56.7750441,0.0],[62.0450097,56.7751961,0.0],[62.0447889,56.7763709,0.0],[62.0447824,56.7764272,0.0]]},"properties":{"bicycle":"yes","highway":"footway"}},{"type":"Feature","geometry":{"type":"LineString","coordinates":[[62.030107,56.7763551,0.0],[62.0306501,56.7762228,0.0],[62.0309955,56.7761386,0.0],[62.0315013,56.77599,0.0],[62.0318869,56.7758441,0.0]]},"properties":{"int_ref":"E 22","surface":"asphalt","lanes":"2","name":"улица Кунавина","highway":"trunk"}},{"type":"Feature","geometry":{"type":"LineString","coordinates":[[62.0419328,56.7702075,0.0],[62.0432794,56.7711775,0.0],[62.0434394,56.7712927,0.0]]},"properties":{"highway":"residential"}},{"type":"Feature","geometry":{"type":"LineString","coordinates":[[62.0395831,56.7713276,0.0],[62.0406994,56.7721682,0.0],[62.040872,56.7722982,0.0]]},"properties":{"highway":"residential"}},{"type":"Feature","geometry":{"type":"LineString","coordinates":[[62.0474191,56.7764986,0.0],[62.0506497,56.7766841,0.0],[62.050777,56.7766923,0.0],[62.0508798,56.7766986,0.0],[62.0516351,56.7767379,0.0],[62.0527105,56.7768034,0.0],[62.0537402,56.7768602,0.0],[62.0545941,56.7769107,0.0],[62.0546892,56.7769163,0.0],[62.0548401,56.7769258,0.0],[62.0557236,56.7769753,0.0],[62.0570477,56.7770495,0.0]]},"properties":{"bicycle":"yes","highway":"footway"}},{"type":"Feature","geometry":{"type":"LineString","coordinates":[[62.040872,56.7722982,0.0],[62.0409681,56.7723733,0.0],[62.0410018,56.7723997,0.0],[62.0409281,56.7727796,0.0],[62.040926,56.7728804,0.0],[62.0409977,56.772944,0.0],[62.0410905,56.7729897,0.0],[62.0412322,56.7730126,0.0],[62.0415753,56.7730253,0.0],[62.0417441,56.7729752,0.0],[62.0419598,56.7729487,0.0],[62.0421795,56.7729673,0.0],[62.042224,56.7726765,0.0],[62.0417646,56.7726466,0.0],[62.0418089,56.772403,0.0]]},"properties":{"highway":"service"}},{"type":"Feature","geometry":{"type":"LineString","coordinates":[[62.0357567,56.7742007,0.0],[62.0362216,56.7739627,0.0],[62.0364401,56.7738457,0.0],[62.0366637,56.7737246,0.0],[62.0368618,56.7736634,0.0],[62.0370854,56.7736161,0.0],[62.0374334,56.7735632,0.0],[62.0377179,56.7735172,0.0],[62.0380126,56.7734657,0.0],[62.0383099,56.7733752,0.0],[62.0388586,56.7731901,0.0],[62.039056,56.7731173,0.0],[62.0391381,56.7730871,0.0],[62.0409681,56.7723733,0.0],[62.0427468,56.7716875,0.0],[62.0447703,56.770875,0.0],[62.0449574,56.7708014,0.0],[62.0450886,56.7707497,0.0],[62.0453425,56.7706444,0.0],[62.0459226,56.7704039,0.0],[62.0466961,56.7700831,0.0],[62.0468997,56.7699986,0.0],[62.0470293,56.7699443,0.0],[62.0482605,56.7694287,0.0],[62.0494695,56.7690469,0.0],[62.0507723,56.7686063,0.0],[62.0522171,56.7681124,0.0],[62.0523976,56.7680795,0.0],[62.0526094,56.7680749,0.0]]},"properties":{"bicycle":"yes","surface":"asphalt","highway":"footway"}},{"type":"Feature","geometry":{"type":"LineString","coordinates":[[62.0450841,56.7720387,0.0],[62.0449097,56.7720365,0.0],[62.044419,56.7720305,0.0],[62.0432614,56.7720243,0.0],[62.0430618,56.7719151,0.0],[62.0427468,56.7716875,0.0],[62.0426423,56.771612,0.0]]},"properties":{"living_street":"yes","highway":"service"}},{"type":"Feature","geometry":{"type":"LineString","coordinates":[[62.0418089,56.772403,0.0],[62.0430618,56.7719151,0.0],[62.0443331,56.7714319,0.0],[62.0444844,56.7715128,0.0],[62.044419,56.7720305,0.0],[62.0444118,56.7721267,0.0],[62.0442425,56.7733177,0.0]]},"properties":{"living_street":"yes","highway":"service"}},{"type":"Feature","geometry":{"type":"LineString","coordinates":[[62.0247035,56.7669695,0.0],[62.0247523,56.767055,0.0],[62.0254292,56.7676804,0.0],[62.0255643,56.7678052,0.0],[62.0261617,56.7683313,0.0],[62.0262429,56.7684029,0.0],[62.0267294,56.7688565,0.0],[62.0269197,56.7690073,0.0],[62.0270196,56.7690865,0.0],[62.0273962,56.7693703,0.0],[62.0281376,56.7700173,0.0],[62.0285618,56.7703838,0.0],[62.0289339,56.7707052,0.0],[62.0293615,56.7710668,0.0],[62.0300451,56.7716447,0.0],[62.030979,56.7724251,0.0],[62.031951,56.773252,0.0],[62.0329673,56.7741126,0.0],[62.0337447,56.7747683,0.0],[62.0338337,56.7748169,0.0],[62.0339921,56.7749036,0.0],[62.0354239,56.7752972,0.0],[62.036087,56.7755088,0.0],[62.0370625,56.775783,0.0],[62.038127,56.7760767,0.0],[62.0383683,56.776131,0.0],[62.0386782,56.7761533,0.0],[62.040057,56.7762222,0.0],[62.0405175,56.7762452,0.0],[62.0419859,56.7762786,0.0],[62.0423063,56.7762881,0.0],[62.0441231,56.7763421,0.0],[62.0446142,56.7763633,0.0],[62.0447889,56.7763709,0.0],[62.0452822,56.776398,0.0],[62.0474191,56.7764986,0.0]]},"properties":{"bicycle":"yes","highway":"footway"}},{"type":"Feature","geometry":{"type":"LineString","coordinates":[[62.0300728,56.7762421,0.0],[62.0295722,56.7773466,0.0]]},"properties":{"bridge":"yes","highway":"footway","layer":"1"}},{"type":"Feature","geometry":{"type":"LineString","coordinates":[[62.0450789,56.7722551,0.0],[62.0452521,56.772262,0.0],[62.0456932,56.7722797,0.0],[62.0455987,56.7728421,0.0],[62.0458357,56.772856,0.0],[62.0457312,56.7734415,0.0],[62.0456962,56.7736313,0.0],[62.0456767,56.7737374,0.0]]},"properties":{"living_street":"yes","highway":"service"}},{"type":"Feature","geometry":{"type":"LineString","coordinates":[[62.0403979,56.7809408,0.0],[62.041015,56.7811527,0.0],[62.0409716,56.7815102,0.0]]},"properties":{"highway":"service"}},{"type":"Feature","geometry":{"type":"LineString","coordinates":[[62.0377882,56.7733903,0.0],[62.0376752,56.7732698,0.0],[62.0366231,56.772148,0.0]]},"properties":{"noname":"yes","highway":"residential"}},{"type":"Feature","geometry":{"type":"LineString","coordinates":[[62.0388932,56.7730684,0.0],[62.039056,56.7731173,0.0],[62.0392043,56.7731483,0.0],[62.0394221,56.7731812,0.0],[62.039787,56.7732145,0.0],[62.040497,56.7732363,0.0],[62.0416822,56.7732897,0.0],[62.0419707,56.7733149,0.0],[62.0422021,56.7733752,0.0]]},"properties":{"surface":"unpaved","name":"улица Гагарина","highway":"residential"}},{"type":"Feature","geometry":{"type":"LineString","coordinates":[[62.0318869,56.7758441,0.0],[62.0329918,56.7753117,0.0],[62.0334317,56.7751278,0.0],[62.0338214,56.7749712,0.0]]},"properties":{"int_ref":"E 22","surface":"asphalt","lanes":"3","name":"улица Кунавина","highway":"trunk"}},{"type":"Feature","geometry":{"type":"LineString","coordinates":[[62.0422021,56.7733752,0.0],[62.0424497,56.7734873,0.0],[62.0425909,56.7735512,0.0],[62.0428459,56.7735952,0.0],[62.0429413,56.7735999,0.0],[62.0432504,56.773615,0.0],[62.0448132,56.7736916,0.0],[62.0449874,56.7737001,0.0],[62.0451685,56.7737099,0.0],[62.0456767,56.7737374,0.0],[62.0457871,56.7737429,0.0],[62.0468321,56.7737972,0.0],[62.0469118,56.7738013,0.0],[62.0480867,56.7738616,0.0],[62.0482726,56.7738711,0.0],[62.0488417,56.7739028,0.0],[62.0491673,56.773921,0.0],[62.0497695,56.7739545,0.0],[62.0511292,56.7740225,0.0],[62.051276,56.7740304,0.0],[62.0514141,56.7740385,0.0],[62.0521975,56.7740841,0.0],[62.0532263,56.774144,0.0],[62.0542556,56.7742035,0.0],[62.0550495,56.7742496,0.0],[62.0552096,56.774259,0.0],[62.0553119,56.7742653,0.0],[62.0561636,56.7743169,0.0],[62.0562269,56.7743207,0.0],[62.0568864,56.7743606,0.0],[62.0575861,56.774403,0.0],[62.0576613,56.7744076,0.0],[62.0579541,56.7744253,0.0],[62.0581466,56.7744235,0.0],[62.0583261,56.7744119,0.0],[62.0588988,56.7743552,0.0],[62.0609623,56.7740982,0.0],[62.0618833,56.7740106,0.0],[62.0621094,56.7740018,0.0],[62.062859,56.7739727,0.0],[62.0633987,56.7739507,0.0],[62.0635306,56.7739453,0.0]]},"properties":{"name":"улица Гагарина","highway":"residential"}},{"type":"Feature","geometry":{"type":"LineString","coordinates":[[62.0419008,56.7851527,0.0],[62.042085,56.7838619,0.0],[62.0421412,56.783468,0.0],[62.0421639,56.7832254,0.0],[62.0423768,56.7818463,0.0],[62.0424248,56.7816536,0.0],[62.0426896,56.781525,0.0]]},"properties":{"name":"улица Перепечина","highway":"residential"}},{"type":"Feature","geometry":{"type":"LineString","coordinates":[[62.0355765,56.7795587,0.0],[62.0354073,56.7807026,0.0],[62.0352175,56.7818129,0.0],[62.0351641,56.7825098,0.0],[62.0350011,56.7832296,0.0],[62.0348394,56.7839965,0.0],[62.0347005,56.7846552,0.0]]},"properties":{"name":"Комсомольская улица","highway":"residential"}},{"type":"Feature","geometry":{"type":"LineString","coordinates":[[62.0415753,56.7730253,0.0],[62.0417661,56.773111,0.0],[62.0420052,56.7732828,0.0],[62.0422021,56.7733752,0.0]]},"properties":{"highway":"service"}},{"type":"Feature","geometry":{"type":"LineString","coordinates":[[62.0302292,56.7804972,0.0],[62.0303329,56.7803579,0.0],[62.0305272,56.7803113,0.0],[62.0307923,56.7803412,0.0],[62.0308133,56.7805121,0.0]]},"properties":{"highway":"service","oneway":"yes"}},{"type":"Feature","geometry":{"type":"LineString","coordinates":[[62.0378344,56.7797068,0.0],[62.0376724,56.7802502,0.0],[62.0376835,56.7808459,0.0]]},"properties":{"name":"улица Крылова","highway":"residential"}},{"type":"Feature","geometry":{"type":"LineString","coordinates":[[62.0300366,56.7717713,0.0],[62.0295285,56.7719042,0.0],[62.0276395,56.7725486,0.0],[62.0274541,56.7726098,0.0],[62.0267671,56.7728396,0.0],[62.0267595,56.7729788,0.0],[62.0268164,56.7730994,0.0],[62.026934,56.7732386,0.0],[62.0270516,56.7734527,0.0],[62.0271047,56.7735878,0.0]]},"properties":{"highway":"unclassified"}},{"type":"Feature","geometry":{"type":"LineString","coordinates":[[62.0431052,56.7745025,0.0],[62.0431539,56.7741441,0.0],[62.0447875,56.7741956,0.0],[62.0448006,56.7739588,0.0],[62.0448099,56.7737914,0.0],[62.0448126,56.7737445,0.0],[62.0448132,56.7736916,0.0],[62.0447797,56.7735796,0.0],[62.0447731,56.7735575,0.0],[62.0447625,56.7733395,0.0],[62.0447587,56.7732602,0.0],[62.0448521,56.7725161,0.0],[62.0449097,56.7720365,0.0],[62.0449147,56.7718744,0.0],[62.0449574,56.7708014,0.0],[62.0449297,56.7706867,0.0],[62.044906,56.7705965,0.0],[62.0449387,56.7705169,0.0],[62.0452258,56.7698188,0.0],[62.0456997,56.7687227,0.0],[62.0460988,56.7678499,0.0],[62.0465767,56.7667867,0.0],[62.0467922,56.7663181,0.0],[62.0468085,56.766286,0.0],[62.0468443,56.7662156,0.0],[62.0471443,56.765625,0.0],[62.0473635,56.7651406,0.0],[62.0476868,56.7644475,0.0],[62.0477158,56.7643811,0.0],[62.0477425,56.7643201,0.0],[62.0479883,56.7637582,0.0],[62.0483033,56.7630592,0.0],[62.0484227,56.7627946,0.0],[62.048608,56.7628224,0.0],[62.0487759,56.7628461,0.0]]},"properties":{"bicycle":"yes","surface":"asphalt","highway":"footway"}},{"type":"Feature","geometry":{"type":"LineString","coordinates":[[62.0526677,56.7678976,0.0],[62.0525591,56.7678323,0.0],[62.0524041,56.7677144,0.0],[62.0521611,56.7678271,0.0],[62.0514971,56.7681379,0.0],[62.0511879,56.7682556,0.0],[62.0510068,56.76833,0.0],[62.0500592,56.7686474,0.0],[62.0499916,56.7686688,0.0],[62.0491015,56.7689509,0.0],[62.048219,56.769218,0.0],[62.04808,56.76927,0.0],[62.0477312,56.7694006,0.0],[62.047534,56.7694744,0.0],[62.0464721,56.7699255,0.0],[62.0452654,56.7704239,0.0],[62.045126,56.770463,0.0],[62.0449387,56.7705169,0.0],[62.0442492,56.7707789,0.0],[62.0432794,56.7711775,0.0],[62.0408272,56.7721181,0.0],[62.0406994,56.7721682,0.0],[62.0387288,56.7729338,0.0],[62.038528,56.7729996,0.0],[62.037832,56.7732276,0.0],[62.0376752,56.7732698,0.0],[62.0374027,56.7733431,0.0],[62.0367701,56.7734934,0.0],[62.036323,56.773634,0.0],[62.0352076,56.7741507,0.0],[62.0338337,56.7748169,0.0],[62.0336822,56.7748529,0.0],[62.0334892,56.7749204,0.0],[62.0329593,56.7751281,0.0],[62.0322443,56.775388,0.0],[62.0315635,56.7756458,0.0],[62.0305377,56.7760474,0.0],[62.0303977,56.7760995,0.0],[62.0303366,56.7761222,0.0],[62.0301096,56.7761661,0.0]]},"properties":{"bicycle":"yes","surface":"asphalt","highway":"footway"}},{"type":"Feature","geometry":{"type":"LineString","coordinates":[[62.0479853,56.7718776,0.0],[62.0480549,56.7718835,0.0],[62.0492256,56.7719824,0.0],[62.0501005,56.7720307,0.0],[62.0503195,56.7720428,0.0],[62.0505964,56.772058,0.0],[62.0509943,56.77208,0.0],[62.0512591,56.7720946,0.0],[62.0514229,56.7720549,0.0],[62.0515106,56.7720336,0.0],[62.0516476,56.7720395,0.0]]},"properties":{"surface":"asphalt","service":"alley","highway":"service"}},{"type":"Feature","geometry":{"type":"LineString","coordinates":[[62.0301096,56.7761661,0.0],[62.0300728,56.7762421,0.0]]},"properties":{"bicycle":"yes","surface":"asphalt","bridge":"yes","highway":"steps"}},{"type":"Feature","geometry":{"type":"LineString","coordinates":[[62.0295076,56.7775292,0.0],[62.0295722,56.7773466,0.0]]},"properties":{"surface":"asphalt","bridge":"yes","highway":"steps"}},{"type":"Feature","geometry":{"type":"LineString","coordinates":[[62.0284946,56.7783194,0.0],[62.0285352,56.7781566,0.0],[62.0286064,56.7780285,0.0],[62.0286521,56.7779227,0.0],[62.0287359,56.7778462,0.0],[62.0289239,56.7777307,0.0],[62.0290941,56.7776388,0.0],[62.0292466,56.7775803,0.0],[62.0295076,56.7775292,0.0]]},"properties":{"horse":"no","ski":"no","trail_visibility":"good","wheelchair":"no","bicycle":"yes","surface":"ground","highway":"path","snowmobile":"no","foot":"yes"}},{"type":"Feature","geometry":{"type":"LineString","coordinates":[[62.039787,56.7732145,0.0],[62.0396764,56.773777,0.0],[62.0396554,56.7742144,0.0]]},"properties":{"highway":"unclassified"}},{"type":"Feature","geometry":{"type":"LineString","coordinates":[[62.040926,56.7728804,0.0],[62.0408533,56.7729254,0.0],[62.0405835,56.7731316,0.0],[62.040497,56.7732363,0.0]]},"properties":{"surface":"compacted","service":"parking_aisle","highway":"service"}},{"type":"Feature","geometry":{"type":"LineString","coordinates":[[62.0457312,56.7734415,0.0],[62.0469659,56.7735108,0.0],[62.0482549,56.7735832,0.0],[62.0498229,56.7736611,0.0],[62.0499379,56.7736671,0.0],[62.050305,56.7736862,0.0],[62.050753,56.7737096,0.0],[62.0511755,56.7737316,0.0],[62.0513224,56.7737393,0.0]]},"properties":{"service":"parking_aisle","highway":"service"}},{"type":"Feature","geometry":{"type":"LineString","coordinates":[[62.047558,56.7720897,0.0],[62.0468184,56.772212,0.0],[62.0461434,56.7720246,0.0]]},"properties":{"surface":"asphalt","highway":"footway"}},{"type":"Feature","geometry":{"type":"LineString","coordinates":[[62.0514335,56.7719882,0.0],[62.0507556,56.7719549,0.0],[62.050651,56.7720039,0.0],[62.0503991,56.7719904,0.0],[62.0503352,56.7719543,0.0],[62.0502147,56.7718863,0.0],[62.0500636,56.7718789,0.0],[62.0480916,56.7717824,0.0],[62.0480563,56.7717807,0.0],[62.0477313,56.7717565,0.0],[62.047669,56.7717192,0.0],[62.0477624,56.7710269,0.0],[62.0477118,56.7709223,0.0],[62.0466961,56.7700831,0.0]]},"properties":{"bicycle":"yes","highway":"footway"}},{"type":"Feature","geometry":{"type":"LineString","coordinates":[[62.0477624,56.7710269,0.0],[62.0481612,56.7710436,0.0],[62.0482,56.7710452,0.0],[62.0483957,56.7710534,0.0],[62.0500323,56.7711219,0.0],[62.0501185,56.7711453,0.0],[62.0502421,56.7711789,0.0]]},"properties":{"bicycle":"yes","highway":"footway"}},{"type":"Feature","geometry":{"type":"LineString","coordinates":[[62.0469139,56.769851,0.0],[62.0470293,56.7699443,0.0],[62.0473787,56.7702268,0.0],[62.0475185,56.7702181,0.0],[62.0476815,56.7702087,0.0],[62.0479396,56.7701171,0.0],[62.0483533,56.7699703,0.0],[62.0485872,56.770174,0.0]]},"properties":{"service":"parking_aisle","highway":"service"}},{"type":"Feature","geometry":{"type":"LineString","coordinates":[[62.0463985,56.7711724,0.0],[62.0455942,56.7705941,0.0],[62.0455496,56.7705892,0.0],[62.0453437,56.7706743,0.0],[62.0453095,56.7706885,0.0],[62.045257,56.7707874,0.0]]},"properties":{"service":"parking_aisle","highway":"service"}},{"type":"Feature","geometry":{"type":"LineString","coordinates":[[62.0475226,56.7758653,0.0],[62.0486706,56.7759378,0.0]]},"properties":{"service":"parking_aisle","highway":"service"}},{"type":"Feature","geometry":{"type":"LineString","coordinates":[[62.047457,56.7762666,0.0],[62.0486212,56.7763311,0.0]]},"properties":{"service":"parking_aisle","highway":"service"}},{"type":"Feature","geometry":{"type":"LineString","coordinates":[[62.0458061,56.7703166,0.0],[62.0459226,56.7704039,0.0],[62.046767,56.7710365,0.0]]},"properties":{"service":"parking_aisle","highway":"service"}},{"type":"Feature","geometry":{"type":"LineString","coordinates":[[62.0449043,56.7742254,0.0],[62.0441504,56.774199,0.0],[62.0431973,56.7741656,0.0],[62.0431584,56.7745069,0.0]]},"properties":{"service":"parking_aisle","highway":"service"}},{"type":"Feature","geometry":{"type":"LineString","coordinates":[[62.0468321,56.7737972,0.0],[62.0468179,56.7738811,0.0],[62.0467878,56.7740867,0.0],[62.0480338,56.7741537,0.0],[62.0491227,56.7742118,0.0],[62.0506653,56.7743058,0.0]]},"properties":{"service":"parking_aisle","highway":"service"}},{"type":"Feature","geometry":{"type":"LineString","coordinates":[[62.0450212,56.7733504,0.0],[62.0447625,56.7733395,0.0],[62.0442425,56.7733177,0.0],[62.0424887,56.7732269,0.0],[62.0424497,56.7734873,0.0]]},"properties":{"service":"parking_aisle","highway":"service"}},{"type":"Feature","geometry":{"type":"LineString","coordinates":[[62.0462249,56.7712661,0.0],[62.0463985,56.7711724,0.0],[62.046767,56.7710365,0.0],[62.0470057,56.7710031,0.0],[62.047457,56.7710106,0.0],[62.0477001,56.7710078,0.0]]},"properties":{"service":"parking_aisle","highway":"service"}},{"type":"Feature","geometry":{"type":"LineString","coordinates":[[62.0479561,56.7720553,0.0],[62.0462614,56.7719736,0.0],[62.0462683,56.771948,0.0],[62.0464405,56.7713122,0.0],[62.0462249,56.7712661,0.0],[62.0459188,56.771261,0.0],[62.0453512,56.7708548,0.0],[62.045257,56.7707874,0.0],[62.0450898,56.7708057,0.0]]},"properties":{"service":"parking_aisle","highway":"service"}},{"type":"Feature","geometry":{"type":"LineString","coordinates":[[62.0453229,56.7761457,0.0],[62.0470023,56.7762335,0.0]]},"properties":{"service":"parking_aisle","highway":"service"}},{"type":"Feature","geometry":{"type":"LineString","coordinates":[[62.0469412,56.7765179,0.0],[62.0470023,56.7762335,0.0],[62.0470904,56.7756422,0.0],[62.047555,56.7756664,0.0]]},"properties":{"service":"parking_aisle","highway":"service"}},{"type":"Feature","geometry":{"type":"LineString","coordinates":[[62.0425909,56.7735512,0.0],[62.0425039,56.7736752,0.0],[62.0424324,56.7739588,0.0],[62.0423443,56.7740553,0.0],[62.0422066,56.7741458,0.0],[62.0421295,56.7742454,0.0],[62.0420965,56.7743842,0.0],[62.042069,56.7747764,0.0],[62.0425425,56.7747914,0.0],[62.0424048,56.7758896,0.0],[62.0424269,56.7760736,0.0],[62.0423222,56.7761882,0.0],[62.0423063,56.7762881,0.0],[62.0422994,56.7763643,0.0]]},"properties":{"service":"parking_aisle","highway":"service"}},{"type":"Feature","geometry":{"type":"LineString","coordinates":[[62.0441504,56.774199,0.0],[62.0440676,56.774885,0.0]]},"properties":{"service":"parking_aisle","highway":"service"}},{"type":"Feature","geometry":{"type":"LineString","coordinates":[[62.0469118,56.7738013,0.0],[62.0469309,56.773699,0.0],[62.0469659,56.7735108,0.0]]},"properties":{"surface":"asphalt","service":"parking_aisle","highway":"service"}},{"type":"Feature","geometry":{"type":"LineString","coordinates":[[62.0480867,56.7738616,0.0],[62.0480713,56.7739468,0.0],[62.0480338,56.7741537,0.0],[62.048009,56.7742903,0.0]]},"properties":{"surface":"asphalt","service":"parking_aisle","highway":"service"}},{"type":"Feature","geometry":{"type":"LineString","coordinates":[[62.0480143,56.7720218,0.0],[62.047962,56.7720195,0.0],[62.0462683,56.771948,0.0],[62.0459184,56.7719246,0.0],[62.0455724,56.7719069,0.0],[62.0452875,56.7718832,0.0],[62.0450853,56.771874,0.0],[62.0449147,56.7718744,0.0]]},"properties":{"bicycle":"yes","surface":"asphalt","highway":"footway"}},{"type":"Feature","geometry":{"type":"LineString","coordinates":[[62.0450827,56.7721597,0.0],[62.0452616,56.7721604,0.0],[62.0453777,56.7721609,0.0],[62.0454073,56.7719612,0.0],[62.0452809,56.7719541,0.0],[62.0450863,56.7719432,0.0]]},"properties":{"surface":"asphalt","service":"parking_aisle","highway":"service"}},{"type":"Feature","geometry":{"type":"LineString","coordinates":[[62.0432154,56.7738887,0.0],[62.0448006,56.7739588,0.0]]},"properties":{"bicycle":"yes","surface":"concrete","highway":"footway"}},{"type":"Feature","geometry":{"type":"LineString","coordinates":[[62.0429413,56.7735999,0.0],[62.0429141,56.7738277,0.0]]},"properties":{"service":"parking_aisle","highway":"service"}},{"type":"Feature","geometry":{"type":"LineString","coordinates":[[62.0432504,56.773615,0.0],[62.0432154,56.7738887,0.0],[62.0432024,56.7739901,0.0]]},"properties":{"bicycle":"yes","surface":"concrete","highway":"footway"}},{"type":"Feature","geometry":{"type":"LineString","coordinates":[[62.0500636,56.7718789,0.0],[62.0498829,56.7716862,0.0],[62.0481173,56.7716014,0.0],[62.0480916,56.7717824,0.0],[62.0480549,56.7718835,0.0],[62.0480266,56.771951,0.0],[62.0480143,56.7720218,0.0],[62.0478764,56.7728138,0.0],[62.0478678,56.7728466,0.0]]},"properties":{"bicycle":"yes","surface":"concrete","highway":"footway"}},{"type":"Feature","geometry":{"type":"LineString","coordinates":[[62.030096,56.7707697,0.0],[62.0308064,56.771373,0.0]]},"properties":{"surface":"asphalt","service":"parking_aisle","highway":"service"}},{"type":"Feature","geometry":{"type":"LineString","coordinates":[[62.0308647,56.7724674,0.0],[62.030979,56.7724251,0.0],[62.0310979,56.772381,0.0],[62.0312507,56.7721917,0.0],[62.0304496,56.7715003,0.0]]},"properties":{"surface":"asphalt","service":"parking_aisle","highway":"service"}},{"type":"Feature","geometry":{"type":"LineString","coordinates":[[62.0459131,56.7818947,0.0],[62.0463857,56.7816476,0.0],[62.0466445,56.781645,0.0],[62.0470373,56.7819501,0.0]]},"properties":{"service":"parking_aisle","highway":"service"}},{"type":"Feature","geometry":{"type":"LineString","coordinates":[[62.0245632,56.7670527,0.0],[62.0248466,56.7673076,0.0],[62.0250589,56.7674985,0.0],[62.0253085,56.767723,0.0],[62.0255529,56.7679467,0.0],[62.0258115,56.7681834,0.0],[62.026026,56.7683798,0.0],[62.0267991,56.769052,0.0],[62.0284415,56.7704278,0.0],[62.0292514,56.7711113,0.0],[62.0299334,56.7716846,0.0],[62.0300366,56.7717713,0.0],[62.0308647,56.7724674,0.0],[62.0318188,56.7732693,0.0],[62.0336822,56.7748529,0.0],[62.0338214,56.7749712,0.0]]},"properties":{"name":"Рокицанская улица","highway":"tertiary"}},{"type":"Feature","geometry":{"type":"LineString","coordinates":[[62.038528,56.7729996,0.0],[62.0387331,56.7731232,0.0],[62.0388586,56.7731901,0.0]]},"properties":{"footway":"crossing","highway":"footway"}},{"type":"Feature","geometry":{"type":"LineString","coordinates":[[62.0481612,56.7710436,0.0],[62.0481173,56.7716014,0.0]]},"properties":{"footway":"sidewalk","highway":"footway"}},{"type":"Feature","geometry":{"type":"LineString","coordinates":[[62.0477118,56.7709223,0.0],[62.0481105,56.7708149,0.0],[62.0484611,56.7705665,0.0]]},"properties":{"highway":"footway"}},{"type":"Feature","geometry":{"type":"LineString","coordinates":[[62.0489144,56.7705327,0.0],[62.0487562,56.770465,0.0]]},"properties":{"footway":"sidewalk","highway":"footway"}},{"type":"Feature","geometry":{"type":"LineString","coordinates":[[62.0483957,56.7710534,0.0],[62.0489144,56.7705327,0.0],[62.0490064,56.7705001,0.0],[62.0491015,56.7704665,0.0],[62.0490968,56.7703666,0.0],[62.0498693,56.7700726,0.0],[62.0499771,56.7700392,0.0],[62.0504004,56.7699374,0.0]]},"properties":{"footway":"sidewalk","highway":"footway"}},{"type":"Feature","geometry":{"type":"LineString","coordinates":[[62.0479396,56.7701171,0.0],[62.0484611,56.7705665,0.0],[62.0487562,56.770465,0.0]]},"properties":{"surface":"asphalt","service":"driveway","highway":"service"}},{"type":"Feature","geometry":{"type":"LineString","coordinates":[[62.0303366,56.7761222,0.0],[62.0302811,56.7761823,0.0],[62.030206,56.7762366,0.0],[62.0300974,56.7762712,0.0],[62.030029,56.7762866,0.0],[62.0299993,56.7763177,0.0],[62.0299847,56.7763329,0.0],[62.0299324,56.7763432,0.0],[62.0297809,56.7763425,0.0],[62.0292753,56.7763189,0.0],[62.0286664,56.7762719,0.0],[62.028181,56.7762117,0.0],[62.0278054,56.7761779,0.0],[62.0276533,56.7761739,0.0],[62.0275265,56.7761764,0.0],[62.0273092,56.7761764,0.0],[62.0266253,56.7760809,0.0],[62.0258877,56.7759751,0.0],[62.0257798,56.775948,0.0],[62.0252734,56.7758207,0.0],[62.0250159,56.7757561,0.0],[62.0248514,56.7757108,0.0]]},"properties":{"bicycle":"yes","surface":"asphalt","footway":"sidewalk","highway":"footway"}},{"type":"Feature","geometry":{"type":"LineString","coordinates":[[62.0400466,56.7763181,0.0],[62.040057,56.7762222,0.0],[62.0400609,56.7761865,0.0],[62.0403346,56.7743132,0.0],[62.0403957,56.7739396,0.0],[62.040497,56.7732363,0.0]]},"properties":{"surface":"asphalt","service":"alley","highway":"service"}},{"type":"Feature","geometry":{"type":"LineString","coordinates":[[62.0306874,56.7714154,0.0],[62.0314532,56.7720818,0.0],[62.0312507,56.7721917,0.0]]},"properties":{"surface":"asphalt","service":"parking_aisle","highway":"service"}},{"type":"Feature","geometry":{"type":"LineString","coordinates":[[62.0441857,56.7768201,0.0],[62.0442455,56.7764117,0.0]]},"properties":{"surface":"compacted","highway":"unclassified"}},{"type":"Feature","geometry":{"type":"LineString","coordinates":[[62.0445451,56.7768377,0.0],[62.0446072,56.7764205,0.0]]},"properties":{"surface":"compacted","highway":"unclassified"}},{"type":"Feature","geometry":{"type":"LineString","coordinates":[[62.04502,56.7764372,0.0],[62.0449474,56.7768495,0.0]]},"properties":{"surface":"compacted","highway":"unclassified"}},{"type":"Feature","geometry":{"type":"LineString","coordinates":[[62.0482814,56.7806687,0.0],[62.0476891,56.7819823,0.0],[62.0475906,56.7820695,0.0],[62.0474558,56.7821888,0.0],[62.0472824,56.7834305,0.0]]},"properties":{"bicycle":"yes","surface":"asphalt","highway":"footway","foot":"yes"}},{"type":"Feature","geometry":{"type":"LineString","coordinates":[[62.0423967,56.7833327,0.0],[62.0426635,56.7831656,0.0],[62.0429746,56.7829442,0.0],[62.0434983,56.7825632,0.0],[62.0435393,56.7825334,0.0],[62.0441455,56.7822733,0.0],[62.0448241,56.7819456,0.0],[62.0450065,56.7818499,0.0],[62.0452586,56.7817282,0.0],[62.0471254,56.7810728,0.0],[62.0482814,56.7806687,0.0],[62.0488152,56.7798693,0.0],[62.0490521,56.7796057,0.0],[62.0495152,56.7791111,0.0],[62.0496704,56.7789253,0.0]]},"properties":{"surface":"asphalt","footway":"sidewalk","highway":"footway"}},{"type":"Feature","geometry":{"type":"Point","coordinates":[62.0507096,56.7778662]},"properties":{"name:ru":"Богданович","name:ru:word_stress":"Богдано́вич","name:ja":"ボグダノーヴィチ","name":"Богданович","name:en":"Bogdanovich","public_transport":"stop_position","railway":"stop","train":"yes"}},{"type":"Feature","geometry":{"type":"Point","coordinates":[62.0507091,56.7778272]},"properties":{"name:ru":"Богданович","name:ru:word_stress":"Богдано́вич","name:ja":"ボグダノーヴィチ","name":"Богданович","name:en":"Bogdanovich","public_transport":"stop_position","railway":"stop","train":"yes"}},{"type":"Feature","geometry":{"type":"LineString","coordinates":[[62.0522774,56.7777943,0.0],[62.050912,56.7777203,0.0],[62.0500663,56.7776745,0.0],[62.0485448,56.777592,0.0]]},"properties":{"public_transport":"platform","railway":"platform"}},{"type":"Feature","geometry":{"type":"LineString","coordinates":[[62.0476685,56.7775931,0.0],[62.0509037,56.7777661,0.0],[62.0528063,56.7778679,0.0]]},"properties":{"public_transport":"platform","railway":"platform"}},{"type":"Feature","geometry":{"type":"Polygon","coordinates":[[[62.045968,56.7776754,0.0],[62.0459747,56.7776364,0.0],[62.0508811,56.7778913,0.0],[62.0536405,56.7780347,0.0],[62.0536338,56.7780736,0.0],[62.045968,56.7776754,0.0]]]},"properties":{"area":"yes","public_transport":"platform","railway":"platform"}},{"type":"Feature","geometry":{"type":"Polygon","coordinates":[[[62.0471672,56.7712217,0.0],[62.0471478,56.7711156,0.0],[62.0470511,56.771052,0.0],[62.0469221,56.7710909,0.0],[62.0468963,56.7711474,0.0],[62.0469479,56.7712181,0.0],[62.0469995,56.7713206,0.0],[62.0469737,56.7714408,0.0],[62.0469802,56.7715008,0.0],[62.0470447,56.7716316,0.0],[62.0471414,56.7717058,0.0],[62.0472446,56.7716952,0.0],[62.0473284,56.771621,0.0],[62.0473994,56.7715645,0.0],[62.0473929,56.7714867,0.0],[62.0473671,56.7714266,0.0],[62.0472446,56.7713913,0.0],[62.0471607,56.77131,0.0],[62.0471672,56.7712217,0.0]]]},"properties":{"natural":"wood"}},{"type":"Feature","geometry":{"type":"Polygon","coordinates":[[[62.0479817,56.7733262,0.0],[62.0470019,56.7732678,0.0],[62.046157,56.7732133,0.0],[62.046015,56.7731783,0.0],[62.0460292,56.7729799,0.0],[62.0460179,56.7729483,0.0],[62.045964,56.7729517,0.0],[62.0459376,56.7729723,0.0],[62.0459004,56.7731038,0.0],[62.0459004,56.7732283,0.0],[62.0460424,56.7732633,0.0],[62.0469867,56.7733178,0.0],[62.0479594,56.7733722,0.0],[62.0479967,56.7733644,0.0],[62.0480074,56.773345,0.0],[62.0479817,56.7733262,0.0]]]},"properties":{"natural":"wood"}},{"type":"Feature","geometry":{"type":"Point","coordinates":[62.0482182,56.7720235]},"properties":{"name":"Вольная борьба","leisure":"sports_centre"}},{"type":"Feature","geometry":{"type":"Polygon","coordinates":[[[62.0485929,56.7713239,0.0],[62.0485797,56.7714008,0.0],[62.0486379,56.7714519,0.0],[62.0487464,56.7714897,0.0],[62.0497806,56.7715355,0.0],[62.0498614,56.7715072,0.0],[62.0499258,56.7714584,0.0],[62.0499477,56.7713719,0.0],[62.0498838,56.7713141,0.0],[62.0497899,56.7712662,0.0],[62.0487683,56.7712254,0.0],[62.0486536,56.7712649,0.0],[62.0485929,56.7713239,0.0]]]},"properties":{"leisure":"track"}},{"type":"Feature","geometry":{"type":"Polygon","coordinates":[[[62.035956,56.7754215,0.0],[62.03611,56.7751261,0.0],[62.0364246,56.7745228,0.0],[62.038353,56.7742304,0.0],[62.0387616,56.7742475,0.0],[62.0403346,56.7743132,0.0],[62.0418301,56.7743757,0.0],[62.0415478,56.7762557,0.0],[62.0400609,56.7761865,0.0],[62.0383531,56.776107,0.0],[62.035956,56.7754215,0.0]]]},"properties":{"barrier":"fence","leisure":"park"}},{"type":"Feature","geometry":{"type":"Polygon","coordinates":[[[62.0488103,56.7709347,0.0],[62.0488316,56.7707415,0.0],[62.0493931,56.7707601,0.0],[62.0493719,56.7709532,0.0],[62.0488103,56.7709347,0.0]]]},"properties":{"leisure":"pitch","sport":"soccer"}},{"type":"Feature","geometry":{"type":"Polygon","coordinates":[[[62.04825,56.7715516,0.0],[62.0483002,56.7711473,0.0],[62.0485358,56.7711561,0.0],[62.0484857,56.7715603,0.0],[62.04825,56.7715516,0.0]]]},"properties":{"leisure":"pitch","sport":"athletics"}},{"type":"Feature","geometry":{"type":"Polygon","coordinates":[[[62.0294377,56.7734679,0.0],[62.0280118,56.7739634,0.0],[62.027404,56.77346,0.0],[62.0269114,56.7730667,0.0],[62.0268716,56.772932,0.0],[62.0275494,56.7726917,0.0],[62.0282549,56.7724374,0.0],[62.0288545,56.7729617,0.0],[62.029107,56.7731765,0.0],[62.0294377,56.7734679,0.0]]]},"properties":{"barrier":"fence","leisure":"garden"}},{"type":"Feature","geometry":{"type":"Polygon","coordinates":[[[62.0475297,56.7762199,0.0],[62.0485776,56.7762789,0.0],[62.0486362,56.7759669,0.0],[62.0475883,56.7759078,0.0],[62.0475297,56.7762199,0.0]]]},"properties":{"leisure":"playground"}},{"type":"Feature","geometry":{"type":"Polygon","coordinates":[[[62.0462383,56.7709998,0.0],[62.0465002,56.7708921,0.0],[62.046148,56.7706349,0.0],[62.0458861,56.7707425,0.0],[62.0462383,56.7709998,0.0]]]},"properties":{"leisure":"playground"}},{"type":"Feature","geometry":{"type":"Polygon","coordinates":[[[62.0473498,56.7707569,0.0],[62.0470317,56.7708736,0.0],[62.0464048,56.7703602,0.0],[62.046634,56.7702762,0.0],[62.0466957,56.7703267,0.0],[62.0467846,56.7702941,0.0],[62.0473498,56.7707569,0.0]]]},"properties":{"leisure":"playground"}},{"type":"Feature","geometry":{"type":"Point","coordinates":[62.0325217,56.7751222]},"properties":{"amenity":"cafe","name":"Диана"}},{"type":"Feature","geometry":{"type":"Point","coordinates":[62.0312254,56.7732498]},"properties":{"amenity":"fire_station","name":"59 отряд Федеральной противопожарной службы"}},{"type":"Feature","geometry":{"type":"Point","coordinates":[62.0352694,56.7749784]},"properties":{"fuel:octane_92":"yes","ref":"45","website":"https://www.gazprom-neft.ru/","fuel:octane_95":"yes","amenity":"fuel","fuel:octane_80":"yes","name":"Газпромнефть","opening_hours":"24/7","brand":"Газпром нефть","fuel:diesel":"yes","operator":"Газпром нефть"}},{"type":"Feature","geometry":{"type":"Point","coordinates":[62.0454368,56.774928]},"properties":{"contact:phone":"+7-34376-22587","amenity":"driving_school","name":"Партнер"}},{"type":"Feature","geometry":{"type":"Point","coordinates":[62.0454026,56.7743556]},"properties":{"ref":"623534","website":"https://russianpost.ru/","amenity":"post_office","addr:country":"RU","name":"Отделение почтовой связи \"Богданович-4\"","operator":"Почта России"}},{"type":"Feature","geometry":{"type":"Point","coordinates":[62.0453997,56.7720606]},"properties":{"amenity":"parking","fee":"no"}},{"type":"Feature","geometry":{"type":"Point","coordinates":[62.0466959,56.7729181]},"properties":{"amenity":"kindergarten","name":"Детский сад №18"}},{"type":"Feature","geometry":{"type":"Point","coordinates":[62.0306221,56.7803474]},"properties":{"amenity":"fuel"}},{"type":"Feature","geometry":{"type":"Point","coordinates":[62.0430711,56.7726754]},"properties":{"amenity":"kindergarten","name":"Детский сад №10 \"Сказка\""}},{"type":"Feature","geometry":{"type":"Point","coordinates":[62.0361087,56.7757707]},"properties":{"amenity":"car_wash"}},{"type":"Feature","geometry":{"type":"Point","coordinates":[62.0471056,56.7735816]},"properties":{"amenity":"atm","operator":"Сбербанк"}},{"type":"Feature","geometry":{"type":"Point","coordinates":[62.0471379,56.7736545]},"properties":{"amenity":"bank","atm":"yes","operator":"Сбербанк"}},{"type":"Feature","geometry":{"type":"Point","coordinates":[62.0454558,56.7732937]},"properties":{"amenity":"dentist","name":"Стоматология"}},{"type":"Feature","geometry":{"type":"Point","coordinates":[62.047233,56.771083]},"properties":{"amenity":"waste_disposal"}},{"type":"Feature","geometry":{"type":"Point","coordinates":[62.0462624,56.7740588]},"properties":{"amenity":"public_building","name":"Гороно"}},{"type":"Feature","geometry":{"type":"Point","coordinates":[62.046512,56.7816119]},"properties":{"amenity":"fuel","fuel:lpg":"yes","name":"АГЗС"}},{"type":"Feature","geometry":{"type":"Point","coordinates":[62.0409444,56.7721364]},"properties":{"amenity":"drinking_water"}},{"type":"Feature","geometry":{"type":"Point","coordinates":[62.0380092,56.7732291]},"properties":{"amenity":"drinking_water"}},{"type":"Feature","geometry":{"type":"Point","coordinates":[62.0347267,56.7744599]},"properties":{"amenity":"drinking_water"}},{"type":"Feature","geometry":{"type":"Point","coordinates":[62.0459596,56.7740432]},"properties":{"amenity":"water_point","name":"Вода"}},{"type":"Feature","geometry":{"type":"Point","coordinates":[62.0454609,56.774949]},"properties":{"addr:housenumber":"5","amenity":"driving_school","name":"Центр обучения \"Партнер\"","opening_hours":"Mo-Fr 09:00-18:00","description":"категория В, трактористы A1ВСDF, водители погрузчика BCD? экскаватор С","addr:street":"Октябрьская улица","addr:postcode":"623534","email":"partner771@yandex.ru, тел. 8 (34376) 5-04-54","addr:city":"Богданович"}},{"type":"Feature","geometry":{"type":"Polygon","coordinates":[[[62.0500386,56.7716645,0.0],[62.0481741,56.7715712,0.0],[62.0482158,56.7710859,0.0],[62.0482,56.7710452,0.0],[62.0481105,56.7708149,0.0],[62.0476861,56.7704516,0.0],[62.0477633,56.7704247,0.0],[62.0475185,56.7702181,0.0],[62.0472224,56.7699681,0.0],[62.0486932,56.7694173,0.0],[62.0490454,56.7692854,0.0],[62.0490992,56.7693297,0.0],[62.0495112,56.769669,0.0],[62.0499771,56.7700392,0.0],[62.0499519,56.7704139,0.0],[62.0500523,56.7704212,0.0],[62.0500611,56.7705245,0.0],[62.0502277,56.7705581,0.0],[62.0502146,56.7706903,0.0],[62.0501761,56.7711143,0.0],[62.0501233,56.7711134,0.0],[62.0501185,56.7711453,0.0],[62.0500386,56.7716645,0.0]]]},"properties":{"barrier":"fence","amenity":"school","name":"Школа №2"}},{"type":"Feature","geometry":{"type":"Polygon","coordinates":[[[62.0460461,56.7726594,0.0],[62.0460519,56.7726215,0.0],[62.0461434,56.7720246,0.0],[62.047558,56.7720897,0.0],[62.0474754,56.7726291,0.0],[62.0471197,56.7726127,0.0],[62.0471051,56.7727081,0.0],[62.0460461,56.7726594,0.0]]]},"properties":{"official_name":"Муниципальное дошкольное образовательное учреждение \"Детский сад №11\" общеразвивающего вида с приоритетным осуществлением физического развития воспитанников","barrier":"fence","amenity":"kindergarten","name":"Детский сад №11"}},{"type":"Feature","geometry":{"type":"Polygon","coordinates":[[[62.0467013,56.7747542,0.0],[62.046447,56.7747446,0.0],[62.0463242,56.7752034,0.0],[62.0459428,56.7752683,0.0],[62.0457893,56.7758377,0.0],[62.04696,56.7758713,0.0],[62.0471003,56.775177,0.0],[62.047017,56.775153,0.0],[62.0470477,56.7749272,0.0],[62.0471047,56.7748911,0.0],[62.0471047,56.7748383,0.0],[62.0469337,56.7748311,0.0],[62.046846,56.7747974,0.0],[62.0467013,56.7748022,0.0],[62.0467013,56.7747542,0.0]]]},"properties":{"barrier":"fence","amenity":"kindergarten","name":"Детский сад №45 \"Малыш\""}},{"type":"Feature","geometry":{"type":"Polygon","coordinates":[[[62.0482063,56.7733123,0.0],[62.0484419,56.772272,0.0],[62.0498433,56.772272,0.0],[62.0497725,56.7728172,0.0],[62.0497118,56.7732853,0.0],[62.0489915,56.7733286,0.0],[62.0483669,56.7733156,0.0],[62.0482063,56.7733123,0.0]]]},"properties":{"barrier":"fence","amenity":"kindergarten"}},{"type":"Feature","geometry":{"type":"Polygon","coordinates":[[[62.0485479,56.7735448,0.0],[62.0485429,56.7735757,0.0],[62.0496001,56.773627,0.0],[62.0496051,56.7735961,0.0],[62.0485479,56.7735448,0.0]]]},"properties":{"parking":"surface","supervised":"no","access":"yes","surface":"asphalt","amenity":"parking","lit":"no","fee":"no","opening_hours":"24/7"}},{"type":"Feature","geometry":{"type":"Polygon","coordinates":[[[62.0454562,56.7721914,0.0],[62.0453069,56.7721853,0.0],[62.0453413,56.7719313,0.0],[62.0454907,56.7719374,0.0],[62.0454562,56.7721914,0.0]]]},"properties":{"amenity":"parking"}},{"type":"Feature","geometry":{"type":"Polygon","coordinates":[[[62.0444359,56.7762908,0.0],[62.0445581,56.7762936,0.0],[62.0445678,56.7761638,0.0],[62.0444456,56.7761611,0.0],[62.0444359,56.7762908,0.0]]]},"properties":{"amenity":"parking"}},{"type":"Feature","geometry":{"type":"Polygon","coordinates":[[[62.036925,56.7761516,0.0],[62.0372787,56.7762098,0.0],[62.0373495,56.7760809,0.0],[62.0369958,56.7760226,0.0],[62.036925,56.7761516,0.0]]]},"properties":{"amenity":"parking"}},{"type":"Feature","geometry":{"type":"Polygon","coordinates":[[[62.047123,56.77347,0.0],[62.0471168,56.7735023,0.0],[62.0481753,56.7735633,0.0],[62.0481815,56.7735309,0.0],[62.047123,56.77347,0.0]]]},"properties":{"parking":"surface","supervised":"no","access":"yes","surface":"asphalt","amenity":"parking","lit":"no","fee":"no","opening_hours":"24/7"}},{"type":"Feature","geometry":{"type":"Polygon","coordinates":[[[62.0475519,56.7715659,0.0],[62.0475224,56.7717776,0.0],[62.0474178,56.7717599,0.0],[62.047348,56.7717291,0.0],[62.0473373,56.771685,0.0],[62.0473748,56.7716394,0.0],[62.0475519,56.7715659,0.0]]]},"properties":{"amenity":"parking"}},{"type":"Feature","geometry":{"type":"Polygon","coordinates":[[[62.046148,56.7706349,0.0],[62.0458861,56.7707425,0.0],[62.045671,56.7705854,0.0],[62.0459329,56.7704777,0.0],[62.046148,56.7706349,0.0]]]},"properties":{"amenity":"parking"}},{"type":"Feature","geometry":{"type":"Polygon","coordinates":[[[62.0462383,56.7709998,0.0],[62.0464052,56.7711217,0.0],[62.0466672,56.771014,0.0],[62.0465002,56.7708921,0.0],[62.0462383,56.7709998,0.0]]]},"properties":{"amenity":"parking"}},{"type":"Feature","geometry":{"type":"Polygon","coordinates":[[[62.0466242,56.7701627,0.0],[62.0467846,56.7702941,0.0],[62.0466957,56.7703267,0.0],[62.046634,56.7702762,0.0],[62.0465352,56.7701953,0.0],[62.0466242,56.7701627,0.0]]]},"properties":{"amenity":"parking"}},{"type":"Feature","geometry":{"type":"Polygon","coordinates":[[[62.0478187,56.7709964,0.0],[62.0477866,56.7709302,0.0],[62.0480709,56.7708487,0.0],[62.0481433,56.7710133,0.0],[62.0478187,56.7709964,0.0]]]},"properties":{"amenity":"parking"}},{"type":"Feature","geometry":{"type":"Point","coordinates":[62.0412946,56.7725379]},"properties":{"shop":"supermarket","name":"Пятёрочка","opening_hours":"9:00-23:00","operator":"Купец"}},{"type":"Feature","geometry":{"type":"Point","coordinates":[62.048037,56.7736977]},"properties":{"shop":"clothes","phone":"(34376)52280","second_hand":"no","name":"Имидж","opening_hours":"Mo-Fr 10:00-19:00; Sa,Su 10:00-18:00","organic":"yes"}},{"type":"Feature","geometry":{"type":"Point","coordinates":[62.0455518,56.7707602]},"properties":{"alt_name":"Перекресток","website":"https://www.perekrestok.ru/","shop":"convenience","addr:country":"RU","name":"Перекрёсток","operator":"X5 Retail Group"}},{"type":"Feature","geometry":{"type":"Point","coordinates":[62.0323154,56.7752057]},"properties":{"shop":"car_parts","name":"Автозапчасти"}},{"type":"Feature","geometry":{"type":"Point","coordinates":[62.0349396,56.7750517]},"properties":{"shop":"convenience","name":"Газпромнефть","operator":"Газпром нефть"}},{"type":"Feature","geometry":{"type":"Point","coordinates":[62.0451041,56.7753645]},"properties":{"shop":"alcohol","name":"Красное & Белое"}},{"type":"Feature","geometry":{"type":"Point","coordinates":[62.0369427,56.7762422]},"properties":{"shop":"convenience","name":"Рефтяночка","operator":"Рефтяночка"}},{"type":"Feature","geometry":{"type":"Point","coordinates":[62.0443627,56.7760941]},"properties":{"shop":"funeral_directors"}},{"type":"Feature","geometry":{"type":"Point","coordinates":[62.0462001,56.7704279]},"properties":{"shop":"jewelry","name":"Ломбард"}},{"type":"Feature","geometry":{"type":"Point","coordinates":[62.0470307,56.7701531]},"properties":{"shop":"convenience","name":"Рыбачок"}},{"type":"Feature","geometry":{"type":"Point","coordinates":[62.0466921,56.7736174]},"properties":{"shop":"clothes","name":"На горке"}},{"type":"Feature","geometry":{"type":"Point","coordinates":[62.0460164,56.773598]},"properties":{"shop":"hardware","name":"Сантехника"}},{"type":"Feature","geometry":{"type":"Point","coordinates":[62.0462526,56.7736091]},"properties":{"shop":"hardware","name":"Электроинструмент"}},{"type":"Feature","geometry":{"type":"Point","coordinates":[62.0299219,56.7711582]},"properties":{"shop":"supermarket","name":"Монетка"}},{"type":"Feature","geometry":{"type":"Point","coordinates":[62.045726,56.7720941]},"properties":{"shop":"convenience","name":"Монетка","operator":"Монетка"}},{"type":"Feature","geometry":{"type":"Point","coordinates":[62.039345,56.7737126]},"properties":{"service:bicycle:retail":"yes","shop":"sports","name":"Спорт техника"}},{"type":"Feature","geometry":{"type":"Point","coordinates":[62.0485515,56.7740642]},"properties":{"shop":"hardware","name":"Мастерок"}},{"type":"Feature","geometry":{"type":"Point","coordinates":[62.0486061,56.773708]},"properties":{"shop":"convenience","name":"Продукты","opening_hours":"8:00-22:00"}},{"type":"Feature","geometry":{"type":"Point","coordinates":[62.0478118,56.7740386]},"properties":{"shop":"convenience","name":"Продукты"}},{"type":"Feature","geometry":{"type":"Point","coordinates":[62.0483024,56.7740557]},"properties":{"shop":"butcher","name":"Свежее мясо"}},{"type":"Feature","geometry":{"type":"Point","coordinates":[62.0522774,56.7777943]},"properties":{"shop":"computer","name":"ЭВМ shop"}},{"type":"Feature","geometry":{"type":"Point","coordinates":[62.048804,56.7717632]},"properties":{"shop":"doityourself","name":"Сантехника"}},{"type":"Feature","geometry":{"type":"Point","coordinates":[62.0486388,56.7717557]},"properties":{"shop":"fabric","name":"Ткани"}},{"type":"Feature","geometry":{"type":"Point","coordinates":[62.0446917,56.7721786]},"properties":{"shop":"convenience","name":"Хлеб"}},{"type":"Feature","geometry":{"type":"Point","coordinates":[62.0445371,56.7732131]},"properties":{"shop":"convenience"}},{"type":"Feature","geometry":{"type":"Point","coordinates":[62.0374165,56.7726373]},"properties":{"shop":"convenience","name":"Теремок"}},{"type":"Feature","geometry":{"type":"Point","coordinates":[62.0375356,56.7727703]},"properties":{"shop":"car_parts"}},{"type":"Feature","geometry":{"type":"Point","coordinates":[62.0429037,56.773948]},"properties":{"shop":"furniture"}},{"type":"Feature","geometry":{"type":"Point","coordinates":[62.0476988,56.7736791]},"properties":{"shop":"electronics","name":"Диско рай"}},{"type":"Feature","geometry":{"type":"Point","coordinates":[62.0474378,56.773665]},"properties":{"shop":"chemist","name":"Камея"}},{"type":"Feature","geometry":{"type":"Point","coordinates":[62.0310148,56.7715022]},"properties":{"shop":"alcohol","name":"Краное & Белое"}},{"type":"Feature","geometry":{"type":"Point","coordinates":[62.0364569,56.7758112]},"properties":{"shop":"car_parts"}},{"type":"Feature","geometry":{"type":"Point","coordinates":[62.0450918,56.7752751]},"properties":{"addr:housenumber":"3","shop":"convenience","name":"Выгодный","addr:street":"Октябрьская улица"}},{"type":"Feature","geometry":{"type":"Point","coordinates":[62.0443614,56.7734733]},"properties":{"shop":"butcher","name":"Свинокомплекс Уральский"}},{"type":"Feature","geometry":{"type":"Point","coordinates":[62.0445196,56.7734796]},"properties":{"shop":"butcher","name":"Кабанчик"}},{"type":"Feature","geometry":{"type":"Point","coordinates":[62.0464557,56.7736244]},"properties":{"shop":"convenience","name":"Магнит","name:en":"Magnit","addr:postcode":"623530"}},{"type":"Feature","geometry":{"type":"Point","coordinates":[62.0469609,56.7739675]},"properties":{"shop":"convenience","name":"Фруктовый рай"}},{"type":"Feature","geometry":{"type":"Point","coordinates":[62.045658,56.772137]},"properties":{"contact:phone":"+7 800 7707999","shop":"electronics","name":"DNS","opening_hours":"Mo-Su 10:00-21:00","contact:website":"http://dns-shop.ru/","operator":"ДНС Ритейл"}}]}