{"type":"FeatureCollection","features":[{"type":"Feature","geometry":{"type":"Polygon","coordinates":[[[46.8844821,50.0434414,0.0],[46.8804813,50.0442684,0.0],[46.8793326,50.0446662,0.0],[46.8801285,50.0458293,0.0],[46.8817783,50.0455001,0.0],[46.8835957,50.0451284,0.0],[46.8833568,50.0447467,0.0],[46.8849027,50.044321,0.0],[46.8844821,50.0434414,0.0]]]},"properties":{"barrier":"fence","landuse":"industrial"}},{"type":"Feature","geometry":{"type":"Point","coordinates":[46.877037,50.0499725]},"properties":{"addr:housenumber":"1","name":"МДОУ Детский сад №1 \"Родничок\"","building:levels":"2","fire_rank":"2","addr:street":"улица Кирова","building":"yes","operator":"ПСЧ-63","addr:city":"Палласовка"}},{"type":"Feature","geometry":{"type":"Point","coordinates":[46.8825111,50.0472717]},"properties":{"addr:housenumber":"57","name":"МКОУ Детский сад №3 \"Ромашка\"","building:levels":"2","fire_rank":"2","addr:street":"улица Дзержинского","building":"yes","operator":"ПСЧ-63","addr:city":"Палласовка"}},{"type":"Feature","geometry":{"type":"Point","coordinates":[46.8808899,50.0480385]},"properties":{"addr:housenumber":"1","name":"районный дом культуры","building:levels":"2","fire_rank":"2","addr:street":"Красноармейская улица","building":"yes","operator":"ПСЧ-63","addr:city":"Палласовка"}},{"type":"Feature","geometry":{"type":"Polygon","coordinates":[[[46.8809462,50.0504318,0.0],[46.8809691,50.050536,0.0],[46.8819533,50.0504469,0.0],[46.8819304,50.0503427,0.0],[46.8809462,50.0504318,0.0]]]},"properties":{"addr:housenumber":"1","building:levels":"5","addr:street":"улица Ильича","building":"apartments"}},{"type":"Feature","geometry":{"type":"Polygon","coordinates":[[[46.8767733,50.0500098,0.0],[46.8773848,50.0499835,0.0],[46.8773755,50.049895,0.0],[46.876764,50.0499214,0.0],[46.8767733,50.0500098,0.0]]]},"properties":{"addr:housenumber":"1","addr:street":"улица Кирова","addr:postcode":"404264","building":"kindergarten"}},{"type":"Feature","geometry":{"type":"Polygon","coordinates":[[[46.8811777,50.0480768,0.0],[46.8811362,50.0479919,0.0],[46.8817622,50.0478658,0.0],[46.8818337,50.0480122,0.0],[46.8814217,50.0480952,0.0],[46.8813916,50.0480337,0.0],[46.8811777,50.0480768,0.0]]]},"properties":{"name":"Детская спортивная школа","building:levels":"2","leisure":"sports_centre","building":"yes"}},{"type":"Feature","geometry":{"type":"Polygon","coordinates":[[[46.8807344,50.0482463,0.0],[46.8805593,50.0478999,0.0],[46.8809815,50.0478119,0.0],[46.8811566,50.0481583,0.0],[46.8807344,50.0482463,0.0]]]},"properties":{"addr:housenumber":"1","amenity":"theatre","name":"Городской Дом Культуры","building:levels":"3","addr:street":"Красноармейская улица","building":"yes"}},{"type":"Feature","geometry":{"type":"Polygon","coordinates":[[[46.8785798,50.0501215,0.0],[46.8787464,50.0497757,0.0],[46.8787629,50.049779,0.0],[46.8792591,50.0498775,0.0],[46.8791623,50.0500786,0.0],[46.8788509,50.0500168,0.0],[46.8787811,50.0501615,0.0],[46.8785798,50.0501215,0.0]]]},"properties":{"addr:housenumber":"79","building:levels":"1","addr:street":"Береговая улица","building":"yes","addr:city":"Палласовка"}},{"type":"Feature","geometry":{"type":"Polygon","coordinates":[[[46.8798839,50.0503056,0.0],[46.8798617,50.0502248,0.0],[46.8799361,50.0502164,0.0],[46.8798947,50.0500663,0.0],[46.8798312,50.0500735,0.0],[46.8798135,50.0500094,0.0],[46.8800474,50.0499829,0.0],[46.8801285,50.0502778,0.0],[46.8798839,50.0503056,0.0]]]},"properties":{"addr:housenumber":"1","building:levels":"3","addr:street":"Коммунистическая улица","building":"yes","addr:city":"Палласовка"}},{"type":"Feature","geometry":{"type":"Polygon","coordinates":[[[46.8776737,50.0498624,0.0],[46.877787,50.0497143,0.0],[46.877841,50.0497314,0.0],[46.8778842,50.0496749,0.0],[46.8777229,50.049624,0.0],[46.8777618,50.0495732,0.0],[46.8777138,50.049558,0.0],[46.8777488,50.0495123,0.0],[46.8782541,50.0496717,0.0],[46.8782181,50.0497187,0.0],[46.8781858,50.0497085,0.0],[46.8781665,50.0497337,0.0],[46.8781498,50.0497284,0.0],[46.8781261,50.0497593,0.0],[46.8779867,50.0497153,0.0],[46.8779447,50.0497701,0.0],[46.8779845,50.0497827,0.0],[46.8778749,50.0499259,0.0],[46.8776737,50.0498624,0.0]]]},"properties":{"addr:housenumber":"77","name":"Дом юстиции","building:levels":"2","addr:street":"Береговая улица","building":"public","addr:city":"Палласовка"}},{"type":"Feature","geometry":{"type":"Polygon","coordinates":[[[46.8783691,50.0446821,0.0],[46.8782964,50.0444979,0.0],[46.8785436,50.0444577,0.0],[46.8787904,50.0444175,0.0],[46.878866,50.0446091,0.0],[46.8787004,50.044636,0.0],[46.8786696,50.0445579,0.0],[46.8784786,50.044589,0.0],[46.8785066,50.0446598,0.0],[46.8783691,50.0446821,0.0]]]},"properties":{"addr:housenumber":"6","building:levels":"2","addr:street":"Красноармейская улица","addr:postcode":"404264","building":"school"}},{"type":"Feature","geometry":{"type":"Polygon","coordinates":[[[46.882177,50.0481571,0.0],[46.8821124,50.048047,0.0],[46.8822553,50.0480124,0.0],[46.8823198,50.0481226,0.0],[46.882177,50.0481571,0.0]]]},"properties":{"addr:housenumber":"1А","addr:street":"улица Крупской","building":"house"}},{"type":"Feature","geometry":{"type":"Polygon","coordinates":[[[46.8809398,50.044813,0.0],[46.8807359,50.0444892,0.0],[46.8814118,50.0443169,0.0],[46.881605,50.0446545,0.0],[46.8809398,50.044813,0.0]]]},"properties":{"shop":"doityourself","name":"Хозтовары","building":"yes"}},{"type":"Feature","geometry":{"type":"Polygon","coordinates":[[[46.8808996,50.0510003,0.0],[46.8808315,50.050653,0.0],[46.8810148,50.0506382,0.0],[46.8810829,50.0509855,0.0],[46.8808996,50.0510003,0.0]]]},"properties":{"addr:housenumber":"4","amenity":"townhall","name":"Администрация Палласовского района","addr:street":"Коммунистическая улица","building":"yes"}},{"type":"Feature","geometry":{"type":"Polygon","coordinates":[[[46.8803038,50.0522235,0.0],[46.8801234,50.0512695,0.0],[46.8803234,50.0512539,0.0],[46.8805038,50.052208,0.0],[46.8803038,50.0522235,0.0]]]},"properties":{"addr:housenumber":"5","building:levels":"5","addr:street":"Коммунистическая улица","building":"apartments"}},{"type":"Feature","geometry":{"type":"Polygon","coordinates":[[[46.8791554,50.050767,0.0],[46.8791297,50.0505246,0.0],[46.8793267,50.050516,0.0],[46.8793524,50.0507584,0.0],[46.8791554,50.050767,0.0]]]},"properties":{"addr:housenumber":"19","building:levels":"2","addr:street":"Стахановская улица","building":"yes","addr:city":"Палласовка"}},{"type":"Feature","geometry":{"type":"Polygon","coordinates":[[[46.8800736,50.0511061,0.0],[46.8799336,50.0504639,0.0],[46.8801571,50.0504438,0.0],[46.8802971,50.051086,0.0],[46.8800736,50.0511061,0.0]]]},"properties":{"addr:housenumber":"3","building:levels":"5","addr:street":"Коммунистическая улица","building":"apartments"}},{"type":"Feature","geometry":{"type":"Polygon","coordinates":[[[46.8809561,50.0512406,0.0],[46.8809376,50.0511837,0.0],[46.880888,50.0511903,0.0],[46.8808751,50.0511506,0.0],[46.8809292,50.0511434,0.0],[46.8809081,50.0510786,0.0],[46.8810973,50.0510533,0.0],[46.8811046,50.0510756,0.0],[46.8813815,50.0510384,0.0],[46.8814178,50.0511502,0.0],[46.8811444,50.0511869,0.0],[46.8811533,50.0512142,0.0],[46.8809561,50.0512406,0.0]]]},"properties":{"name":"Многофункциональный центр","building:levels":"1","addr:street":"Коммунистическая улица","building":"office"}},{"type":"Feature","geometry":{"type":"Polygon","coordinates":[[[46.8836783,50.0517513,0.0],[46.8834122,50.0514295,0.0],[46.8835714,50.0513753,0.0],[46.8838375,50.0516971,0.0],[46.8836783,50.0517513,0.0]]]},"properties":{"addr:housenumber":"5","addr:street":"Комсомольская улица","building":"apartments"}},{"type":"Feature","geometry":{"type":"Polygon","coordinates":[[[46.8825305,50.0475009,0.0],[46.8823018,50.04713,0.0],[46.8825107,50.0470769,0.0],[46.8827394,50.0474478,0.0],[46.8825305,50.0475009,0.0]]]},"properties":{"addr:housenumber":"57","building:levels":"2","addr:street":"улица Дзержинского","building":"yes"}},{"type":"Feature","geometry":{"type":"Polygon","coordinates":[[[46.8782464,50.0516697,0.0],[46.8781813,50.0512423,0.0],[46.8783544,50.0512314,0.0],[46.8784195,50.0516588,0.0],[46.8782464,50.0516697,0.0]]]},"properties":{"building:levels":"5","building":"apartments"}},{"type":"Feature","geometry":{"type":"Polygon","coordinates":[[[46.8749843,50.0505827,0.0],[46.8749795,50.0504836,0.0],[46.8751552,50.0504801,0.0],[46.87516,50.0505792,0.0],[46.8749843,50.0505827,0.0]]]},"properties":{"addr:housenumber":"157","building:levels":"1","addr:street":"Юбилейная улица","building":"yes"}},{"type":"Feature","geometry":{"type":"Polygon","coordinates":[[[46.8750206,50.0507058,0.0],[46.8750187,50.0506579,0.0],[46.875177,50.0506553,0.0],[46.8751789,50.0507032,0.0],[46.8750206,50.0507058,0.0]]]},"properties":{"building:levels":"1","building":"garage"}},{"type":"Feature","geometry":{"type":"Polygon","coordinates":[[[46.8748513,50.0489706,0.0],[46.8748353,50.0487384,0.0],[46.8750245,50.0487331,0.0],[46.8750405,50.0489652,0.0],[46.8748513,50.0489706,0.0]]]},"properties":{"building:levels":"2","addr:street":"Юбилейная улица","source":"Bing","building":"yes"}},{"type":"Feature","geometry":{"type":"Polygon","coordinates":[[[46.8839152,50.0498616,0.0],[46.8840956,50.0500743,0.0],[46.8842765,50.050011,0.0],[46.8840961,50.0497983,0.0],[46.8839152,50.0498616,0.0]]]},"properties":{"addr:housenumber":"4","name":"Пенсионный фонд, собес","building:levels":"2","addr:street":"Первомайская улица","building":"office"}},{"type":"Feature","geometry":{"type":"Polygon","coordinates":[[[46.8847943,50.0510069,0.0],[46.8845502,50.0507028,0.0],[46.8847224,50.0506457,0.0],[46.8849518,50.0509314,0.0],[46.8850869,50.0508867,0.0],[46.8852724,50.0511177,0.0],[46.8850749,50.051183,0.0],[46.8849042,50.0509705,0.0],[46.8847943,50.0510069,0.0]]]},"properties":{"addr:housenumber":"8А","building:levels":"2","addr:street":"Первомайская улица","building":"apartments"}},{"type":"Feature","geometry":{"type":"Polygon","coordinates":[[[46.8848092,50.049652,0.0],[46.8847078,50.0495131,0.0],[46.8848795,50.0494614,0.0],[46.884978,50.0496003,0.0],[46.8848092,50.049652,0.0]]]},"properties":{"addr:housenumber":"5","name":"Центр занятости","building:levels":"1","addr:street":"улица Ильича","building":"office"}},{"type":"Feature","geometry":{"type":"Polygon","coordinates":[[[46.8844418,50.0504891,0.0],[46.8842853,50.0503142,0.0],[46.8848098,50.0501208,0.0],[46.8849663,50.0502957,0.0],[46.8844418,50.0504891,0.0]]]},"properties":{"shop":"yes","amenity":"shop","name":"Астра","building:levels":"2","addr:street":"Первомайская улица","building":"yes"}},{"type":"Feature","geometry":{"type":"Polygon","coordinates":[[[46.8824388,50.050846,0.0],[46.8824094,50.0507585,0.0],[46.8826025,50.0507309,0.0],[46.8826319,50.0508185,0.0],[46.8824388,50.050846,0.0]]]},"properties":{"building":"yes"}},{"type":"Feature","geometry":{"type":"Polygon","coordinates":[[[46.8833564,50.0513021,0.0],[46.8832062,50.0511126,0.0],[46.8833245,50.0510751,0.0],[46.8834717,50.0512659,0.0],[46.8833564,50.0513021,0.0]]]},"properties":{"addr:housenumber":"1А","addr:street":"Комсомольская улица","building":"apartments"}},{"type":"Feature","geometry":{"type":"Polygon","coordinates":[[[46.8840258,50.0509302,0.0],[46.8837529,50.050592,0.0],[46.8839329,50.0505321,0.0],[46.8842058,50.0508703,0.0],[46.8840258,50.0509302,0.0]]]},"properties":{"addr:housenumber":"1","building:levels":"2","addr:street":"Первомайская улица","building":"apartments"}},{"type":"Feature","geometry":{"type":"Polygon","coordinates":[[[46.882607,50.0512293,0.0],[46.8825583,50.0511086,0.0],[46.8830009,50.0510349,0.0],[46.8830497,50.0511556,0.0],[46.882607,50.0512293,0.0]]]},"properties":{"addr:housenumber":"22","building:levels":"2","addr:street":"Комсомольская улица","building":"yes"}},{"type":"Feature","geometry":{"type":"Polygon","coordinates":[[[46.8839715,50.0512286,0.0],[46.8838875,50.0511357,0.0],[46.8843073,50.0509792,0.0],[46.8843913,50.0510721,0.0],[46.8839715,50.0512286,0.0]]]},"properties":{"addr:housenumber":"28","building:levels":"2","addr:street":"Первомайская улица","building":"apartments"}},{"type":"Feature","geometry":{"type":"Polygon","coordinates":[[[46.8822103,50.0504315,0.0],[46.8821532,50.0502927,0.0],[46.8824526,50.0502419,0.0],[46.8824881,50.0503281,0.0],[46.8822637,50.0503662,0.0],[46.8822854,50.0504187,0.0],[46.8822103,50.0504315,0.0]]]},"properties":{"building:levels":"2","building":"apartments"}},{"type":"Feature","geometry":{"type":"Polygon","coordinates":[[[46.8845518,50.0515067,0.0],[46.8843294,50.0512391,0.0],[46.8845035,50.0511794,0.0],[46.8847259,50.0514471,0.0],[46.8845518,50.0515067,0.0]]]},"properties":{"addr:housenumber":"29","building:levels":"2","addr:street":"Первомайская улица","building":"apartments"}},{"type":"Feature","geometry":{"type":"Polygon","coordinates":[[[46.8816287,50.0513885,0.0],[46.8815778,50.0512765,0.0],[46.8820498,50.051187,0.0],[46.882097,50.0513056,0.0],[46.8816287,50.0513885,0.0]]]},"properties":{"addr:housenumber":"21","building:levels":"2","addr:street":"Комсомольская улица","building":"yes"}},{"type":"Feature","geometry":{"type":"Polygon","coordinates":[[[46.8830606,50.0501145,0.0],[46.8830235,50.0500185,0.0],[46.8833795,50.0499618,0.0],[46.8834166,50.0500579,0.0],[46.8830606,50.0501145,0.0]]]},"properties":{"addr:housenumber":"1","building:levels":"2","addr:street":"улица Ильича","building":"apartments"}},{"type":"Feature","geometry":{"type":"Polygon","coordinates":[[[46.8836688,50.0504698,0.0],[46.8835001,50.0502674,0.0],[46.8836704,50.0502089,0.0],[46.8838391,50.0504112,0.0],[46.8836688,50.0504698,0.0]]]},"properties":{"addr:housenumber":"16","amenity":"townhall","name":"Администрация г.Палласовка","building:levels":"2","addr:street":"Первомайская улица","building":"yes"}},{"type":"Feature","geometry":{"type":"Polygon","coordinates":[[[46.8833463,50.0505809,0.0],[46.8831965,50.0503898,0.0],[46.8833411,50.050343,0.0],[46.8834909,50.0505342,0.0],[46.8833463,50.0505809,0.0]]]},"properties":{"building:levels":"2","building":"yes"}},{"type":"Feature","geometry":{"type":"Polygon","coordinates":[[[46.8820876,50.0500509,0.0],[46.8819925,50.0497474,0.0],[46.8822,50.0497206,0.0],[46.8822951,50.0500241,0.0],[46.8820876,50.0500509,0.0]]]},"properties":{"building:levels":"2","building":"yes"}},{"type":"Feature","geometry":{"type":"Polygon","coordinates":[[[46.8825604,50.0496267,0.0],[46.8824508,50.0495,0.0],[46.8828986,50.0493401,0.0],[46.8830083,50.0494668,0.0],[46.8825604,50.0496267,0.0]]]},"properties":{"building:levels":"3","addr:street":"Первомайская улица","building":"yes"}},{"type":"Feature","geometry":{"type":"Polygon","coordinates":[[[46.882086,50.0453737,0.0],[46.882027,50.0452463,0.0],[46.8824454,50.0451739,0.0],[46.8824937,50.0453014,0.0],[46.882086,50.0453737,0.0]]]},"properties":{"name":"Налоговая инспекция","addr:street":"улица Будённого","building":"yes"}},{"type":"Feature","geometry":{"type":"Polygon","coordinates":[[[46.8838941,50.0450421,0.0],[46.8838459,50.0449557,0.0],[46.8841718,50.0448807,0.0],[46.88422,50.0449672,0.0],[46.8838941,50.0450421,0.0]]]},"properties":{"addr:housenumber":"29","building:levels":"2","addr:street":"улица Будённого","building":"apartments"}},{"type":"Feature","geometry":{"type":"Polygon","coordinates":[[[46.8831543,50.0451931,0.0],[46.8830476,50.0449941,0.0],[46.8833022,50.0449378,0.0],[46.883409,50.0451367,0.0],[46.8831543,50.0451931,0.0]]]},"properties":{"name":"НГЧ","building:levels":"2","addr:street":"улица Будённого","building":"yes"}},{"type":"Feature","geometry":{"type":"Polygon","coordinates":[[[46.8748486,50.0482351,0.0],[46.8748376,50.0480874,0.0],[46.8750052,50.0480823,0.0],[46.8750162,50.04823,0.0],[46.8748486,50.0482351,0.0]]]},"properties":{"addr:housenumber":"135","building:levels":"2","addr:street":"Юбилейная улица","building":"yes"}},{"type":"Feature","geometry":{"type":"Polygon","coordinates":[[[46.8823151,50.0517974,0.0],[46.882444,50.0517726,0.0],[46.882419,50.051719,0.0],[46.8826345,50.0516775,0.0],[46.8826637,50.0517399,0.0],[46.8828209,50.0517097,0.0],[46.8827869,50.0516369,0.0],[46.8828054,50.0516334,0.0],[46.8828265,50.0516786,0.0],[46.8830756,50.0516307,0.0],[46.8830876,50.0516565,0.0],[46.8832612,50.0516231,0.0],[46.8831745,50.0514373,0.0],[46.8830022,50.0514704,0.0],[46.8830141,50.0514959,0.0],[46.8829255,50.051513,0.0],[46.8829489,50.0515633,0.0],[46.8827665,50.0515984,0.0],[46.8827442,50.0515507,0.0],[46.8822448,50.0516468,0.0],[46.8823151,50.0517974,0.0]]]},"properties":{"addr:housenumber":"10","website":"http://shcola17.ucoz.com/","building:levels":"2","addr:street":"Коммунистическая улица","building":"school"}},{"type":"Feature","geometry":{"type":"Polygon","coordinates":[[[46.8749025,50.045576,0.0],[46.8750246,50.0455718,0.0],[46.8750164,50.0454737,0.0],[46.8748943,50.0454779,0.0],[46.8749025,50.045576,0.0]]]},"properties":{"building:levels":"1","source":"Bing","building":"house"}},{"type":"Feature","geometry":{"type":"Polygon","coordinates":[[[46.8753783,50.0465155,0.0],[46.8754911,50.0465105,0.0],[46.8754856,50.0464589,0.0],[46.8753728,50.0464639,0.0],[46.8753783,50.0465155,0.0]]]},"properties":{"addr:housenumber":"45","building:levels":"1","addr:street":"Береговая улица","building":"house"}},{"type":"Feature","geometry":{"type":"Polygon","coordinates":[[[46.8753967,50.0464127,0.0],[46.875532,50.0464064,0.0],[46.8755233,50.0463293,0.0],[46.8753486,50.0463374,0.0],[46.8753518,50.0463653,0.0],[46.8753912,50.0463635,0.0],[46.8753967,50.0464127,0.0]]]},"properties":{"addr:housenumber":"43","building:levels":"1","addr:street":"Береговая улица","building":"house"}},{"type":"Feature","geometry":{"type":"Polygon","coordinates":[[[46.8751391,50.0465729,0.0],[46.8752745,50.0465729,0.0],[46.8752745,50.0464963,0.0],[46.8751391,50.0464963,0.0],[46.8751391,50.0465729,0.0]]]},"properties":{"building:levels":"1","building":"house"}},{"type":"Feature","geometry":{"type":"Polygon","coordinates":[[[46.875021,50.046182,0.0],[46.8752249,50.0461742,0.0],[46.8752195,50.0461165,0.0],[46.8750157,50.0461243,0.0],[46.875021,50.046182,0.0]]]},"properties":{"building:levels":"1","building":"house"}},{"type":"Feature","geometry":{"type":"Polygon","coordinates":[[[46.8750964,50.0463094,0.0],[46.8752479,50.0463044,0.0],[46.8752436,50.0462494,0.0],[46.875092,50.0462543,0.0],[46.8750964,50.0463094,0.0]]]},"properties":{"building:levels":"1","building":"house"}},{"type":"Feature","geometry":{"type":"Polygon","coordinates":[[[46.8746897,50.0467876,0.0],[46.8749848,50.0467813,0.0],[46.874983,50.0467455,0.0],[46.8749167,50.0467469,0.0],[46.8749146,50.0467064,0.0],[46.8747866,50.0467092,0.0],[46.8747881,50.0467377,0.0],[46.8746872,50.0467399,0.0],[46.8746897,50.0467876,0.0]]]},"properties":{"building:levels":"1","addr:street":"Юбилейная улица","building":"yes"}},{"type":"Feature","geometry":{"type":"Polygon","coordinates":[[[46.8750684,50.0467787,0.0],[46.8752875,50.0467758,0.0],[46.8752849,50.0466911,0.0],[46.8751793,50.0466925,0.0],[46.87518,50.0467153,0.0],[46.8750665,50.0467168,0.0],[46.8750684,50.0467787,0.0]]]},"properties":{"building:levels":"1","building":"house"}},{"type":"Feature","geometry":{"type":"Polygon","coordinates":[[[46.8755384,50.0466591,0.0],[46.8756349,50.0466563,0.0],[46.8756312,50.0466046,0.0],[46.8755348,50.0466074,0.0],[46.8755384,50.0466591,0.0]]]},"properties":{"addr:housenumber":"47","building:levels":"1","addr:street":"Береговая улица","building":"house"}},{"type":"Feature","geometry":{"type":"Polygon","coordinates":[[[46.8747565,50.047661,0.0],[46.8748946,50.0476546,0.0],[46.8748856,50.0475745,0.0],[46.8747476,50.0475809,0.0],[46.8747565,50.047661,0.0]]]},"properties":{"addr:housenumber":"129","building:levels":"1","addr:street":"Юбилейная улица","building":"house"}},{"type":"Feature","geometry":{"type":"Polygon","coordinates":[[[46.8747345,50.0475202,0.0],[46.8748577,50.0475175,0.0],[46.8748551,50.0474701,0.0],[46.8747319,50.0474728,0.0],[46.8747345,50.0475202,0.0]]]},"properties":{"addr:housenumber":"127","building:levels":"1","addr:street":"Юбилейная улица","building":"house"}},{"type":"Feature","geometry":{"type":"Polygon","coordinates":[[[46.8747133,50.0470321,0.0],[46.8748736,50.0470301,0.0],[46.8748728,50.047002,0.0],[46.8749124,50.0470015,0.0],[46.8749111,50.0469605,0.0],[46.8748805,50.0469608,0.0],[46.8748795,50.0469286,0.0],[46.8749557,50.0469276,0.0],[46.8749544,50.0468855,0.0],[46.8752937,50.0468812,0.0],[46.875292,50.0468278,0.0],[46.8747073,50.0468351,0.0],[46.8747133,50.0470321,0.0]]]},"properties":{"building:levels":"1","building":"yes"}},{"type":"Feature","geometry":{"type":"Polygon","coordinates":[[[46.8752326,50.047459,0.0],[46.8753513,50.0474553,0.0],[46.8753437,50.0473562,0.0],[46.875225,50.04736,0.0],[46.8752326,50.047459,0.0]]]},"properties":{"building:levels":"1","building":"house"}},{"type":"Feature","geometry":{"type":"Polygon","coordinates":[[[46.8750354,50.047661,0.0],[46.8751736,50.0476534,0.0],[46.8751612,50.0475596,0.0],[46.875023,50.0475672,0.0],[46.8750354,50.047661,0.0]]]},"properties":{"building:levels":"1","building":"house"}},{"type":"Feature","geometry":{"type":"Polygon","coordinates":[[[46.8752122,50.0476506,0.0],[46.8753732,50.047645,0.0],[46.8753684,50.0475883,0.0],[46.8752074,50.0475938,0.0],[46.8752122,50.0476506,0.0]]]},"properties":{"building:levels":"1","building":"house"}},{"type":"Feature","geometry":{"type":"Polygon","coordinates":[[[46.8747816,50.0479317,0.0],[46.8749744,50.0479269,0.0],[46.8749699,50.0478519,0.0],[46.874777,50.0478568,0.0],[46.8747816,50.0479317,0.0]]]},"properties":{"addr:housenumber":"131","building:levels":"1","addr:street":"Юбилейная улица","building":"house"}},{"type":"Feature","geometry":{"type":"Polygon","coordinates":[[[46.8748788,50.0492501,0.0],[46.8750629,50.0492457,0.0],[46.8750646,50.0492757,0.0],[46.8752345,50.0492717,0.0],[46.8752283,50.0491634,0.0],[46.8750118,50.0491685,0.0],[46.8750014,50.0489872,0.0],[46.8748639,50.0489905,0.0],[46.8748788,50.0492501,0.0]]]},"properties":{"building:levels":"1","building":"yes"}},{"type":"Feature","geometry":{"type":"Polygon","coordinates":[[[46.8747967,50.0480508,0.0],[46.8749534,50.0480477,0.0],[46.8749505,50.04799,0.0],[46.8747939,50.0479931,0.0],[46.8747967,50.0480508,0.0]]]},"properties":{"addr:housenumber":"133","building:levels":"1","addr:street":"Юбилейная улица","building":"house"}},{"type":"Feature","geometry":{"type":"Polygon","coordinates":[[[46.874811,50.0483812,0.0],[46.874918,50.0483764,0.0],[46.874911,50.0483117,0.0],[46.874804,50.0483165,0.0],[46.874811,50.0483812,0.0]]]},"properties":{"building:levels":"1","building":"house"}},{"type":"Feature","geometry":{"type":"Polygon","coordinates":[[[46.8755327,50.0468975,0.0],[46.8756977,50.0468925,0.0],[46.8756927,50.0468244,0.0],[46.8755911,50.0468275,0.0],[46.8755929,50.046851,0.0],[46.8755294,50.0468529,0.0],[46.8755327,50.0468975,0.0]]]},"properties":{"addr:housenumber":"49","building:levels":"1","addr:street":"Береговая улица","source":"Bing","building":"house"}},{"type":"Feature","geometry":{"type":"Polygon","coordinates":[[[46.8757047,50.0476366,0.0],[46.8758176,50.0476348,0.0],[46.8758124,50.0475004,0.0],[46.8756996,50.0475022,0.0],[46.8757047,50.0476366,0.0]]]},"properties":{"addr:housenumber":"59","building:levels":"1","addr:street":"Береговая улица","source":"Bing","building":"house"}},{"type":"Feature","geometry":{"type":"Polygon","coordinates":[[[46.8756746,50.0473252,0.0],[46.8757871,50.047319,0.0],[46.8757781,50.0472517,0.0],[46.8756656,50.047258,0.0],[46.8756746,50.0473252,0.0]]]},"properties":{"addr:housenumber":"55","building:levels":"1","addr:street":"Береговая улица","source":"Bing","building":"house"}},{"type":"Feature","geometry":{"type":"Polygon","coordinates":[[[46.8755615,50.0470448,0.0],[46.8757329,50.047031,0.0],[46.8757225,50.0469775,0.0],[46.8755511,50.0469913,0.0],[46.8755615,50.0470448,0.0]]]},"properties":{"addr:housenumber":"51","building:levels":"1","addr:street":"Береговая улица","building":"house"}},{"type":"Feature","geometry":{"type":"Polygon","coordinates":[[[46.875603,50.0472299,0.0],[46.8757763,50.0472218,0.0],[46.8757675,50.0471435,0.0],[46.8755941,50.0471516,0.0],[46.875603,50.0472299,0.0]]]},"properties":{"addr:housenumber":"53","building:levels":"1","addr:street":"Береговая улица","building":"house"}},{"type":"Feature","geometry":{"type":"Polygon","coordinates":[[[46.8755616,50.0474149,0.0],[46.8758014,50.0474058,0.0],[46.8757944,50.0473308,0.0],[46.8755546,50.0473399,0.0],[46.8755616,50.0474149,0.0]]]},"properties":{"addr:housenumber":"57","building:levels":"1","addr:street":"Береговая улица","source":"Bing","building":"house"}},{"type":"Feature","geometry":{"type":"Polygon","coordinates":[[[46.8752045,50.0472385,0.0],[46.8753463,50.047234,0.0],[46.8753426,50.0471856,0.0],[46.8752008,50.04719,0.0],[46.8752045,50.0472385,0.0]]]},"properties":{"building:levels":"1","building":"house"}},{"type":"Feature","geometry":{"type":"Polygon","coordinates":[[[46.8750659,50.0472285,0.0],[46.8751627,50.0472263,0.0],[46.8751583,50.047147,0.0],[46.8750614,50.0471493,0.0],[46.8750659,50.0472285,0.0]]]},"properties":{"addr:housenumber":"123А","building:levels":"1","addr:street":"Юбилейная улица","building":"house"}},{"type":"Feature","geometry":{"type":"Polygon","coordinates":[[[46.8752096,50.0471347,0.0],[46.8753181,50.0471331,0.0],[46.8753153,50.0470531,0.0],[46.8752067,50.0470547,0.0],[46.8752096,50.0471347,0.0]]]},"properties":{"building:levels":"1","building":"house"}},{"type":"Feature","geometry":{"type":"Polygon","coordinates":[[[46.8754825,50.0475433,0.0],[46.8755641,50.0475427,0.0],[46.8755628,50.0474694,0.0],[46.8754812,50.04747,0.0],[46.8754825,50.0475433,0.0]]]},"properties":{"building:levels":"1","building":"house"}},{"type":"Feature","geometry":{"type":"Polygon","coordinates":[[[46.8749684,50.0450886,0.0],[46.875128,50.0450837,0.0],[46.8751236,50.045025,0.0],[46.8750246,50.045028,0.0],[46.8750232,50.0450084,0.0],[46.8749626,50.0450103,0.0],[46.8749684,50.0450886,0.0]]]},"properties":{"addr:housenumber":"25","building:levels":"1","addr:street":"Береговая улица","building":"house"}},{"type":"Feature","geometry":{"type":"Polygon","coordinates":[[[46.8749462,50.0451923,0.0],[46.875142,50.045179,0.0],[46.8751322,50.0451196,0.0],[46.8749364,50.0451329,0.0],[46.8749462,50.0451923,0.0]]]},"properties":{"addr:housenumber":"27","building:levels":"1","addr:street":"Береговая улица","building":"house"}},{"type":"Feature","geometry":{"type":"Polygon","coordinates":[[[46.8749284,50.0449177,0.0],[46.8750414,50.0449127,0.0],[46.8750291,50.0447984,0.0],[46.8749161,50.0448034,0.0],[46.8749284,50.0449177,0.0]]]},"properties":{"addr:housenumber":"23","building:levels":"1","addr:street":"Береговая улица","building":"house"}},{"type":"Feature","geometry":{"type":"Polygon","coordinates":[[[46.8750304,50.0452862,0.0],[46.8751498,50.0452802,0.0],[46.8751435,50.0452292,0.0],[46.8750241,50.0452352,0.0],[46.8750304,50.0452862,0.0]]]},"properties":{"addr:housenumber":"29","building:levels":"1","addr:street":"Береговая улица","building":"house"}},{"type":"Feature","geometry":{"type":"Polygon","coordinates":[[[46.874907,50.0447265,0.0],[46.8750959,50.0447202,0.0],[46.8750892,50.044637,0.0],[46.8750255,50.0446391,0.0],[46.8750288,50.0446803,0.0],[46.8749036,50.0446844,0.0],[46.874907,50.0447265,0.0]]]},"properties":{"addr:housenumber":"21","building:levels":"1","addr:street":"Береговая улица","building":"house"}},{"type":"Feature","geometry":{"type":"Polygon","coordinates":[[[46.8750176,50.0454003,0.0],[46.8751728,50.0453915,0.0],[46.875164,50.0453282,0.0],[46.8750937,50.0453322,0.0],[46.8750882,50.0452924,0.0],[46.8750033,50.0452973,0.0],[46.8750176,50.0454003,0.0]]]},"properties":{"addr:housenumber":"31","building:levels":"1","addr:street":"Береговая улица","building":"house"}},{"type":"Feature","geometry":{"type":"Polygon","coordinates":[[[46.8751263,50.0456449,0.0],[46.8751799,50.0456442,0.0],[46.8751771,50.0455624,0.0],[46.8751235,50.0455631,0.0],[46.8751263,50.0456449,0.0]]]},"properties":{"building:levels":"1","building":"house"}},{"type":"Feature","geometry":{"type":"Polygon","coordinates":[[[46.8750693,50.0458415,0.0],[46.8752179,50.0458389,0.0],[46.8752156,50.0457838,0.0],[46.875067,50.0457864,0.0],[46.8750693,50.0458415,0.0]]]},"properties":{"building:levels":"1","building":"house"}},{"type":"Feature","geometry":{"type":"Polygon","coordinates":[[[46.8750013,50.0459652,0.0],[46.8752193,50.0459535,0.0],[46.8752134,50.0459074,0.0],[46.8749953,50.0459191,0.0],[46.8750013,50.0459652,0.0]]]},"properties":{"building:levels":"1","building":"house"}},{"type":"Feature","geometry":{"type":"Polygon","coordinates":[[[46.8756824,50.0479972,0.0],[46.8758953,50.0479849,0.0],[46.8758836,50.047902,0.0],[46.8756707,50.0479143,0.0],[46.8756824,50.0479972,0.0]]]},"properties":{"addr:housenumber":"61","building:levels":"1","addr:street":"Береговая улица","building":"house","addr:city":"Паллассовка"}},{"type":"Feature","geometry":{"type":"Polygon","coordinates":[[[46.875746,50.0482144,0.0],[46.8759122,50.0482037,0.0],[46.875902,50.0481383,0.0],[46.8757358,50.0481489,0.0],[46.875746,50.0482144,0.0]]]},"properties":{"addr:housenumber":"63","building:levels":"1","addr:street":"Береговая улица","building":"house"}},{"type":"Feature","geometry":{"type":"Polygon","coordinates":[[[46.8758018,50.0483802,0.0],[46.8759292,50.0483764,0.0],[46.8759218,50.048274,0.0],[46.8757943,50.0482778,0.0],[46.8758018,50.0483802,0.0]]]},"properties":{"addr:housenumber":"65","building:levels":"1","addr:street":"Береговая улица","building":"house"}},{"type":"Feature","geometry":{"type":"Polygon","coordinates":[[[46.8751879,50.0480307,0.0],[46.8753831,50.0480275,0.0],[46.875379,50.0479234,0.0],[46.8753212,50.0479243,0.0],[46.8753181,50.0478453,0.0],[46.8751806,50.0478476,0.0],[46.8751879,50.0480307,0.0]]]},"properties":{"addr:housenumber":"12","building:levels":"1","addr:street":"Интернациональная улица","building":"yes"}},{"type":"Feature","geometry":{"type":"Polygon","coordinates":[[[46.8752669,50.0486859,0.0],[46.8754438,50.0486813,0.0],[46.8754403,50.0486261,0.0],[46.8752633,50.0486308,0.0],[46.8752669,50.0486859,0.0]]]},"properties":{"addr:housenumber":"18","building:levels":"1","addr:street":"Интернациональная улица","building":"house"}},{"type":"Feature","geometry":{"type":"Polygon","coordinates":[[[46.875207,50.0482629,0.0],[46.875407,50.0482562,0.0],[46.8753919,50.0480686,0.0],[46.8751919,50.0480752,0.0],[46.875207,50.0482629,0.0]]]},"properties":{"addr:housenumber":"14","building:levels":"2","addr:street":"Интернациональная улица","building":"house"}},{"type":"Feature","geometry":{"type":"Polygon","coordinates":[[[46.8752677,50.0484753,0.0],[46.8754206,50.0484736,0.0],[46.875418,50.0483773,0.0],[46.8752651,50.0483791,0.0],[46.8752677,50.0484753,0.0]]]},"properties":{"addr:housenumber":"16","building:levels":"1","addr:street":"Интернациональная улица","building":"house"}},{"type":"Feature","geometry":{"type":"Polygon","coordinates":[[[46.8752265,50.0488477,0.0],[46.8753637,50.0488449,0.0],[46.8753614,50.0487991,0.0],[46.8753089,50.0488002,0.0],[46.8753073,50.0487668,0.0],[46.8752227,50.0487685,0.0],[46.8752265,50.0488477,0.0]]]},"properties":{"addr:housenumber":"20","building:levels":"1","addr:street":"Интернациональная улица","building":"house"}},{"type":"Feature","geometry":{"type":"Polygon","coordinates":[[[46.8754196,50.049794,0.0],[46.8755603,50.0497876,0.0],[46.8755489,50.0496851,0.0],[46.8754082,50.0496915,0.0],[46.8754196,50.049794,0.0]]]},"properties":{"building:levels":"1","building":"house"}},{"type":"Feature","geometry":{"type":"Polygon","coordinates":[[[46.8749824,50.050276,0.0],[46.8750977,50.050276,0.0],[46.8750977,50.050214,0.0],[46.8749824,50.050214,0.0],[46.8749824,50.050276,0.0]]]},"properties":{"building:levels":"1","building":"house"}},{"type":"Feature","geometry":{"type":"Polygon","coordinates":[[[46.8756074,50.0501709,0.0],[46.8757683,50.0501709,0.0],[46.8757683,50.0501176,0.0],[46.8756074,50.0501176,0.0],[46.8756074,50.0501709,0.0]]]},"properties":{"building:levels":"1","building":"house"}},{"type":"Feature","geometry":{"type":"Polygon","coordinates":[[[46.8749606,50.0501282,0.0],[46.8751053,50.0501276,0.0],[46.8751048,50.0500785,0.0],[46.8749601,50.0500791,0.0],[46.8749606,50.0501282,0.0]]]},"properties":{"building:levels":"1","building":"house"}},{"type":"Feature","geometry":{"type":"Polygon","coordinates":[[[46.8759061,50.0492006,0.0],[46.8760805,50.0491967,0.0],[46.8760759,50.0491106,0.0],[46.8759015,50.0491145,0.0],[46.8759061,50.0492006,0.0]]]},"properties":{"building:levels":"1","building":"house"}},{"type":"Feature","geometry":{"type":"Polygon","coordinates":[[[46.8756601,50.0494378,0.0],[46.8757822,50.0494357,0.0],[46.8757787,50.0493496,0.0],[46.8756566,50.0493517,0.0],[46.8756601,50.0494378,0.0]]]},"properties":{"building:levels":"1","building":"house"}},{"type":"Feature","geometry":{"type":"Polygon","coordinates":[[[46.8756595,50.0503613,0.0],[46.8757895,50.050357,0.0],[46.8757828,50.0502735,0.0],[46.8756528,50.0502778,0.0],[46.8756595,50.0503613,0.0]]]},"properties":{"building:levels":"1","building":"house"}},{"type":"Feature","geometry":{"type":"Polygon","coordinates":[[[46.875638,50.0502599,0.0],[46.8757719,50.0502576,0.0],[46.8757702,50.0502162,0.0],[46.8756362,50.0502185,0.0],[46.875638,50.0502599,0.0]]]},"properties":{"building:levels":"1","building":"terrace"}},{"type":"Feature","geometry":{"type":"Polygon","coordinates":[[[46.8749783,50.0503838,0.0],[46.8752398,50.050374,0.0],[46.8752324,50.050293,0.0],[46.8749709,50.0503029,0.0],[46.8749783,50.0503838,0.0]]]},"properties":{"addr:housenumber":"155","building:levels":"1","addr:street":"Юбилейная улица","building":"yes"}},{"type":"Feature","geometry":{"type":"Polygon","coordinates":[[[46.8759889,50.0489391,0.0],[46.8761646,50.0489391,0.0],[46.8761646,50.0488469,0.0],[46.8759889,50.0488469,0.0],[46.8759889,50.0489391,0.0]]]},"properties":{"building:levels":"1","building":"house"}},{"type":"Feature","geometry":{"type":"Polygon","coordinates":[[[46.8757836,50.0492157,0.0],[46.875884,50.0492136,0.0],[46.8758806,50.0491447,0.0],[46.8757801,50.0491467,0.0],[46.8757836,50.0492157,0.0]]]},"properties":{"building:levels":"1","building":"yes"}},{"type":"Feature","geometry":{"type":"Polygon","coordinates":[[[46.8756498,50.0491378,0.0],[46.8757921,50.0491339,0.0],[46.8757888,50.0490849,0.0],[46.8756465,50.0490888,0.0],[46.8756498,50.0491378,0.0]]]},"properties":{"building:levels":"1","building":"yes"}},{"type":"Feature","geometry":{"type":"Polygon","coordinates":[[[46.875605,50.0489498,0.0],[46.8757783,50.0489439,0.0],[46.8757716,50.0488633,0.0],[46.8757037,50.0488656,0.0],[46.8757021,50.048846,0.0],[46.8756526,50.0488477,0.0],[46.875654,50.0488646,0.0],[46.8755981,50.0488665,0.0],[46.875605,50.0489498,0.0]]]},"properties":{"building:levels":"1","building":"house"}},{"type":"Feature","geometry":{"type":"Polygon","coordinates":[[[46.8755993,50.0490549,0.0],[46.8756932,50.0490514,0.0],[46.8756878,50.0489912,0.0],[46.875594,50.0489946,0.0],[46.8755993,50.0490549,0.0]]]},"properties":{"building:levels":"1","building":"house"}},{"type":"Feature","geometry":{"type":"Polygon","coordinates":[[[46.8766619,50.0491298,0.0],[46.8767572,50.0492131,0.0],[46.8768592,50.049165,0.0],[46.876764,50.0490817,0.0],[46.8766619,50.0491298,0.0]]]},"properties":{"building:levels":"1","building":"house"}},{"type":"Feature","geometry":{"type":"Polygon","coordinates":[[[46.8768216,50.0492305,0.0],[46.8769085,50.0493086,0.0],[46.876984,50.049274,0.0],[46.8768971,50.0491959,0.0],[46.8768216,50.0492305,0.0]]]},"properties":{"building:levels":"1","building":"house"}},{"type":"Feature","geometry":{"type":"Polygon","coordinates":[[[46.8760778,50.0493653,0.0],[46.8761816,50.0493963,0.0],[46.8762312,50.0493278,0.0],[46.8761274,50.0492968,0.0],[46.8760778,50.0493653,0.0]]]},"properties":{"building:levels":"1","building":"house"}},{"type":"Feature","geometry":{"type":"Polygon","coordinates":[[[46.8765899,50.0490649,0.0],[46.8766195,50.0490934,0.0],[46.8767361,50.0490435,0.0],[46.8767065,50.049015,0.0],[46.8765899,50.0490649,0.0]]]},"properties":{"building:levels":"1","building":"garage"}},{"type":"Feature","geometry":{"type":"Polygon","coordinates":[[[46.8764141,50.0495827,0.0],[46.8766109,50.0495751,0.0],[46.876604,50.0495018,0.0],[46.8764072,50.0495094,0.0],[46.8764141,50.0495827,0.0]]]},"properties":{"building:levels":"1","building":"house"}},{"type":"Feature","geometry":{"type":"Polygon","coordinates":[[[46.8829394,50.0496075,0.0],[46.8831659,50.0498814,0.0],[46.8833403,50.0498219,0.0],[46.8831138,50.0495481,0.0],[46.8829394,50.0496075,0.0]]]},"properties":{"building:levels":"2","building":"apartments"}},{"type":"Feature","geometry":{"type":"Polygon","coordinates":[[[46.8827709,50.050274,0.0],[46.8829246,50.0502531,0.0],[46.8828995,50.0501769,0.0],[46.8827458,50.0501978,0.0],[46.8827709,50.050274,0.0]]]},"properties":{"building:levels":"1","building":"yes"}},{"type":"Feature","geometry":{"type":"Polygon","coordinates":[[[46.8773041,50.0456599,0.0],[46.8774953,50.0456374,0.0],[46.8774781,50.0455768,0.0],[46.8772868,50.0455992,0.0],[46.8773041,50.0456599,0.0]]]},"properties":{"building:levels":"1","building":"house"}},{"type":"Feature","geometry":{"type":"Polygon","coordinates":[[[46.8771802,50.0453177,0.0],[46.8774035,50.045288,0.0],[46.877384,50.0452273,0.0],[46.8771607,50.045257,0.0],[46.8771802,50.0453177,0.0]]]},"properties":{"building:levels":"1","building":"house"}},{"type":"Feature","geometry":{"type":"Polygon","coordinates":[[[46.8770822,50.0446636,0.0],[46.8772222,50.0446487,0.0],[46.8771959,50.0445467,0.0],[46.8770558,50.0445617,0.0],[46.8770822,50.0446636,0.0]]]},"properties":{"building:levels":"1","building":"house"}},{"type":"Feature","geometry":{"type":"Polygon","coordinates":[[[46.8772934,50.045405,0.0],[46.8774338,50.0453884,0.0],[46.8774155,50.0453244,0.0],[46.8772751,50.045341,0.0],[46.8772934,50.045405,0.0]]]},"properties":{"building:levels":"1","building":"house"}},{"type":"Feature","geometry":{"type":"Polygon","coordinates":[[[46.8775586,50.0464789,0.0],[46.8777457,50.0464472,0.0],[46.8777201,50.0463849,0.0],[46.877533,50.0464167,0.0],[46.8775586,50.0464789,0.0]]]},"properties":{"building:levels":"1","building":"house"}},{"type":"Feature","geometry":{"type":"Polygon","coordinates":[[[46.8769522,50.0448742,0.0],[46.8772429,50.0448328,0.0],[46.8771973,50.0447009,0.0],[46.8769066,50.0447422,0.0],[46.8769522,50.0448742,0.0]]]},"properties":{"building:levels":"2","building":"house"}},{"type":"Feature","geometry":{"type":"Polygon","coordinates":[[[46.8775162,50.0463431,0.0],[46.8777127,50.0463132,0.0],[46.8776934,50.0462608,0.0],[46.8776418,50.0462687,0.0],[46.877629,50.0462341,0.0],[46.8774842,50.0462561,0.0],[46.8775162,50.0463431,0.0]]]},"properties":{"building:levels":"1","building":"house"}},{"type":"Feature","geometry":{"type":"Polygon","coordinates":[[[46.8773568,50.04579,0.0],[46.8775536,50.0457669,0.0],[46.877532,50.045691,0.0],[46.8773351,50.0457141,0.0],[46.8773568,50.04579,0.0]]]},"properties":{"building:levels":"1","building":"house"}},{"type":"Feature","geometry":{"type":"Polygon","coordinates":[[[46.8771737,50.0450554,0.0],[46.8773441,50.0450394,0.0],[46.8773287,50.0449715,0.0],[46.8771583,50.0449874,0.0],[46.8771737,50.0450554,0.0]]]},"properties":{"building:levels":"1","building":"house"}},{"type":"Feature","geometry":{"type":"Polygon","coordinates":[[[46.877291,50.0455348,0.0],[46.8774727,50.0455129,0.0],[46.8774437,50.0454135,0.0],[46.8772621,50.0454353,0.0],[46.877291,50.0455348,0.0]]]},"properties":{"building:levels":"1","building":"house"}},{"type":"Feature","geometry":{"type":"Polygon","coordinates":[[[46.8764652,50.044949,0.0],[46.8768726,50.0449092,0.0],[46.87685,50.0448135,0.0],[46.8764425,50.0448532,0.0],[46.8764652,50.044949,0.0]]]},"properties":{"building:levels":"1","building":"yes"}},{"type":"Feature","geometry":{"type":"Polygon","coordinates":[[[46.8772008,50.0451758,0.0],[46.8773742,50.0451521,0.0],[46.8773509,50.0450818,0.0],[46.8771774,50.0451056,0.0],[46.8772008,50.0451758,0.0]]]},"properties":{"building:levels":"1","building":"house"}},{"type":"Feature","geometry":{"type":"Polygon","coordinates":[[[46.877327,50.0459559,0.0],[46.8775952,50.0459325,0.0],[46.8775793,50.0458576,0.0],[46.8773112,50.045881,0.0],[46.877327,50.0459559,0.0]]]},"properties":{"building:levels":"1","building":"house"}},{"type":"Feature","geometry":{"type":"Polygon","coordinates":[[[46.8780724,50.046365,0.0],[46.8782234,50.0463448,0.0],[46.8782054,50.0462894,0.0],[46.8780543,50.0463097,0.0],[46.8780724,50.046365,0.0]]]},"properties":{"building:levels":"1","building":"house"}},{"type":"Feature","geometry":{"type":"Polygon","coordinates":[[[46.8778292,50.0455735,0.0],[46.8779359,50.0455586,0.0],[46.877944,50.0455826,0.0],[46.8780243,50.0455714,0.0],[46.8779871,50.0454618,0.0],[46.8778002,50.045488,0.0],[46.8778292,50.0455735,0.0]]]},"properties":{"building:levels":"1","building":"house"}},{"type":"Feature","geometry":{"type":"Polygon","coordinates":[[[46.8775865,50.0448178,0.0],[46.8776981,50.0448052,0.0],[46.8776761,50.0447245,0.0],[46.8775645,50.0447371,0.0],[46.8775865,50.0448178,0.0]]]},"properties":{"building:levels":"1","building":"house"}},{"type":"Feature","geometry":{"type":"Polygon","coordinates":[[[46.8780102,50.0461728,0.0],[46.8782772,50.0461326,0.0],[46.8782552,50.0460724,0.0],[46.8779882,50.0461126,0.0],[46.8780102,50.0461728,0.0]]]},"properties":{"building:levels":"1","source":"Bing","building":"house"}},{"type":"Feature","geometry":{"type":"Polygon","coordinates":[[[46.8777703,50.0454295,0.0],[46.8778769,50.0454152,0.0],[46.8778589,50.0453597,0.0],[46.8777523,50.045374,0.0],[46.8777703,50.0454295,0.0]]]},"properties":{"building:levels":"1","building":"house"}},{"type":"Feature","geometry":{"type":"Polygon","coordinates":[[[46.8779505,50.0459846,0.0],[46.878098,50.045971,0.0],[46.8780818,50.0458986,0.0],[46.8780204,50.0459043,0.0],[46.8780262,50.0459299,0.0],[46.87794,50.0459379,0.0],[46.8779505,50.0459846,0.0]]]},"properties":{"building:levels":"1","building":"house"}},{"type":"Feature","geometry":{"type":"Polygon","coordinates":[[[46.8777157,50.0452478,0.0],[46.8780169,50.0452081,0.0],[46.8779959,50.0451425,0.0],[46.8778129,50.0451666,0.0],[46.8778001,50.0451267,0.0],[46.877682,50.0451423,0.0],[46.8777157,50.0452478,0.0]]]},"properties":{"building:levels":"1","building":"house"}},{"type":"Feature","geometry":{"type":"Polygon","coordinates":[[[46.8775412,50.0446662,0.0],[46.8777494,50.0446372,0.0],[46.8777273,50.0445718,0.0],[46.8776614,50.044581,0.0],[46.8776518,50.0445524,0.0],[46.8775095,50.0445723,0.0],[46.8775412,50.0446662,0.0]]]},"properties":{"building:levels":"1","building":"house"}},{"type":"Feature","geometry":{"type":"Polygon","coordinates":[[[46.8776578,50.045072,0.0],[46.8777826,50.0450575,0.0],[46.8777662,50.0449992,0.0],[46.8776414,50.0450136,0.0],[46.8776578,50.045072,0.0]]]},"properties":{"building:levels":"1","building":"house"}},{"type":"Feature","geometry":{"type":"Polygon","coordinates":[[[46.8776243,50.0449673,0.0],[46.8778523,50.0449396,0.0],[46.877831,50.0448673,0.0],[46.877603,50.044895,0.0],[46.8776243,50.0449673,0.0]]]},"properties":{"building:levels":"1","building":"house"}},{"type":"Feature","geometry":{"type":"Polygon","coordinates":[[[46.877737,50.045305,0.0],[46.8777847,50.0453,0.0],[46.877779,50.0452774,0.0],[46.8777313,50.0452824,0.0],[46.877737,50.045305,0.0]]]},"properties":{"building:levels":"1","building":"garage"}},{"type":"Feature","geometry":{"type":"Polygon","coordinates":[[[46.8779071,50.0456285,0.0],[46.8779705,50.0456173,0.0],[46.8779625,50.0455986,0.0],[46.8778991,50.0456098,0.0],[46.8779071,50.0456285,0.0]]]},"properties":{"building:levels":"1","building":"garage"}},{"type":"Feature","geometry":{"type":"Polygon","coordinates":[[[46.8778914,50.0458089,0.0],[46.8779893,50.0457985,0.0],[46.8779639,50.0457004,0.0],[46.8778661,50.0457108,0.0],[46.8778914,50.0458089,0.0]]]},"properties":{"building:levels":"1","building":"house"}},{"type":"Feature","geometry":{"type":"Polygon","coordinates":[[[46.8793412,50.0455699,0.0],[46.8794705,50.0455323,0.0],[46.8793963,50.0454268,0.0],[46.8792669,50.0454644,0.0],[46.8793412,50.0455699,0.0]]]},"properties":{"building:levels":"1","building":"house"}},{"type":"Feature","geometry":{"type":"Polygon","coordinates":[[[46.8794714,50.0457643,0.0],[46.8796007,50.0457296,0.0],[46.8795449,50.0456439,0.0],[46.8794156,50.0456786,0.0],[46.8794714,50.0457643,0.0]]]},"properties":{"building:levels":"1","building":"house"}},{"type":"Feature","geometry":{"type":"Polygon","coordinates":[[[46.8796349,50.0460057,0.0],[46.8797621,50.0459724,0.0],[46.8797069,50.0458855,0.0],[46.8795797,50.0459189,0.0],[46.8796349,50.0460057,0.0]]]},"properties":{"building:levels":"1","source":"Bing","building":"house"}},{"type":"Feature","geometry":{"type":"Polygon","coordinates":[[[46.8796802,50.0458568,0.0],[46.8797638,50.045831,0.0],[46.8797397,50.0457987,0.0],[46.879656,50.0458245,0.0],[46.8796802,50.0458568,0.0]]]},"properties":{"building:levels":"1","building":"garage"}},{"type":"Feature","geometry":{"type":"Polygon","coordinates":[[[46.8793839,50.045625,0.0],[46.8794992,50.0455939,0.0],[46.8794778,50.0455612,0.0],[46.8793625,50.0455922,0.0],[46.8793839,50.045625,0.0]]]},"properties":{"building:levels":"1","building":"garage"}},{"type":"Feature","geometry":{"type":"Polygon","coordinates":[[[46.8802687,50.0453081,0.0],[46.8806462,50.0452171,0.0],[46.8805954,50.0451302,0.0],[46.8808168,50.0450769,0.0],[46.8806951,50.0448688,0.0],[46.8800963,50.0450132,0.0],[46.8802687,50.0453081,0.0]]]},"properties":{"building:levels":"1","building":"industrial"}},{"type":"Feature","geometry":{"type":"Polygon","coordinates":[[[46.8801304,50.045797,0.0],[46.8802593,50.0457601,0.0],[46.8801627,50.045621,0.0],[46.8801982,50.0456108,0.0],[46.8799406,50.0452397,0.0],[46.8797762,50.0452868,0.0],[46.8801304,50.045797,0.0]]]},"properties":{"building:levels":"1","building":"garages"}},{"type":"Feature","geometry":{"type":"Polygon","coordinates":[[[46.8847676,50.0455917,0.0],[46.8849011,50.0455621,0.0],[46.8848681,50.0455006,0.0],[46.8847346,50.0455302,0.0],[46.8847676,50.0455917,0.0]]]},"properties":{"addr:housenumber":"26","building:levels":"1","addr:street":"улица Дзержинского","building":"house"}},{"type":"Feature","geometry":{"type":"Polygon","coordinates":[[[46.8836228,50.045834,0.0],[46.8837578,50.0458057,0.0],[46.8837067,50.0457055,0.0],[46.8835717,50.0457339,0.0],[46.8836228,50.045834,0.0]]]},"properties":{"addr:housenumber":"34","building:levels":"1","addr:street":"улица Дзержинского","building":"house"}},{"type":"Feature","geometry":{"type":"Polygon","coordinates":[[[46.884469,50.0456567,0.0],[46.8846064,50.0456286,0.0],[46.8845697,50.0455548,0.0],[46.8844324,50.045583,0.0],[46.884469,50.0456567,0.0]]]},"properties":{"addr:housenumber":"28","building:levels":"1","addr:street":"улица Дзержинского","building":"house"}},{"type":"Feature","geometry":{"type":"Polygon","coordinates":[[[46.8839228,50.0457794,0.0],[46.884044,50.0457537,0.0],[46.8839968,50.0456619,0.0],[46.8838756,50.0456876,0.0],[46.8839228,50.0457794,0.0]]]},"properties":{"addr:housenumber":"32","building:levels":"1","addr:street":"улица Дзержинского","building":"house"}},{"type":"Feature","geometry":{"type":"Polygon","coordinates":[[[46.8841596,50.0457219,0.0],[46.884313,50.0456859,0.0],[46.8842657,50.0456028,0.0],[46.8841124,50.0456388,0.0],[46.8841596,50.0457219,0.0]]]},"properties":{"addr:housenumber":"30","building:levels":"1","addr:street":"улица Дзержинского","building":"house"}},{"type":"Feature","geometry":{"type":"Polygon","coordinates":[[[46.8819676,50.0466388,0.0],[46.8821369,50.0465974,0.0],[46.8820805,50.0465025,0.0],[46.8819113,50.046544,0.0],[46.8819676,50.0466388,0.0]]]},"properties":{"addr:housenumber":"42","building:levels":"1","addr:street":"улица Дзержинского","source":"Bing","building":"house"}},{"type":"Feature","geometry":{"type":"Polygon","coordinates":[[[46.8828094,50.0462758,0.0],[46.8830465,50.046222,0.0],[46.8830029,50.0461427,0.0],[46.8827657,50.0461964,0.0],[46.8828094,50.0462758,0.0]]]},"properties":{"addr:housenumber":"38","building:levels":"1","addr:street":"улица Дзержинского","source":"Bing","building":"apartments"}},{"type":"Feature","geometry":{"type":"Polygon","coordinates":[[[46.8831849,50.0462069,0.0],[46.8832194,50.0462002,0.0],[46.8832026,50.0461648,0.0],[46.8831682,50.0461715,0.0],[46.8831849,50.0462069,0.0]]]},"properties":{"building:levels":"1","building":"garage"}},{"type":"Feature","geometry":{"type":"Polygon","coordinates":[[[46.8820961,50.0464358,0.0],[46.8823705,50.0463763,0.0],[46.882325,50.0462898,0.0],[46.8820506,50.0463494,0.0],[46.8820961,50.0464358,0.0]]]},"properties":{"addr:housenumber":"40","building:levels":"1","addr:street":"улица Дзержинского","source":"Bing","building":"apartments"}},{"type":"Feature","geometry":{"type":"Polygon","coordinates":[[[46.8832534,50.0461832,0.0],[46.883391,50.0461545,0.0],[46.8833354,50.0460446,0.0],[46.8832411,50.0460642,0.0],[46.8832535,50.0460888,0.0],[46.8832102,50.0460979,0.0],[46.8832534,50.0461832,0.0]]]},"properties":{"addr:housenumber":"36","building:levels":"1","addr:street":"улица Дзержинского","building":"house"}},{"type":"Feature","geometry":{"type":"Polygon","coordinates":[[[46.8830921,50.0462366,0.0],[46.8831456,50.0462254,0.0],[46.8831253,50.0461854,0.0],[46.8830717,50.0461966,0.0],[46.8830921,50.0462366,0.0]]]},"properties":{"building:levels":"1","source":"Bing","building":"garage"}},{"type":"Feature","geometry":{"type":"Polygon","coordinates":[[[46.8814297,50.0467628,0.0],[46.8815945,50.0467212,0.0],[46.881548,50.0466453,0.0],[46.8813832,50.0466869,0.0],[46.8814297,50.0467628,0.0]]]},"properties":{"building:levels":"1","building":"house"}},{"type":"Feature","geometry":{"type":"Polygon","coordinates":[[[46.8803908,50.0463702,0.0],[46.8804796,50.0463467,0.0],[46.8804655,50.0463247,0.0],[46.8803767,50.0463482,0.0],[46.8803908,50.0463702,0.0]]]},"properties":{"building:levels":"1","source":"Bing","building":"garage"}},{"type":"Feature","geometry":{"type":"Polygon","coordinates":[[[46.8807258,50.0467496,0.0],[46.8808527,50.0467147,0.0],[46.8807986,50.0466335,0.0],[46.8806716,50.0466684,0.0],[46.8807258,50.0467496,0.0]]]},"properties":{"building:levels":"1","source":"Bing","building":"house"}},{"type":"Feature","geometry":{"type":"Polygon","coordinates":[[[46.8812407,50.0464354,0.0],[46.8813495,50.0464073,0.0],[46.8812893,50.0463115,0.0],[46.8812226,50.0463288,0.0],[46.8812375,50.0463526,0.0],[46.8811955,50.0463635,0.0],[46.8812407,50.0464354,0.0]]]},"properties":{"building:levels":"1","building":"house"}},{"type":"Feature","geometry":{"type":"Polygon","coordinates":[[[46.880339,50.0461553,0.0],[46.8804963,50.0461122,0.0],[46.8804321,50.0460154,0.0],[46.8802747,50.0460584,0.0],[46.880339,50.0461553,0.0]]]},"properties":{"building:levels":"1","source":"Bing","building":"house"}},{"type":"Feature","geometry":{"type":"Polygon","coordinates":[[[46.8802323,50.0461832,0.0],[46.8803046,50.0461633,0.0],[46.8802874,50.0461375,0.0],[46.8802151,50.0461573,0.0],[46.8802323,50.0461832,0.0]]]},"properties":{"building:levels":"1","building":"garage"}},{"type":"Feature","geometry":{"type":"Polygon","coordinates":[[[46.8805561,50.0466443,0.0],[46.8806381,50.0466203,0.0],[46.8806125,50.0465843,0.0],[46.8805305,50.0466083,0.0],[46.8805561,50.0466443,0.0]]]},"properties":{"building:levels":"1","source":"Bing","building":"garage"}},{"type":"Feature","geometry":{"type":"Polygon","coordinates":[[[46.8813356,50.0465999,0.0],[46.8814573,50.0465683,0.0],[46.8814094,50.0464924,0.0],[46.8812877,50.046524,0.0],[46.8813356,50.0465999,0.0]]]},"properties":{"building:levels":"1","source":"Bing","building":"house"}},{"type":"Feature","geometry":{"type":"Polygon","coordinates":[[[46.8812193,50.0459466,0.0],[46.8813357,50.0459184,0.0],[46.8812888,50.0458386,0.0],[46.8811724,50.0458668,0.0],[46.8812193,50.0459466,0.0]]]},"properties":{"addr:housenumber":"40","building:levels":"1","addr:street":"улица Будённого","building":"house"}},{"type":"Feature","geometry":{"type":"Polygon","coordinates":[[[46.8811171,50.0462172,0.0],[46.881253,50.0461844,0.0],[46.8811987,50.0460915,0.0],[46.8810627,50.0461243,0.0],[46.8811171,50.0462172,0.0]]]},"properties":{"building:levels":"1","building":"house"}},{"type":"Feature","geometry":{"type":"Polygon","coordinates":[[[46.8810103,50.0466879,0.0],[46.8811923,50.0466424,0.0],[46.8811339,50.0465462,0.0],[46.881002,50.0465791,0.0],[46.8810181,50.0466056,0.0],[46.8809681,50.0466181,0.0],[46.8810103,50.0466879,0.0]]]},"properties":{"building:levels":"1","building":"house"}},{"type":"Feature","geometry":{"type":"Polygon","coordinates":[[[46.8805623,50.0465023,0.0],[46.8807203,50.0464628,0.0],[46.8806759,50.0463895,0.0],[46.8805179,50.0464289,0.0],[46.8805623,50.0465023,0.0]]]},"properties":{"building:levels":"1","source":"Bing","building":"house"}},{"type":"Feature","geometry":{"type":"Polygon","coordinates":[[[46.8804439,50.0463143,0.0],[46.880609,50.0462722,0.0],[46.8805686,50.0462069,0.0],[46.8804035,50.046249,0.0],[46.8804439,50.0463143,0.0]]]},"properties":{"building:levels":"1","source":"Bing","building":"house"}},{"type":"Feature","geometry":{"type":"Polygon","coordinates":[[[46.8807,50.0461001,0.0],[46.8809649,50.0460421,0.0],[46.8809068,50.0459327,0.0],[46.8806418,50.0459908,0.0],[46.8807,50.0461001,0.0]]]},"properties":{"addr:housenumber":"42","building:levels":"1","addr:street":"улица Будённого","source":"Bing","building":"apartments"}},{"type":"Feature","geometry":{"type":"Polygon","coordinates":[[[46.8812778,50.0464827,0.0],[46.8813606,50.046461,0.0],[46.8813407,50.0464298,0.0],[46.881258,50.0464515,0.0],[46.8812778,50.0464827,0.0]]]},"properties":{"building:levels":"1","building":"garage"}},{"type":"Feature","geometry":{"type":"Polygon","coordinates":[[[46.8818618,50.04756,0.0],[46.882017,50.047521,0.0],[46.8819586,50.0474253,0.0],[46.8818521,50.047452,0.0],[46.8818896,50.0475135,0.0],[46.8818409,50.0475257,0.0],[46.8818618,50.04756,0.0]]]},"properties":{"building:levels":"1","source":"Bing","building":"house"}},{"type":"Feature","geometry":{"type":"Polygon","coordinates":[[[46.881674,50.0472475,0.0],[46.881835,50.0472062,0.0],[46.8817701,50.047102,0.0],[46.8816609,50.04713,0.0],[46.8817027,50.0471972,0.0],[46.8816509,50.0472105,0.0],[46.881674,50.0472475,0.0]]]},"properties":{"building:levels":"1","source":"Bing","building":"house"}},{"type":"Feature","geometry":{"type":"Polygon","coordinates":[[[46.8820479,50.0478778,0.0],[46.8822038,50.0478445,0.0],[46.8821469,50.0477347,0.0],[46.8820467,50.0477561,0.0],[46.8820807,50.0478217,0.0],[46.882025,50.0478336,0.0],[46.8820479,50.0478778,0.0]]]},"properties":{"building:levels":"1","source":"Bing","building":"house"}},{"type":"Feature","geometry":{"type":"Polygon","coordinates":[[[46.8815167,50.0469782,0.0],[46.8816693,50.0469392,0.0],[46.8816091,50.046842,0.0],[46.8814564,50.046881,0.0],[46.8815167,50.0469782,0.0]]]},"properties":{"building:levels":"1","addr:street":"улица Дзержинского","source":"Bing","building":"house"}},{"type":"Feature","geometry":{"type":"Polygon","coordinates":[[[46.8828596,50.0477733,0.0],[46.8829697,50.0477063,0.0],[46.8828756,50.0476427,0.0],[46.8827656,50.0477097,0.0],[46.8828596,50.0477733,0.0]]]},"properties":{"building:levels":"1","source":"Bing","building":"house"}},{"type":"Feature","geometry":{"type":"Polygon","coordinates":[[[46.8846623,50.0458425,0.0],[46.8847085,50.0458309,0.0],[46.8846798,50.045784,0.0],[46.8846336,50.0457957,0.0],[46.8846623,50.0458425,0.0]]]},"properties":{"building:levels":"1","source":"Bing","building":"garage"}},{"type":"Feature","geometry":{"type":"Polygon","coordinates":[[[46.8837633,50.046098,0.0],[46.8838813,50.0460706,0.0],[46.8838658,50.0460432,0.0],[46.8839418,50.0460256,0.0],[46.8839068,50.0459636,0.0],[46.8837129,50.0460087,0.0],[46.8837633,50.046098,0.0]]]},"properties":{"addr:housenumber":"39","building:levels":"1","addr:street":"улица Дзержинского","source":"Bing","building":"house"}},{"type":"Feature","geometry":{"type":"Polygon","coordinates":[[[46.8838385,50.0469435,0.0],[46.8839703,50.0469075,0.0],[46.8839153,50.0468244,0.0],[46.8837835,50.0468604,0.0],[46.8838385,50.0469435,0.0]]]},"properties":{"addr:housenumber":"45","building:levels":"1","addr:street":"улица Дзержинского","source":"Bing","building":"house"}},{"type":"Feature","geometry":{"type":"Polygon","coordinates":[[[46.882274,50.0467599,0.0],[46.8823459,50.0467438,0.0],[46.8823624,50.0467742,0.0],[46.8825033,50.0467426,0.0],[46.8824767,50.0466936,0.0],[46.8825226,50.0466834,0.0],[46.8825,50.0466417,0.0],[46.8822413,50.0466996,0.0],[46.882274,50.0467599,0.0]]]},"properties":{"addr:housenumber":"55","building:levels":"1","addr:street":"улица Дзержинского","source":"Bing","building":"apartments"}},{"type":"Feature","geometry":{"type":"Polygon","coordinates":[[[46.8829242,50.0465503,0.0],[46.8829847,50.0465348,0.0],[46.8829502,50.0464793,0.0],[46.8828897,50.0464948,0.0],[46.8829242,50.0465503,0.0]]]},"properties":{"building:levels":"1","source":"Bing","building":"garage"}},{"type":"Feature","geometry":{"type":"Polygon","coordinates":[[[46.884534,50.0461126,0.0],[46.8846979,50.0460737,0.0],[46.8846638,50.0460143,0.0],[46.8844999,50.0460532,0.0],[46.884534,50.0461126,0.0]]]},"properties":{"building:levels":"1","source":"Bing","building":"warehouse"}},{"type":"Feature","geometry":{"type":"Polygon","coordinates":[[[46.8826201,50.0466865,0.0],[46.8827961,50.0466446,0.0],[46.882752,50.0465681,0.0],[46.882576,50.0466099,0.0],[46.8826201,50.0466865,0.0]]]},"properties":{"addr:housenumber":"53","building:levels":"1","addr:street":"улица Дзержинского","source":"Bing","building":"apartments"}},{"type":"Feature","geometry":{"type":"Polygon","coordinates":[[[46.8838328,50.0462861,0.0],[46.8841456,50.0462047,0.0],[46.884106,50.046142,0.0],[46.8837933,50.0462234,0.0],[46.8838328,50.0462861,0.0]]]},"properties":{"building:levels":"1","source":"Bing","building":"warehouse"}},{"type":"Feature","geometry":{"type":"Polygon","coordinates":[[[46.8834945,50.0464718,0.0],[46.8836179,50.046438,0.0],[46.883564,50.0463568,0.0],[46.8834405,50.0463907,0.0],[46.8834945,50.0464718,0.0]]]},"properties":{"addr:housenumber":"41","building:levels":"1","addr:street":"улица Дзержинского","source":"Bing","building":"house"}},{"type":"Feature","geometry":{"type":"Polygon","coordinates":[[[46.8842353,50.0459637,0.0],[46.8844886,50.0459057,0.0],[46.8844537,50.0458429,0.0],[46.8842005,50.0459009,0.0],[46.8842353,50.0459637,0.0]]]},"properties":{"addr:housenumber":"37","building:levels":"1","addr:street":"улица Дзержинского","source":"Bing","building":"apartments"}},{"type":"Feature","geometry":{"type":"Polygon","coordinates":[[[46.8837102,50.0467825,0.0],[46.8838399,50.0467479,0.0],[46.8837902,50.0466713,0.0],[46.8836605,50.0467059,0.0],[46.8837102,50.0467825,0.0]]]},"properties":{"addr:housenumber":"43","building:levels":"1","addr:street":"улица Дзержинского","source":"Bing","building":"house"}},{"type":"Feature","geometry":{"type":"Polygon","coordinates":[[[46.8833414,50.0468365,0.0],[46.8834793,50.0467992,0.0],[46.8834202,50.046709,0.0],[46.8832823,50.0467462,0.0],[46.8833414,50.0468365,0.0]]]},"properties":{"addr:housenumber":"49","building:levels":"1","addr:street":"улица Дзержинского","source":"Bing","building":"house"}},{"type":"Feature","geometry":{"type":"Polygon","coordinates":[[[46.8840113,50.0467255,0.0],[46.8841446,50.0466898,0.0],[46.884102,50.0466243,0.0],[46.8839687,50.04666,0.0],[46.8840113,50.0467255,0.0]]]},"properties":{"addr:housenumber":"43А","building:levels":"1","addr:street":"улица Дзержинского","source":"Bing","building":"yes"}},{"type":"Feature","geometry":{"type":"Polygon","coordinates":[[[46.884125,50.0460141,0.0],[46.8841918,50.0459981,0.0],[46.884132,50.0458951,0.0],[46.8840651,50.0459111,0.0],[46.884125,50.0460141,0.0]]]},"properties":{"building:levels":"1","source":"Bing","building":"garages"}},{"type":"Feature","geometry":{"type":"Polygon","coordinates":[[[46.8834538,50.0470087,0.0],[46.8835913,50.0469783,0.0],[46.8835459,50.0468936,0.0],[46.8834085,50.0469239,0.0],[46.8834538,50.0470087,0.0]]]},"properties":{"addr:housenumber":"47","building:levels":"1","addr:street":"улица Дзержинского","source":"Bing","building":"house"}},{"type":"Feature","geometry":{"type":"Polygon","coordinates":[[[46.883096,50.0465689,0.0],[46.8832175,50.0465391,0.0],[46.8831736,50.0464654,0.0],[46.8830521,50.0464952,0.0],[46.883096,50.0465689,0.0]]]},"properties":{"addr:housenumber":"51","building:levels":"1","addr:street":"улица Дзержинского","source":"Bing","building":"house"}},{"type":"Feature","geometry":{"type":"Polygon","coordinates":[[[46.883439,50.0454549,0.0],[46.8837087,50.0453881,0.0],[46.8836695,50.0453229,0.0],[46.8833998,50.0453898,0.0],[46.883439,50.0454549,0.0]]]},"properties":{"addr:housenumber":"30","building:levels":"1","addr:street":"улица Будённого","source":"Bing","building":"apartments"}},{"type":"Feature","geometry":{"type":"Polygon","coordinates":[[[46.883975,50.0453269,0.0],[46.8841981,50.0452759,0.0],[46.8841635,50.0452135,0.0],[46.8839404,50.0452644,0.0],[46.883975,50.0453269,0.0]]]},"properties":{"addr:housenumber":"28","building:levels":"1","addr:street":"улица Будённого","source":"Bing","building":"apartments"}},{"type":"Feature","geometry":{"type":"Polygon","coordinates":[[[46.8845208,50.0452079,0.0],[46.8847692,50.045151,0.0],[46.8847372,50.0450935,0.0],[46.8844888,50.0451504,0.0],[46.8845208,50.0452079,0.0]]]},"properties":{"addr:housenumber":"26","building:levels":"1","addr:street":"улица Будённого","source":"Bing","building":"apartments"}},{"type":"Feature","geometry":{"type":"Polygon","coordinates":[[[46.8820909,50.0457001,0.0],[46.8821458,50.0456875,0.0],[46.8821146,50.0456317,0.0],[46.8820597,50.0456443,0.0],[46.8820909,50.0457001,0.0]]]},"properties":{"building:levels":"1","source":"Bing","building":"garage"}},{"type":"Feature","geometry":{"type":"Polygon","coordinates":[[[46.882206,50.045771,0.0],[46.8822807,50.0457549,0.0],[46.8822683,50.0457311,0.0],[46.8823192,50.0457201,0.0],[46.8822767,50.0456388,0.0],[46.8821511,50.0456659,0.0],[46.882206,50.045771,0.0]]]},"properties":{"addr:housenumber":"36","building:levels":"1","addr:street":"улица Будённого","source":"Bing","building":"house"}},{"type":"Feature","geometry":{"type":"Polygon","coordinates":[[[46.8827198,50.0455362,0.0],[46.8827605,50.0455267,0.0],[46.8827369,50.0454852,0.0],[46.8826962,50.0454948,0.0],[46.8827198,50.0455362,0.0]]]},"properties":{"building:levels":"1","source":"Bing","building":"garage"}},{"type":"Feature","geometry":{"type":"Polygon","coordinates":[[[46.8820272,50.0456862,0.0],[46.8820613,50.0456758,0.0],[46.8820387,50.0456452,0.0],[46.8820046,50.0456556,0.0],[46.8820272,50.0456862,0.0]]]},"properties":{"building:levels":"1","source":"Bing","building":"garage"}},{"type":"Feature","geometry":{"type":"Polygon","coordinates":[[[46.88292,50.0455549,0.0],[46.883049,50.0455253,0.0],[46.8830133,50.045461,0.0],[46.8828842,50.0454905,0.0],[46.88292,50.0455549,0.0]]]},"properties":{"addr:housenumber":"32","building:levels":"1","addr:street":"улица Будённого","building":"house"}},{"type":"Feature","geometry":{"type":"Polygon","coordinates":[[[46.8817993,50.0458401,0.0],[46.8818596,50.0458262,0.0],[46.8818415,50.0457938,0.0],[46.8819421,50.0457706,0.0],[46.8819646,50.0458107,0.0],[46.882044,50.0457924,0.0],[46.8819865,50.0456896,0.0],[46.8817461,50.045745,0.0],[46.8817993,50.0458401,0.0]]]},"properties":{"addr:housenumber":"38","building:levels":"1","addr:street":"улица Будённого","source":"Bing","building":"apartments"}},{"type":"Feature","geometry":{"type":"Polygon","coordinates":[[[46.8825122,50.0456446,0.0],[46.8827018,50.0456059,0.0],[46.8826695,50.0455408,0.0],[46.88248,50.0455795,0.0],[46.8825122,50.0456446,0.0]]]},"properties":{"addr:housenumber":"34","building:levels":"1","addr:street":"улица Будённого","source":"Bing","building":"apartments"}},{"type":"Feature","geometry":{"type":"Polygon","coordinates":[[[46.8847383,50.0448472,0.0],[46.8849058,50.0448073,0.0],[46.8848619,50.0447315,0.0],[46.8846945,50.0447714,0.0],[46.8847383,50.0448472,0.0]]]},"properties":{"addr:housenumber":"25","building:levels":"1","addr:street":"улица Будённого","source":"Bing","building":"house"}},{"type":"Feature","geometry":{"type":"Polygon","coordinates":[[[46.8843804,50.044923,0.0],[46.8845156,50.0448871,0.0],[46.8844713,50.0448184,0.0],[46.8843361,50.0448543,0.0],[46.8843804,50.044923,0.0]]]},"properties":{"addr:housenumber":"27","building:levels":"1","addr:street":"улица Будённого","source":"Bing","building":"house"}},{"type":"Feature","geometry":{"type":"Polygon","coordinates":[[[46.8750819,50.0508765,0.0],[46.8752784,50.0508756,0.0],[46.8752775,50.0507991,0.0],[46.8752127,50.0507994,0.0],[46.8752123,50.0507686,0.0],[46.8750806,50.0507692,0.0],[46.8750819,50.0508765,0.0]]]},"properties":{"addr:housenumber":"159","building:levels":"1","addr:street":"Юбилейная улица","source":"Bing","building":"house"}},{"type":"Feature","geometry":{"type":"Polygon","coordinates":[[[46.8750539,50.0511458,0.0],[46.8752,50.0511438,0.0],[46.8751978,50.0510775,0.0],[46.8750516,50.0510796,0.0],[46.8750539,50.0511458,0.0]]]},"properties":{"addr:housenumber":"163","building:levels":"1","addr:street":"Юбилейная улица","source":"Bing","building":"house"}},{"type":"Feature","geometry":{"type":"Polygon","coordinates":[[[46.8750691,50.0513686,0.0],[46.8752502,50.0513654,0.0],[46.8752458,50.0512621,0.0],[46.8750646,50.0512653,0.0],[46.8750691,50.0513686,0.0]]]},"properties":{"addr:housenumber":"165","building:levels":"1","addr:street":"Юбилейная улица","source":"Bing","building":"house"}},{"type":"Feature","geometry":{"type":"Polygon","coordinates":[[[46.8849138,50.04805,0.0],[46.8850146,50.0480138,0.0],[46.8849491,50.0479386,0.0],[46.8848483,50.0479748,0.0],[46.8849138,50.04805,0.0]]]},"properties":{"addr:housenumber":"6","building:levels":"1","addr:street":"улица Лея Рот","source":"Bing","building":"house","addr:city":"Палласовка"}},{"type":"Feature","geometry":{"type":"Polygon","coordinates":[[[46.8843322,50.0479958,0.0],[46.8844497,50.0479483,0.0],[46.8843601,50.0478567,0.0],[46.8842425,50.0479042,0.0],[46.8843322,50.0479958,0.0]]]},"properties":{"addr:housenumber":"1","building:levels":"1","addr:street":"улица Лея Рот","source":"Bing","building":"house","addr:city":"Палласовка"}},{"type":"Feature","geometry":{"type":"Polygon","coordinates":[[[46.8847186,50.0477804,0.0],[46.8848774,50.0477168,0.0],[46.8848367,50.0476749,0.0],[46.8847547,50.0477077,0.0],[46.8847143,50.0476661,0.0],[46.8846375,50.0476968,0.0],[46.8847186,50.0477804,0.0]]]},"properties":{"building:levels":"1","addr:street":"Тихий переулок","source":"Bing","building":"house","addr:city":"Палласовка"}},{"type":"Feature","geometry":{"type":"Polygon","coordinates":[[[46.8844133,50.0481737,0.0],[46.8845727,50.0481183,0.0],[46.8845007,50.0480329,0.0],[46.8843413,50.0480883,0.0],[46.8844133,50.0481737,0.0]]]},"properties":{"addr:housenumber":"3","building:levels":"1","addr:street":"улица Лея Рот","source":"Bing","building":"house","addr:city":"Палласовка"}},{"type":"Feature","geometry":{"type":"Polygon","coordinates":[[[46.884244,50.0483687,0.0],[46.8843489,50.048323,0.0],[46.8842954,50.0482724,0.0],[46.8841905,50.0483181,0.0],[46.884244,50.0483687,0.0]]]},"properties":{"addr:housenumber":"5","building:levels":"1","addr:street":"улица Лея Рот","source":"Bing","building":"house","addr:city":"Палласовка"}},{"type":"Feature","geometry":{"type":"Polygon","coordinates":[[[46.8847027,50.0484033,0.0],[46.8847977,50.0483684,0.0],[46.8847232,50.0482847,0.0],[46.8846282,50.0483196,0.0],[46.8847027,50.0484033,0.0]]]},"properties":{"addr:housenumber":"7","building:levels":"1","addr:street":"улица Лея Рот","source":"Bing","building":"house","addr:city":"Палласовка"}},{"type":"Feature","geometry":{"type":"Polygon","coordinates":[[[46.8837966,50.0488632,0.0],[46.8838376,50.0488449,0.0],[46.8838732,50.0488777,0.0],[46.884036,50.048805,0.0],[46.8839873,50.04876,0.0],[46.8840208,50.0487451,0.0],[46.8838682,50.0486043,0.0],[46.8838159,50.0486276,0.0],[46.883776,50.0485909,0.0],[46.8836354,50.0486537,0.0],[46.8837546,50.0487637,0.0],[46.8837102,50.0487835,0.0],[46.8837966,50.0488632,0.0]]]},"properties":{"addr:housenumber":"14","building:levels":"2","addr:street":"Береговая улица","source":"Bing","building":"house","addr:city":"Палласовка"}},{"type":"Feature","geometry":{"type":"Polygon","coordinates":[[[46.8831959,50.0493692,0.0],[46.8833083,50.0493127,0.0],[46.8832457,50.0492614,0.0],[46.8832168,50.0492759,0.0],[46.88318,50.0492458,0.0],[46.8830966,50.0492877,0.0],[46.8831959,50.0493692,0.0]]]},"properties":{"addr:housenumber":"8","building:levels":"1","addr:street":"Береговая улица","source":"Bing","building":"house","addr:city":"Палласовка"}},{"type":"Feature","geometry":{"type":"Polygon","coordinates":[[[46.8842949,50.0486666,0.0],[46.8844285,50.0486063,0.0],[46.8843442,50.0485294,0.0],[46.8842106,50.0485897,0.0],[46.8842949,50.0486666,0.0]]]},"properties":{"addr:housenumber":"16","building:levels":"1","addr:street":"Береговая улица","source":"Bing","building":"house","addr:city":"Палласовка"}},{"type":"Feature","geometry":{"type":"Polygon","coordinates":[[[46.8841712,50.0487307,0.0],[46.8842286,50.0486981,0.0],[46.8841435,50.0486363,0.0],[46.8840861,50.0486689,0.0],[46.8841712,50.0487307,0.0]]]},"properties":{"source":"Bing","building":"garage"}},{"type":"Feature","geometry":{"type":"Polygon","coordinates":[[[46.8833921,50.049222,0.0],[46.8835829,50.0491345,0.0],[46.8835181,50.0490763,0.0],[46.8833273,50.0491638,0.0],[46.8833921,50.049222,0.0]]]},"properties":{"addr:housenumber":"10","building:levels":"1","addr:street":"Береговая улица","source":"Bing","building":"house","addr:city":"Палласовка"}},{"type":"Feature","geometry":{"type":"Polygon","coordinates":[[[46.8833774,50.04881,0.0],[46.8835095,50.0487365,0.0],[46.88338,50.0486405,0.0],[46.8832479,50.0487141,0.0],[46.8833774,50.04881,0.0]]]},"properties":{"addr:housenumber":"12","building:levels":"1","addr:street":"Береговая улица","source":"Bing","building":"house","addr:city":"Палласовка"}},{"type":"Feature","geometry":{"type":"Polygon","coordinates":[[[46.8844203,50.0491703,0.0],[46.884534,50.0491195,0.0],[46.8844449,50.0490373,0.0],[46.8843313,50.0490881,0.0],[46.8844203,50.0491703,0.0]]]},"properties":{"addr:housenumber":"91А","source":"Bing","building":"house"}},{"type":"Feature","geometry":{"type":"Polygon","coordinates":[[[46.8836495,50.049665,0.0],[46.8838262,50.0496038,0.0],[46.8837479,50.0495106,0.0],[46.8837074,50.0495246,0.0],[46.8836821,50.0494946,0.0],[46.8835954,50.0495246,0.0],[46.883634,50.0495705,0.0],[46.8835844,50.0495877,0.0],[46.8836495,50.049665,0.0]]]},"properties":{"addr:housenumber":"2","building:levels":"2","addr:street":"Первомайская улица","source":"Bing","building":"house","addr:city":"Палласовка"}},{"type":"Feature","geometry":{"type":"Polygon","coordinates":[[[46.8838871,50.0492871,0.0],[46.8839829,50.0492485,0.0],[46.8839036,50.0491672,0.0],[46.8838078,50.0492057,0.0],[46.8838871,50.0492871,0.0]]]},"properties":{"addr:housenumber":"89","source":"Bing","building":"house"}},{"type":"Feature","geometry":{"type":"Polygon","coordinates":[[[46.8842357,50.0494509,0.0],[46.8843712,50.0494064,0.0],[46.88432,50.049342,0.0],[46.8842585,50.0493622,0.0],[46.8842767,50.0493851,0.0],[46.8842027,50.0494094,0.0],[46.8842357,50.0494509,0.0]]]},"properties":{"addr:housenumber":"4","building:levels":"1","addr:street":"улица Ильича","source":"Bing","building":"house","addr:city":"Палласовка"}},{"type":"Feature","geometry":{"type":"Polygon","coordinates":[[[46.8838897,50.0495852,0.0],[46.8840343,50.049536,0.0],[46.8839596,50.0494455,0.0],[46.883815,50.0494947,0.0],[46.8838897,50.0495852,0.0]]]},"properties":{"addr:housenumber":"2","building:levels":"1","addr:street":"улица Ильича","source":"Bing","building":"house","addr:city":"Палласовка"}},{"type":"Feature","geometry":{"type":"Polygon","coordinates":[[[46.884603,50.0489313,0.0],[46.8847379,50.048885,0.0],[46.8846354,50.0487619,0.0],[46.8845005,50.0488082,0.0],[46.884603,50.0489313,0.0]]]},"properties":{"addr:housenumber":"93","source":"Bing","building":"house"}},{"type":"Feature","geometry":{"type":"Polygon","coordinates":[[[46.8841636,50.0491581,0.0],[46.8842586,50.0490996,0.0],[46.8841633,50.0490359,0.0],[46.8840683,50.0490943,0.0],[46.8841636,50.0491581,0.0]]]},"properties":{"addr:housenumber":"91","source":"Bing","building":"house"}},{"type":"Feature","geometry":{"type":"Polygon","coordinates":[[[46.8846182,50.049324,0.0],[46.8847245,50.049292,0.0],[46.8846554,50.0491973,0.0],[46.8845491,50.0492293,0.0],[46.8846182,50.049324,0.0]]]},"properties":{"addr:housenumber":"6","building:levels":"1","addr:street":"улица Ильича","source":"Bing","building":"house","addr:city":"Палласовка"}},{"type":"Feature","geometry":{"type":"Polygon","coordinates":[[[46.8757349,50.0511309,0.0],[46.8758594,50.0511236,0.0],[46.8758494,50.0510537,0.0],[46.8757249,50.051061,0.0],[46.8757349,50.0511309,0.0]]]},"properties":{"source":"Bing","building":"house"}},{"type":"Feature","geometry":{"type":"Polygon","coordinates":[[[46.8753388,50.0505707,0.0],[46.8755049,50.0505633,0.0],[46.8754947,50.0504687,0.0],[46.8753285,50.0504761,0.0],[46.8753388,50.0505707,0.0]]]},"properties":{"source":"Bing","building":"house"}},{"type":"Feature","geometry":{"type":"Polygon","coordinates":[[[46.8760959,50.0507115,0.0],[46.876283,50.0507025,0.0],[46.8762746,50.0506307,0.0],[46.8761939,50.0506346,0.0],[46.8761849,50.050558,0.0],[46.8760786,50.0505632,0.0],[46.8760959,50.0507115,0.0]]]},"properties":{"source":"Bing","building":"house"}},{"type":"Feature","geometry":{"type":"Polygon","coordinates":[[[46.8767844,50.0510463,0.0],[46.8769082,50.0510404,0.0],[46.876899,50.0509614,0.0],[46.8768098,50.0509657,0.0],[46.8768126,50.0509897,0.0],[46.8767781,50.0509914,0.0],[46.8767844,50.0510463,0.0]]]},"properties":{"building":"house"}},{"type":"Feature","geometry":{"type":"Polygon","coordinates":[[[46.8766474,50.0504743,0.0],[46.8767305,50.0504722,0.0],[46.8767257,50.050393,0.0],[46.8766426,50.050395,0.0],[46.8766474,50.0504743,0.0]]]},"properties":{"source":"Bing","building":"house"}},{"type":"Feature","geometry":{"type":"Polygon","coordinates":[[[46.8756827,50.0509128,0.0],[46.8758368,50.0509078,0.0],[46.8758311,50.0508346,0.0],[46.875677,50.0508396,0.0],[46.8756827,50.0509128,0.0]]]},"properties":{"source":"Bing","building":"house"}},{"type":"Feature","geometry":{"type":"Polygon","coordinates":[[[46.8768219,50.0502675,0.0],[46.8769587,50.0502622,0.0],[46.8769535,50.0502071,0.0],[46.8768167,50.0502124,0.0],[46.8768219,50.0502675,0.0]]]},"properties":{"source":"Bing","building":"yes"}},{"type":"Feature","geometry":{"type":"Polygon","coordinates":[[[46.8761386,50.0510954,0.0],[46.8762739,50.0510897,0.0],[46.8762681,50.0510329,0.0],[46.8761328,50.0510386,0.0],[46.8761386,50.0510954,0.0]]]},"properties":{"source":"Bing","building":"house"}},{"type":"Feature","geometry":{"type":"Polygon","coordinates":[[[46.8761114,50.0508963,0.0],[46.8762654,50.0508876,0.0],[46.8762584,50.050836,0.0],[46.8761044,50.0508447,0.0],[46.8761114,50.0508963,0.0]]]},"properties":{"source":"Bing","building":"house"}},{"type":"Feature","geometry":{"type":"Polygon","coordinates":[[[46.8760719,50.0504961,0.0],[46.8761831,50.0504888,0.0],[46.8761728,50.0504239,0.0],[46.8760616,50.0504312,0.0],[46.8760719,50.0504961,0.0]]]},"properties":{"source":"Bing","building":"house"}},{"type":"Feature","geometry":{"type":"Polygon","coordinates":[[[46.876109,50.0507928,0.0],[46.8762374,50.0507868,0.0],[46.8762316,50.0507362,0.0],[46.8761032,50.0507422,0.0],[46.876109,50.0507928,0.0]]]},"properties":{"source":"Bing","building":"house"}},{"type":"Feature","geometry":{"type":"Polygon","coordinates":[[[46.8764167,50.0510857,0.0],[46.8765238,50.0510833,0.0],[46.8765208,50.0510274,0.0],[46.8764137,50.0510298,0.0],[46.8764167,50.0510857,0.0]]]},"properties":{"source":"Bing","building":"house"}},{"type":"Feature","geometry":{"type":"Polygon","coordinates":[[[46.879486,50.049951,0.0],[46.8796547,50.0499817,0.0],[46.8796969,50.049886,0.0],[46.8795281,50.0498554,0.0],[46.879486,50.049951,0.0]]]},"properties":{"source":"Bing","building":"yes"}},{"type":"Feature","geometry":{"type":"Polygon","coordinates":[[[46.8792898,50.0501031,0.0],[46.8794801,50.0501361,0.0],[46.8795054,50.0500759,0.0],[46.8795843,50.0500895,0.0],[46.8796254,50.0499919,0.0],[46.8793561,50.0499452,0.0],[46.8792898,50.0501031,0.0]]]},"properties":{"source":"Bing","building":"yes"}},{"type":"Feature","geometry":{"type":"Polygon","coordinates":[[[46.8793875,50.0503489,0.0],[46.8798446,50.0502948,0.0],[46.8798153,50.0501927,0.0],[46.8793582,50.0502467,0.0],[46.8793875,50.0503489,0.0]]]},"properties":{"source":"Bing","building":"yes"}},{"type":"Feature","geometry":{"type":"Polygon","coordinates":[[[46.8788571,50.0502806,0.0],[46.8790216,50.0502692,0.0],[46.8790125,50.0502147,0.0],[46.878848,50.0502261,0.0],[46.8788571,50.0502806,0.0]]]},"properties":{"source":"Bing","building":"yes"}},{"type":"Feature","geometry":{"type":"Polygon","coordinates":[[[46.8779979,50.0503617,0.0],[46.8781627,50.0503499,0.0],[46.8781329,50.0501784,0.0],[46.8779681,50.0501903,0.0],[46.8779979,50.0503617,0.0]]]},"properties":{"source":"Bing","building":"apartments"}},{"type":"Feature","geometry":{"type":"Polygon","coordinates":[[[46.878521,50.0503838,0.0],[46.878649,50.0503866,0.0],[46.8786587,50.0502058,0.0],[46.8785307,50.0502029,0.0],[46.878521,50.0503838,0.0]]]},"properties":{"source":"Bing","building":"yes"}},{"type":"Feature","geometry":{"type":"Polygon","coordinates":[[[46.8790406,50.0502916,0.0],[46.8792686,50.0502769,0.0],[46.8792559,50.0501954,0.0],[46.8790279,50.0502101,0.0],[46.8790406,50.0502916,0.0]]]},"properties":{"source":"Bing","building":"yes"}},{"type":"Feature","geometry":{"type":"Polygon","coordinates":[[[46.8780623,50.0507154,0.0],[46.8783467,50.0506929,0.0],[46.8783188,50.0505475,0.0],[46.8780343,50.05057,0.0],[46.8780623,50.0507154,0.0]]]},"properties":{"addr:housenumber":"13","building:levels":"2","addr:street":"Стахановская улица","source":"Bing","building":"apartments","addr:city":"Палласовка"}},{"type":"Feature","geometry":{"type":"Polygon","coordinates":[[[46.8781154,50.0509816,0.0],[46.8782867,50.0509701,0.0],[46.878259,50.0508003,0.0],[46.8780876,50.0508118,0.0],[46.8781154,50.0509816,0.0]]]},"properties":{"source":"Bing","building":"apartments"}},{"type":"Feature","geometry":{"type":"Polygon","coordinates":[[[46.8785485,50.0506779,0.0],[46.8788252,50.0506629,0.0],[46.8788063,50.050519,0.0],[46.8785296,50.050534,0.0],[46.8785485,50.0506779,0.0]]]},"properties":{"addr:housenumber":"15","building:levels":"2","addr:street":"Стахановская улица","source":"Bing","building":"apartments","addr:city":"Палласовка"}},{"type":"Feature","geometry":{"type":"Point","coordinates":[46.8725038,50.0377651]},"properties":{"highway":"crossing"}},{"type":"Feature","geometry":{"type":"Point","coordinates":[46.8741516,50.0445123]},"properties":{"maxspeed":"RU:urban","highway":"crossing"}},{"type":"Feature","geometry":{"type":"Point","coordinates":[46.8809705,50.0529674]},"properties":{"maxspeed":"RU:urban","highway":"traffic_signals"}},{"type":"Feature","geometry":{"type":"Point","coordinates":[46.8753677,50.0533855]},"properties":{"maxspeed":"RU:urban","highway":"traffic_signals"}},{"type":"Feature","geometry":{"type":"Point","coordinates":[46.8746149,50.0478867]},"properties":{"highway":"crossing"}},{"type":"Feature","geometry":{"type":"Point","coordinates":[46.8747156,50.0477681]},"properties":{"maxspeed":"RU:urban","highway":"crossing"}},{"type":"Feature","geometry":{"type":"Point","coordinates":[46.8753238,50.0533249]},"properties":{"highway":"crossing"}},{"type":"Feature","geometry":{"type":"Point","coordinates":[46.8912594,50.0471508]},"properties":{"highway":"crossing"}},{"type":"Feature","geometry":{"type":"LineString","coordinates":[[46.8820031,50.050121,0.0],[46.8823222,50.0509178,0.0],[46.8824925,50.0513403,0.0]]},"properties":{"maxspeed":"RU:urban","highway":"residential"}},{"type":"Feature","geometry":{"type":"LineString","coordinates":[[46.8945446,50.0448227,0.0],[46.8934803,50.0451729,0.0],[46.8928467,50.045408,0.0],[46.8926009,50.0455689,0.0],[46.8923712,50.0455675,0.0],[46.8906756,50.0462059,0.0],[46.8888058,50.0468082,0.0],[46.8887252,50.0469404,0.0],[46.8885346,50.0469251,0.0],[46.8882091,50.0469964,0.0],[46.887781,50.0471213,0.0],[46.8867298,50.0475075,0.0],[46.8848169,50.0482354,0.0]]},"properties":{"surface":"dirt","lanes":"1","maxspeed":"RU:urban","name":"Береговая улица","highway":"residential"}},{"type":"Feature","geometry":{"type":"LineString","coordinates":[[46.8801594,50.0496648,0.0],[46.8799791,50.0489747,0.0]]},"properties":{"bridge":"yes","highway":"footway","layer":"1"}},{"type":"Feature","geometry":{"type":"LineString","coordinates":[[46.8802126,50.0498537,0.0],[46.879255,50.0497686,0.0],[46.8786861,50.0496402,0.0],[46.8782352,50.0495017,0.0],[46.8771064,50.0490303,0.0],[46.8770285,50.0489978,0.0],[46.876553,50.0487517,0.0],[46.8763543,50.0486371,0.0],[46.8761502,50.0482112,0.0],[46.8760346,50.04797,0.0],[46.8758732,50.0477628,0.0],[46.8757673,50.0477598,0.0],[46.8754495,50.0477509,0.0],[46.8747156,50.0477681,0.0],[46.8746036,50.0477708,0.0]]},"properties":{"maxspeed":"RU:urban","name":"Береговая улица","highway":"residential"}},{"type":"Feature","geometry":{"type":"LineString","coordinates":[[46.8802126,50.0498537,0.0],[46.8801594,50.0496648,0.0]]},"properties":{"highway":"footway"}},{"type":"Feature","geometry":{"type":"LineString","coordinates":[[46.8755794,50.0494481,0.0],[46.8755562,50.0490247,0.0],[46.8755408,50.0487429,0.0],[46.8755161,50.0482907,0.0],[46.8755104,50.0482446,0.0],[46.8754495,50.0477509,0.0],[46.8753479,50.046731,0.0],[46.8752635,50.0458831,0.0],[46.8744135,50.0459009,0.0]]},"properties":{"surface":"dirt","maxspeed":"RU:urban","name":"Интернациональная улица","highway":"residential"}},{"type":"Feature","geometry":{"type":"LineString","coordinates":[[46.876553,50.0487517,0.0],[46.8764035,50.048879,0.0],[46.8763236,50.0489583,0.0],[46.8761197,50.0492407,0.0],[46.8759797,50.0494474,0.0],[46.8759153,50.0495438,0.0],[46.875912,50.0496232,0.0],[46.8759105,50.049661,0.0],[46.8758723,50.0498254,0.0],[46.8758874,50.0504284,0.0],[46.8759878,50.0511717,0.0],[46.8760894,50.0516886,0.0],[46.8761652,50.0524539,0.0],[46.8761438,50.0526072,0.0],[46.8761086,50.0526853,0.0],[46.8760311,50.0527277,0.0],[46.8758324,50.0527508,0.0]]},"properties":{"surface":"dirt","maxspeed":"RU:urban","name":"Интернациональная улица","highway":"residential"}},{"type":"Feature","geometry":{"type":"LineString","coordinates":[[46.8748653,50.0504596,0.0],[46.8758874,50.0504284,0.0],[46.8760767,50.0503695,0.0],[46.8766936,50.0503325,0.0],[46.8767918,50.0503267,0.0],[46.8770473,50.0502654,0.0],[46.8774691,50.0502983,0.0]]},"properties":{"surface":"dirt","maxspeed":"RU:urban","name":"Стахановская улица","highway":"residential"}},{"type":"Feature","geometry":{"type":"LineString","coordinates":[[46.8749369,50.0512518,0.0],[46.8759878,50.0511717,0.0],[46.8772429,50.0510684,0.0],[46.8777542,50.0510291,0.0],[46.8778096,50.0510377,0.0],[46.8781287,50.0510877,0.0],[46.8784275,50.0510118,0.0],[46.8789571,50.0509463,0.0],[46.8794301,50.0509292,0.0],[46.8798155,50.0509235,0.0]]},"properties":{"surface":"dirt","maxspeed":"RU:urban","name":"улица Горького","highway":"residential"}},{"type":"Feature","geometry":{"type":"LineString","coordinates":[[46.8888823,50.0440398,0.0],[46.8879426,50.0442648,0.0],[46.8859775,50.0446975,0.0],[46.8852707,50.0448532,0.0],[46.8818336,50.0455967,0.0],[46.8809773,50.0457832,0.0],[46.8800421,50.0459869,0.0]]},"properties":{"lanes":"2","maxspeed":"RU:urban","name":"улица Будённого","highway":"residential","oneway":"no"}},{"type":"Feature","geometry":{"type":"LineString","coordinates":[[46.877887,50.0464057,0.0],[46.8777618,50.0459543,0.0],[46.8772845,50.0442341,0.0],[46.8772752,50.044185,0.0],[46.8772631,50.0441212,0.0],[46.8772099,50.0439011,0.0],[46.8769562,50.0430658,0.0],[46.8768944,50.0428484,0.0],[46.876701,50.0423553,0.0],[46.8766697,50.0423048,0.0],[46.8766295,50.0422399,0.0],[46.8764636,50.0417066,0.0],[46.8762442,50.0410015,0.0],[46.8762248,50.0409077,0.0],[46.8761899,50.0406904,0.0],[46.8761385,50.0388405,0.0],[46.8760964,50.0386792,0.0],[46.8760731,50.0385608,0.0],[46.8761355,50.0384688,0.0],[46.876252,50.0383267,0.0],[46.8766133,50.0380134,0.0],[46.8769271,50.0377033,0.0],[46.8771139,50.0375451,0.0],[46.8771739,50.0374936,0.0]]},"properties":{"surface":"dirt","maxspeed":"RU:urban","name":"Заречная улица","highway":"residential"}},{"type":"Feature","geometry":{"type":"LineString","coordinates":[[46.8810917,50.046896,0.0],[46.8815496,50.0476895,0.0],[46.8816966,50.0477856,0.0],[46.881854,50.0478726,0.0],[46.8819117,50.0480545,0.0],[46.8811642,50.0482887,0.0]]},"properties":{"surface":"dirt","maxspeed":"RU:urban","name":"улица Крупской","highway":"residential"}},{"type":"Feature","geometry":{"type":"LineString","coordinates":[[46.8800421,50.0459869,0.0],[46.880474,50.0467092,0.0],[46.8805612,50.046824,0.0],[46.880664,50.0468696,0.0],[46.8809013,50.04689,0.0],[46.8810917,50.046896,0.0]]},"properties":{"maxspeed":"RU:urban","highway":"residential"}},{"type":"Feature","geometry":{"type":"LineString","coordinates":[[46.8810917,50.046896,0.0],[46.8813861,50.0468311,0.0],[46.8818895,50.0467202,0.0],[46.8824046,50.0465613,0.0],[46.8832961,50.0462986,0.0],[46.8833937,50.0462403,0.0],[46.8834474,50.0461754,0.0],[46.8834994,50.046083,0.0],[46.8835301,50.0460238,0.0],[46.8835776,50.0459674,0.0],[46.883749,50.0459186,0.0],[46.8862317,50.045383,0.0],[46.8875801,50.045092,0.0],[46.8894083,50.0446976,0.0]]},"properties":{"surface":"dirt","maxspeed":"RU:urban","name":"улица Дзержинского","highway":"residential"}},{"type":"Feature","geometry":{"type":"LineString","coordinates":[[46.8845772,50.0479197,0.0],[46.8848169,50.0482354,0.0],[46.884955,50.0484216,0.0],[46.8855065,50.0491309,0.0],[46.8862728,50.0500768,0.0],[46.8868375,50.0507882,0.0],[46.8869758,50.0509625,0.0],[46.8870442,50.0510486,0.0],[46.8877862,50.0519527,0.0],[46.8885285,50.0528728,0.0],[46.8893396,50.0538641,0.0],[46.8900857,50.0547877,0.0],[46.8908711,50.0557022,0.0],[46.8916145,50.056605,0.0],[46.8920894,50.057185,0.0]]},"properties":{"surface":"dirt","maxspeed":"RU:urban","name":"улица Лея Рот","highway":"residential"}},{"type":"Feature","geometry":{"type":"LineString","coordinates":[[46.8809705,50.0529674,0.0],[46.8809544,50.0529011,0.0],[46.880837,50.052419,0.0],[46.8807994,50.0522645,0.0],[46.8805193,50.0511139,0.0],[46.8803446,50.0503959,0.0]]},"properties":{"horse":"no","motor_vehicle":"no","maxspeed":"RU:urban","name":"Коммунистическая улица","highway":"residential","oneway":"no"}},{"type":"Feature","geometry":{"type":"LineString","coordinates":[[46.8774691,50.0502983,0.0],[46.8774455,50.0496187,0.0]]},"properties":{"highway":"cycleway"}},{"type":"Feature","geometry":{"type":"LineString","coordinates":[[46.8713987,50.0362793,0.0],[46.8719076,50.0362715,0.0],[46.8720366,50.0362887,0.0],[46.8721933,50.0363282,0.0],[46.8723077,50.0363971,0.0],[46.87237,50.0364552,0.0],[46.8724245,50.0365695,0.0],[46.8724368,50.0367314,0.0],[46.8724714,50.0371879,0.0],[46.8725038,50.0377651,0.0],[46.8725165,50.0379292,0.0],[46.8725394,50.0383367,0.0],[46.8725503,50.0385619,0.0],[46.8725759,50.0389333,0.0],[46.872609,50.0393428,0.0],[46.8727106,50.0396477,0.0],[46.872778,50.0398315,0.0],[46.873644,50.0421616,0.0],[46.8736521,50.0421836,0.0],[46.8737646,50.042576,0.0],[46.873805,50.0427621,0.0],[46.8739564,50.0435565,0.0],[46.8741516,50.0445123,0.0],[46.8743109,50.0452887,0.0],[46.8743429,50.04546,0.0],[46.8743895,50.0456933,0.0],[46.8744135,50.0459009,0.0],[46.8744825,50.0466468,0.0],[46.8745128,50.0469742,0.0],[46.8746036,50.0477708,0.0],[46.8746149,50.0478867,0.0],[46.8747869,50.0496538,0.0],[46.8747946,50.0497334,0.0],[46.8748653,50.0504596,0.0],[46.8749369,50.0512518,0.0],[46.8749615,50.0517575,0.0],[46.8750232,50.0527377,0.0],[46.8750402,50.0527837,0.0],[46.875126,50.0530173,0.0],[46.8752168,50.0531772,0.0],[46.8753238,50.0533249,0.0],[46.8753677,50.0533855,0.0],[46.8757376,50.0554499,0.0],[46.8758121,50.0560219,0.0],[46.875852,50.0563279,0.0],[46.8759079,50.0567569,0.0],[46.8759891,50.0573805,0.0],[46.8761951,50.0586644,0.0]]},"properties":{"ref":"18К-9","surface":"asphalt","lanes":"2","maxspeed":"40","name":"Юбилейная улица","highway":"secondary","oneway":"no"}},{"type":"Feature","geometry":{"type":"LineString","coordinates":[[46.8794301,50.0509292,0.0],[46.8793702,50.0505186,0.0],[46.8793621,50.0504448,0.0],[46.8790387,50.0504309,0.0],[46.8788471,50.0504413,0.0],[46.8785601,50.050462,0.0],[46.878409,50.0504689,0.0]]},"properties":{"maxspeed":"RU:urban","highway":"unclassified"}},{"type":"Feature","geometry":{"type":"LineString","coordinates":[[46.8823222,50.0509178,0.0],[46.8811854,50.0509987,0.0]]},"properties":{"maxspeed":"RU:urban","highway":"residential"}},{"type":"Feature","geometry":{"type":"LineString","coordinates":[[46.8824333,50.0493976,0.0],[46.8829,50.0492323,0.0],[46.8832203,50.0495061,0.0]]},"properties":{"surface":"dirt","lanes":"1","maxspeed":"RU:urban","name":"Первомайская улица","highway":"residential"}},{"type":"Feature","geometry":{"type":"LineString","coordinates":[[46.8798155,50.0509235,0.0],[46.8798825,50.0509442,0.0],[46.8799431,50.0511847,0.0],[46.8799575,50.0512421,0.0],[46.8801265,50.0519999,0.0],[46.8801099,50.0520346,0.0],[46.8800675,50.0520636,0.0],[46.8800031,50.052086,0.0],[46.8794184,50.0521376,0.0]]},"properties":{"highway":"service"}},{"type":"Feature","geometry":{"type":"LineString","coordinates":[[46.8785083,50.0437255,0.0],[46.8787427,50.0440663,0.0],[46.8787574,50.044088,0.0],[46.8800421,50.0459869,0.0]]},"properties":{"maxspeed":"RU:urban","name":"Красноармейская улица","highway":"residential"}},{"type":"Feature","geometry":{"type":"LineString","coordinates":[[46.8752437,50.045417,0.0],[46.8743429,50.04546,0.0]]},"properties":{"surface":"dirt","highway":"service"}},{"type":"Feature","geometry":{"type":"LineString","coordinates":[[46.8753479,50.046731,0.0],[46.8757255,50.0467011,0.0]]},"properties":{"surface":"dirt","maxspeed":"RU:urban","highway":"unclassified"}},{"type":"Feature","geometry":{"type":"LineString","coordinates":[[46.8758732,50.0477628,0.0],[46.8758796,50.0476508,0.0],[46.8758934,50.0475818,0.0],[46.8758934,50.0474991,0.0],[46.8758505,50.047258,0.0],[46.8757647,50.0468859,0.0],[46.8757255,50.0467011,0.0],[46.8756869,50.0465191,0.0],[46.875593,50.0461832,0.0],[46.8755206,50.0460299,0.0],[46.8754375,50.0459386,0.0],[46.8753409,50.0458921,0.0],[46.8752635,50.0458831,0.0],[46.8752905,50.0458168,0.0],[46.8752959,50.0457341,0.0],[46.8752437,50.045417,0.0],[46.8752212,50.0453154,0.0],[46.8752051,50.0452189,0.0],[46.8751188,50.04444,0.0]]},"properties":{"surface":"dirt","maxspeed":"RU:urban","name":"Береговая улица","highway":"residential"}},{"type":"Feature","geometry":{"type":"LineString","coordinates":[[46.8755408,50.0487429,0.0],[46.8757062,50.0487172,0.0],[46.8759074,50.0486931,0.0],[46.8761488,50.0486673,0.0],[46.8763543,50.0486371,0.0]]},"properties":{"surface":"dirt","maxspeed":"RU:urban","highway":"unclassified"}},{"type":"Feature","geometry":{"type":"LineString","coordinates":[[46.8747869,50.0496538,0.0],[46.8749955,50.0496042,0.0],[46.8751216,50.0495612,0.0],[46.8752342,50.0495267,0.0],[46.8752852,50.0495009,0.0],[46.8752932,50.0494475,0.0],[46.875371,50.0491891,0.0],[46.8753844,50.0491254,0.0],[46.8754139,50.0491013,0.0],[46.8754783,50.04906,0.0],[46.8755562,50.0490247,0.0]]},"properties":{"surface":"dirt","highway":"service"}},{"type":"Feature","geometry":{"type":"LineString","coordinates":[[46.8755104,50.0482446,0.0],[46.8756285,50.0482437,0.0],[46.8758914,50.0482385,0.0],[46.8760496,50.0482264,0.0],[46.8761502,50.0482112,0.0]]},"properties":{"surface":"dirt","highway":"service"}},{"type":"Feature","geometry":{"type":"LineString","coordinates":[[46.8799431,50.0511847,0.0],[46.8805193,50.0511139,0.0]]},"properties":{"highway":"service"}},{"type":"Feature","geometry":{"type":"LineString","coordinates":[[46.877366,50.051588,0.0],[46.8773984,50.0515502,0.0],[46.8774685,50.0515332,0.0],[46.8776563,50.051516,0.0],[46.8778038,50.0514695,0.0]]},"properties":{"surface":"dirt","highway":"service"}},{"type":"Feature","geometry":{"type":"LineString","coordinates":[[46.8771064,50.0490303,0.0],[46.8771547,50.0491444,0.0],[46.877203,50.0492408,0.0],[46.8772432,50.0492839,0.0],[46.8773317,50.0493528,0.0],[46.877447,50.0494475,0.0],[46.8774842,50.0494758,0.0],[46.8775195,50.0495026,0.0],[46.877557,50.0495577,0.0],[46.8775651,50.0496748,0.0],[46.8775731,50.0498316,0.0],[46.8775812,50.049978,0.0],[46.8775902,50.0501399,0.0],[46.8775919,50.0501709,0.0],[46.8775972,50.0503741,0.0],[46.8776133,50.050424,0.0],[46.8776214,50.0504843,0.0],[46.8776428,50.0505687,0.0],[46.8776965,50.0508098,0.0],[46.8777542,50.0510291,0.0],[46.877758,50.0511094,0.0],[46.8777609,50.0511853,0.0],[46.8777662,50.0512783,0.0],[46.8778038,50.0514695,0.0],[46.8778225,50.0515521,0.0],[46.8778386,50.0515917,0.0],[46.8778644,50.0517788,0.0],[46.8780344,50.0519276,0.0],[46.878083,50.0520578,0.0],[46.8781766,50.0527095,0.0],[46.8782811,50.0531942,0.0]]},"properties":{"surface":"dirt","maxspeed":"RU:urban","name":"улица Кирова","highway":"residential"}},{"type":"Feature","geometry":{"type":"LineString","coordinates":[[46.8748653,50.0504596,0.0],[46.874741,50.05045,0.0],[46.8746981,50.0504345,0.0],[46.8746418,50.0504103,0.0],[46.8745586,50.0504035,0.0],[46.874446,50.0504017,0.0],[46.8742233,50.0503759,0.0],[46.8741134,50.0503828,0.0],[46.874049,50.0504241,0.0],[46.8740222,50.0504827,0.0],[46.87399,50.0505344,0.0],[46.8739766,50.0505619,0.0],[46.8739739,50.0505998,0.0],[46.873998,50.0506342,0.0],[46.8740249,50.0506842,0.0],[46.8740624,50.0507238,0.0],[46.8740919,50.0507617,0.0],[46.8740866,50.0507892,0.0],[46.8740436,50.050822,0.0],[46.873982,50.0508512,0.0],[46.8738961,50.0508805,0.0],[46.8738103,50.050896,0.0],[46.8737352,50.050896,0.0],[46.8737003,50.0508822,0.0],[46.873652,50.0508495,0.0],[46.8736359,50.0507961,0.0],[46.8736383,50.0504637,0.0],[46.8736386,50.0504155,0.0],[46.8736225,50.0500246,0.0],[46.8736091,50.0499195,0.0],[46.8736225,50.0498454,0.0],[46.8736413,50.0498162,0.0],[46.873705,50.0497586,0.0]]},"properties":{"surface":"dirt","highway":"service"}},{"type":"Feature","geometry":{"type":"LineString","coordinates":[[46.875912,50.0496232,0.0],[46.8760177,50.0496388,0.0],[46.8762055,50.0496319,0.0],[46.87653,50.0496095,0.0],[46.876809,50.0495957,0.0],[46.8770987,50.0495578,0.0],[46.8773213,50.049513,0.0],[46.8774842,50.0494758,0.0]]},"properties":{"surface":"dirt","maxspeed":"RU:urban","highway":"residential"}},{"type":"Feature","geometry":{"type":"LineString","coordinates":[[46.8830317,50.0503208,0.0],[46.882878,50.0499707,0.0]]},"properties":{"surface":"dirt","highway":"service"}},{"type":"Feature","geometry":{"type":"LineString","coordinates":[[46.876995,50.0461317,0.0],[46.8773436,50.0460525,0.0],[46.8777618,50.0459543,0.0]]},"properties":{"highway":"track"}},{"type":"Feature","geometry":{"type":"LineString","coordinates":[[46.8814074,50.0448431,0.0],[46.8817783,50.0455001,0.0],[46.8818336,50.0455967,0.0]]},"properties":{"highway":"service"}},{"type":"Feature","geometry":{"type":"LineString","coordinates":[[46.8809773,50.0457832,0.0],[46.8810359,50.0459115,0.0],[46.8810198,50.0459494,0.0],[46.8809903,50.0459976,0.0],[46.8810072,50.0460753,0.0],[46.8810198,50.046132,0.0],[46.8810788,50.0462509,0.0],[46.8811137,50.0463628,0.0],[46.8813861,50.0468311,0.0]]},"properties":{"surface":"dirt","highway":"service"}},{"type":"Feature","geometry":{"type":"LineString","coordinates":[[46.8825217,50.0476838,0.0],[46.8818895,50.0467202,0.0]]},"properties":{"highway":"service"}},{"type":"Feature","geometry":{"type":"LineString","coordinates":[[46.8830961,50.0476538,0.0],[46.8831225,50.0476011,0.0],[46.8831637,50.0475446,0.0],[46.8832978,50.0474154,0.0],[46.8837046,50.0470982,0.0],[46.8837538,50.0470485,0.0],[46.8837618,50.0469917,0.0],[46.8837099,50.046907,0.0],[46.8832961,50.0462986,0.0]]},"properties":{"surface":"dirt","maxspeed":"RU:urban","name":"улица Дзержинского","highway":"residential"}},{"type":"Feature","geometry":{"type":"LineString","coordinates":[[46.8832203,50.0495061,0.0],[46.88351,50.0498169,0.0],[46.8844009,50.0508465,0.0],[46.8850532,50.0516003,0.0],[46.8850849,50.051723,0.0],[46.8858546,50.0526347,0.0],[46.8865656,50.0535335,0.0],[46.8873924,50.0545374,0.0],[46.8881194,50.0554668,0.0],[46.8889037,50.0563892,0.0],[46.8897422,50.0573488,0.0],[46.8897841,50.0574188,0.0]]},"properties":{"surface":"dirt","lanes":"1","maxspeed":"RU:urban","name":"Первомайская улица","highway":"residential"}},{"type":"Feature","geometry":{"type":"LineString","coordinates":[[46.88351,50.0498169,0.0],[46.882878,50.0499707,0.0],[46.8820031,50.050121,0.0]]},"properties":{"surface":"dirt","maxspeed":"RU:urban","name":"улица Ильича","highway":"residential"}},{"type":"Feature","geometry":{"type":"LineString","coordinates":[[46.8914071,50.0470998,0.0],[46.8912594,50.0471508,0.0],[46.8894315,50.047782,0.0],[46.8874804,50.0484599,0.0],[46.8855065,50.0491309,0.0],[46.8848783,50.0493514,0.0],[46.88351,50.0498169,0.0]]},"properties":{"surface":"asphalt","lanes":"2","maxspeed":"RU:urban","name":"улица Ильича","highway":"residential"}},{"type":"Feature","geometry":{"type":"LineString","coordinates":[[46.8845772,50.0479197,0.0],[46.8856249,50.0473914,0.0],[46.8861859,50.0471917,0.0],[46.8864399,50.0471399,0.0]]},"properties":{"surface":"dirt","maxspeed":"RU:urban","name":"Тихий переулок","highway":"residential"}},{"type":"Feature","geometry":{"type":"LineString","coordinates":[[46.884955,50.0484216,0.0],[46.8832203,50.0495061,0.0]]},"properties":{"maxspeed":"RU:urban","name":"Береговая улица","highway":"residential"}},{"type":"Feature","geometry":{"type":"LineString","coordinates":[[46.8766959,50.0501796,0.0],[46.8766936,50.0503325,0.0]]},"properties":{"highway":"service"}},{"type":"Feature","geometry":{"type":"LineString","coordinates":[[46.8775902,50.0501399,0.0],[46.8777876,50.0501193,0.0],[46.8779512,50.0501262,0.0],[46.8782126,50.0501554,0.0]]},"properties":{"surface":"dirt","highway":"service"}},{"type":"Feature","geometry":{"type":"LineString","coordinates":[[46.8782368,50.0502449,0.0],[46.8782126,50.0501554,0.0],[46.8782409,50.0501072,0.0],[46.8783455,50.0499729,0.0],[46.8783598,50.0499571,0.0],[46.8784904,50.0498127,0.0],[46.8786861,50.0496402,0.0]]},"properties":{"surface":"dirt","highway":"service"}},{"type":"Feature","geometry":{"type":"LineString","coordinates":[[46.8783598,50.0499571,0.0],[46.8784084,50.0500727,0.0],[46.8784299,50.0501485,0.0],[46.878446,50.0502191,0.0],[46.8784528,50.050276,0.0],[46.8784501,50.0503535,0.0],[46.8784153,50.0504482,0.0],[46.878409,50.0504689,0.0],[46.8783831,50.0505549,0.0],[46.8783897,50.0507151,0.0],[46.8784045,50.05092,0.0],[46.8784275,50.0510118,0.0]]},"properties":{"surface":"dirt","highway":"service"}},{"type":"Feature","geometry":{"type":"LineString","coordinates":[[46.8840185,50.0516417,0.0],[46.8838335,50.051423,0.0],[46.8837959,50.0513558,0.0],[46.8837718,50.0512835,0.0],[46.8837557,50.0512077,0.0],[46.8837557,50.0511543,0.0],[46.8837718,50.0510975,0.0],[46.8838013,50.0510613,0.0],[46.8838643,50.0510288,0.0],[46.8844009,50.0508465,0.0]]},"properties":{"surface":"dirt","service":"live","highway":"service"}},{"type":"Feature","geometry":{"type":"LineString","coordinates":[[46.8803446,50.0503959,0.0],[46.8802126,50.0498537,0.0]]},"properties":{"horse":"no","motor_vehicle":"no","name":"Коммунистическая улица","highway":"pedestrian","oneway":"no"}},{"type":"Feature","geometry":{"type":"Polygon","coordinates":[[[46.8812553,50.0489001,0.0],[46.8804721,50.0488863,0.0],[46.8797318,50.0488656,0.0],[46.879131,50.048783,0.0],[46.8786589,50.0486727,0.0],[46.878262,50.0485005,0.0],[46.8780259,50.0483489,0.0],[46.8777255,50.0479976,0.0],[46.877586,50.0478873,0.0],[46.8775002,50.0477495,0.0],[46.8774895,50.0476944,0.0],[46.8774358,50.04766,0.0],[46.8805579,50.0469435,0.0],[46.8810515,50.0470468,0.0],[46.8814994,50.0477947,0.0],[46.8812231,50.0478598,0.0],[46.8811158,50.0477564,0.0],[46.8810622,50.0477151,0.0],[46.8805687,50.0478184,0.0],[46.8804614,50.0478529,0.0],[46.8806975,50.0483167,0.0],[46.8809013,50.0482869,0.0],[46.8812553,50.0489001,0.0]]]},"properties":{"name":"Городской парк","leisure":"park"}},{"type":"Feature","geometry":{"type":"Polygon","coordinates":[[[46.8767241,50.0466949,0.0],[46.8771747,50.047458,0.0],[46.8778559,50.0473029,0.0],[46.877923,50.0473116,0.0],[46.8778908,50.0473925,0.0],[46.8779605,50.0473994,0.0],[46.8780142,50.0473339,0.0],[46.8782583,50.0473701,0.0],[46.8799105,50.0470411,0.0],[46.8800178,50.0469722,0.0],[46.8800902,50.0468344,0.0],[46.8801117,50.0467466,0.0],[46.8801063,50.0466605,0.0],[46.8800956,50.0465899,0.0],[46.8800554,50.0465227,0.0],[46.8799829,50.046459,0.0],[46.8799239,50.0464228,0.0],[46.8797335,50.0460197,0.0],[46.8788528,50.0462173,0.0],[46.8767241,50.0466949,0.0]]]},"properties":{"barrier":"fence","name":"стадион \"Колос\"","leisure":"stadium"}},{"type":"Feature","geometry":{"type":"Polygon","coordinates":[[[46.8783985,50.047235,0.0],[46.8796632,50.0469366,0.0],[46.8793877,50.0464552,0.0],[46.878123,50.0467537,0.0],[46.8783985,50.047235,0.0]]]},"properties":{"leisure":"pitch","sport":"soccer"}},{"type":"Feature","geometry":{"type":"Point","coordinates":[46.8808586,50.0483836]},"properties":{"amenity":"parking"}},{"type":"Feature","geometry":{"type":"Point","coordinates":[46.8788662,50.0499952]},"properties":{"amenity":"restaurant","name":"Золотое руно"}},{"type":"Feature","geometry":{"type":"Point","coordinates":[46.8800062,50.0502116]},"properties":{"amenity":"post_office","name":"Почта"}},{"type":"Feature","geometry":{"type":"Point","coordinates":[46.8811142,50.0504945]},"properties":{"amenity":"library","name":"Центральная библиотека"}},{"type":"Feature","geometry":{"type":"Point","coordinates":[46.8800062,50.0505904]},"properties":{"amenity":"dentist","name":"Стоматология"}},{"type":"Feature","geometry":{"type":"Point","coordinates":[46.8801689,50.051053]},"properties":{"amenity":"library","name":"Детская библиотека"}},{"type":"Feature","geometry":{"type":"Point","coordinates":[46.8792615,50.0506738]},"properties":{"amenity":"bank","name":"Сбербанк"}},{"type":"Feature","geometry":{"type":"Point","coordinates":[46.8825526,50.047313]},"properties":{"amenity":"kindergarten","name":"Детский сад \"Ромашка\""}},{"type":"Feature","geometry":{"type":"Point","coordinates":[46.8814535,50.0509247]},"properties":{"amenity":"parking"}},{"type":"Feature","geometry":{"type":"Point","coordinates":[46.8821414,50.0499281]},"properties":{"amenity":"arts_centre","name":"Музыкальная школа"}},{"type":"Feature","geometry":{"type":"Point","coordinates":[46.8799881,50.0502587]},"properties":{"addr:housenumber":"1","amenity":"office","name":"ЕДС","opening_hours":"24/7","addr:street":"Коммунистическая улица","addr:city":"Палласовка"}},{"type":"Feature","geometry":{"type":"Polygon","coordinates":[[[46.8774044,50.0501351,0.0],[46.8759713,50.0502048,0.0],[46.8759439,50.0498121,0.0],[46.8760808,50.0498092,0.0],[46.8760671,50.0497066,0.0],[46.8766421,50.0496656,0.0],[46.877395,50.0496149,0.0],[46.8774044,50.0501351,0.0]]]},"properties":{"amenity":"kindergarten","name":"Детский сад \"Родничок\""}},{"type":"Feature","geometry":{"type":"Polygon","coordinates":[[[46.8815321,50.0527472,0.0],[46.8813398,50.0517723,0.0],[46.8831921,50.0514085,0.0],[46.8836183,50.0520903,0.0],[46.8815321,50.0527472,0.0]]]},"properties":{"ref":"17","barrier":"fence","amenity":"school","name":"Школа №17"}},{"type":"Feature","geometry":{"type":"Polygon","coordinates":[[[46.8783393,50.0453491,0.0],[46.8785995,50.0453215,0.0],[46.8786531,50.0455816,0.0],[46.8788436,50.045542,0.0],[46.8790742,50.0454938,0.0],[46.8794819,50.0453784,0.0],[46.8787202,50.0441571,0.0],[46.8784761,50.0441916,0.0],[46.8779799,50.0442725,0.0],[46.8781676,50.0449857,0.0],[46.8783393,50.0453491,0.0]]]},"properties":{"website":"http://sosh12.ucoz.ru/","barrier":"fence","amenity":"school","name":"Школа №12"}},{"type":"Feature","geometry":{"type":"Point","coordinates":[46.8750684,50.0505275]},"properties":{"shop":"convenience","name":"1000 мелочей","addr:street":"Юбилейная улица"}},{"type":"Feature","geometry":{"type":"Point","coordinates":[46.8749122,50.0489308]},"properties":{"shop":"convenience","name":"Астра"}},{"type":"Feature","geometry":{"type":"Point","coordinates":[46.8824738,50.050786]},"properties":{"shop":"hairdresser"}},{"type":"Feature","geometry":{"type":"Point","coordinates":[46.8750415,50.0478893]},"properties":{"shop":"car_parts"}}]}