{"type":"FeatureCollection","features":[{"type":"Feature","geometry":{"type":"Polygon","coordinates":[[[37.2814034,53.7057813,0.0],[37.282735,53.7062957,0.0],[37.2833492,53.7064885,0.0],[37.2856628,53.7051653,0.0],[37.2855901,53.7051372,0.0],[37.2840733,53.704551,0.0],[37.2838389,53.7044604,0.0],[37.2834526,53.7048795,0.0],[37.2824441,53.7045556,0.0],[37.2821707,53.7048081,0.0],[37.2820133,53.7049534,0.0],[37.2813712,53.7055464,0.0],[37.2814034,53.7057813,0.0]]]},"properties":{"landuse":"cemetery","name":"Всехсвятское (старое) кладбище","denomination":"orthodox","religion":"christian"}},{"type":"Feature","geometry":{"type":"Polygon","coordinates":[[[37.2858784,53.7115748,0.0],[37.2880429,53.7121059,0.0],[37.2880402,53.7121472,0.0],[37.2901698,53.7127527,0.0],[37.290884,53.7116655,0.0],[37.2916773,53.7105795,0.0],[37.2929217,53.7094442,0.0],[37.2930577,53.7093202,0.0],[37.2931042,53.7092777,0.0],[37.2924315,53.7090624,0.0],[37.2894242,53.7080648,0.0],[37.2858784,53.7115748,0.0]]]},"properties":{"landuse":"military"}},{"type":"Feature","geometry":{"type":"Polygon","coordinates":[[[37.2969485,53.7089854,0.0],[37.2968703,53.7088617,0.0],[37.2974316,53.7087373,0.0],[37.2975099,53.708861,0.0],[37.2969485,53.7089854,0.0]]]},"properties":{"landuse":"commercial","name":"Строительный магазин, бывший кинотеатр \"Заря\"","building":"yes"}},{"type":"Feature","geometry":{"type":"Polygon","coordinates":[[[37.3004752,53.7076336,0.0],[37.3017458,53.7079012,0.0],[37.3013103,53.7084244,0.0],[37.3010945,53.7085705,0.0],[37.300501,53.7081345,0.0],[37.3004752,53.7076336,0.0]]]},"properties":{"landuse":"commercial","name":"Строительный супермаркет АКС"}},{"type":"Feature","geometry":{"type":"Polygon","coordinates":[[[37.3025292,53.7119073,0.0],[37.3010333,53.71167,0.0],[37.2982112,53.7121172,0.0],[37.2968002,53.7122039,0.0],[37.2978257,53.7161466,0.0],[37.2987895,53.7159914,0.0],[37.2994835,53.715494,0.0],[37.3004165,53.7144628,0.0],[37.3017889,53.7128109,0.0],[37.3026063,53.7119986,0.0],[37.3025292,53.7119073,0.0]]]},"properties":{"landuse":"industrial","name":"Смычка"}},{"type":"Feature","geometry":{"type":"Polygon","coordinates":[[[37.2836794,53.7146529,0.0],[37.2828408,53.7142721,0.0],[37.2813178,53.7154672,0.0],[37.2822174,53.7158947,0.0],[37.2827459,53.7161733,0.0],[37.2834672,53.7158061,0.0],[37.2843798,53.7151054,0.0],[37.2872746,53.7127689,0.0],[37.2859842,53.7126084,0.0],[37.285797,53.7129732,0.0],[37.2837245,53.7147299,0.0],[37.2828907,53.7153989,0.0],[37.28283,53.7153696,0.0],[37.2836794,53.7146529,0.0]]]},"properties":{"landuse":"residential"}},{"type":"Feature","geometry":{"type":"Polygon","coordinates":[[[37.302736,53.7117583,0.0],[37.3030793,53.7112503,0.0],[37.3035085,53.7109138,0.0],[37.3027467,53.7108693,0.0],[37.3019206,53.7110408,0.0],[37.3010408,53.711517,0.0],[37.302103,53.7117202,0.0],[37.302736,53.7117583,0.0]]]},"properties":{"landuse":"residential"}},{"type":"Feature","geometry":{"type":"Polygon","coordinates":[[[37.2996177,53.7113933,0.0],[37.2994997,53.711298,0.0],[37.2999503,53.7108281,0.0],[37.300859,53.7101769,0.0],[37.3018461,53.7092117,0.0],[37.3039597,53.7075098,0.0],[37.304635,53.7066144,0.0],[37.3059332,53.7068684,0.0],[37.3044097,53.7088053,0.0],[37.303788,53.7097197,0.0],[37.3022109,53.7100499,0.0],[37.3013204,53.7105833,0.0],[37.3006369,53.710917,0.0],[37.3016422,53.7106532,0.0],[37.3035949,53.710323,0.0],[37.3039843,53.7105297,0.0],[37.3036625,53.7108408,0.0],[37.3029619,53.7107484,0.0],[37.3020928,53.7108691,0.0],[37.3012592,53.7111012,0.0],[37.3006584,53.7111774,0.0],[37.2999074,53.711425,0.0],[37.2996177,53.7113933,0.0]]]},"properties":{"landuse":"residential"}},{"type":"Feature","geometry":{"type":"Polygon","coordinates":[[[37.2845725,53.7171175,0.0],[37.2852822,53.7169216,0.0],[37.2867933,53.7155111,0.0],[37.2870095,53.7154232,0.0],[37.2899278,53.7130294,0.0],[37.2887782,53.7125967,0.0],[37.2882417,53.712565,0.0],[37.2875444,53.7127999,0.0],[37.2850354,53.7148391,0.0],[37.283285,53.7160889,0.0],[37.2840575,53.7163492,0.0],[37.2837801,53.7167057,0.0],[37.2845725,53.7171175,0.0]]]},"properties":{"landuse":"residential"}},{"type":"Feature","geometry":{"type":"Polygon","coordinates":[[[37.2966955,53.7168381,0.0],[37.2954424,53.7167692,0.0],[37.2936829,53.7164327,0.0],[37.294024,53.7157587,0.0],[37.2966655,53.7164581,0.0],[37.2970818,53.7165143,0.0],[37.297071,53.7167365,0.0],[37.2966955,53.7168381,0.0]]]},"properties":{"landuse":"residential"}},{"type":"Feature","geometry":{"type":"Polygon","coordinates":[[[37.3019761,53.7162262,0.0],[37.3024246,53.7157526,0.0],[37.3029791,53.7159365,0.0],[37.3025307,53.7164101,0.0],[37.3019761,53.7162262,0.0]]]},"properties":{"landuse":"industrial"}},{"type":"Feature","geometry":{"type":"Polygon","coordinates":[[[37.2947856,53.7140188,0.0],[37.295086,53.7136124,0.0],[37.2929081,53.712914,0.0],[37.2917816,53.7126727,0.0],[37.291803,53.7130029,0.0],[37.2929489,53.7133194,0.0],[37.294217,53.7137521,0.0],[37.2943994,53.7139172,0.0],[37.2947856,53.7140188,0.0]]]},"properties":{"landuse":"residential"}},{"type":"Feature","geometry":{"type":"Polygon","coordinates":[[[37.2943994,53.7145267,0.0],[37.2946891,53.7141267,0.0],[37.2941205,53.7138854,0.0],[37.2918352,53.7131108,0.0],[37.2916507,53.7133829,0.0],[37.2916635,53.7135616,0.0],[37.2926485,53.713694,0.0],[37.2934531,53.7141893,0.0],[37.2941612,53.7144369,0.0],[37.2943994,53.7145267,0.0]]]},"properties":{"landuse":"residential"}},{"type":"Feature","geometry":{"type":"Polygon","coordinates":[[[37.2963091,53.7140124,0.0],[37.2960516,53.7131616,0.0],[37.2956439,53.7132568,0.0],[37.2952126,53.7137956,0.0],[37.2960624,53.7140378,0.0],[37.2963091,53.7140124,0.0]]]},"properties":{"landuse":"residential"}},{"type":"Feature","geometry":{"type":"Polygon","coordinates":[[[37.2921123,53.7064365,0.0],[37.2921547,53.7064329,0.0],[37.2928705,53.7069705,0.0],[37.2928413,53.7069841,0.0],[37.2921123,53.7064365,0.0]]]},"properties":{"landuse":"grass"}},{"type":"Feature","geometry":{"type":"Polygon","coordinates":[[[37.2916089,53.7069465,0.0],[37.2917472,53.7068843,0.0],[37.2918641,53.7069755,0.0],[37.2917258,53.7070376,0.0],[37.2916089,53.7069465,0.0]]]},"properties":{"landuse":"grass"}},{"type":"Feature","geometry":{"type":"Point","coordinates":[37.2936597,53.7084067]},"properties":{"amenity":"place_of_worship","ref:sobory.ru":"04778","name":"Храм Сергия Радонежского","ref:temples.ru":"16190","building":"church","denomination":"russian_orthodox","religion":"christian","start_date":"1876"}},{"type":"Feature","geometry":{"type":"Point","coordinates":[37.2838442,53.7051081]},"properties":{"amenity":"place_of_worship","ref:sobory.ru":"18188","name":"Церковь Всех Святых","disused":"yes","ref:temples.ru":"16191","building":"church","denomination":"russian_orthodox","religion":"christian","start_date":"1880..1892"}},{"type":"Feature","geometry":{"type":"Polygon","coordinates":[[[37.2856419,53.7057777,0.0],[37.2860152,53.7054242,0.0],[37.286147,53.705473,0.0],[37.2861665,53.7054546,0.0],[37.2863384,53.7055183,0.0],[37.2863501,53.7055071,0.0],[37.2865921,53.7055967,0.0],[37.2865756,53.7056124,0.0],[37.2867526,53.7056779,0.0],[37.2867686,53.7056627,0.0],[37.2870183,53.7057551,0.0],[37.287004,53.7057687,0.0],[37.2871688,53.7058297,0.0],[37.287148,53.7058494,0.0],[37.2872699,53.7058946,0.0],[37.2868547,53.7062877,0.0],[37.2868263,53.7062772,0.0],[37.2867457,53.7063536,0.0],[37.2865732,53.7062897,0.0],[37.2866557,53.7062116,0.0],[37.2866837,53.706222,0.0],[37.2867039,53.7062028,0.0],[37.2867256,53.7062109,0.0],[37.2870466,53.705907,0.0],[37.2860977,53.7055558,0.0],[37.2858011,53.7058366,0.0],[37.2856419,53.7057777,0.0]]]},"properties":{"addr:housenumber":"8","addr:street":"Октябрьская улица","building":"apartments","addr:city":"Плавск"}},{"type":"Feature","geometry":{"type":"Polygon","coordinates":[[[37.2851486,53.7059495,0.0],[37.2852569,53.7058559,0.0],[37.2863744,53.706309,0.0],[37.2862661,53.7064027,0.0],[37.2851486,53.7059495,0.0]]]},"properties":{"addr:housenumber":"10 к1","building:levels":"5","addr:street":"улица Победы","addr:postcode":"301470","building":"apartments","addr:city":"Плавск","start_date":"1983"}},{"type":"Feature","geometry":{"type":"Polygon","coordinates":[[[37.2856523,53.7071574,0.0],[37.2864637,53.7064447,0.0],[37.2866327,53.7065121,0.0],[37.2858213,53.7072248,0.0],[37.2856523,53.7071574,0.0]]]},"properties":{"addr:housenumber":"10 к2","building:levels":"5","addr:street":"улица Победы","addr:postcode":"301470","building":"apartments","addr:city":"Плавск","start_date":"1983"}},{"type":"Feature","geometry":{"type":"Polygon","coordinates":[[[37.2848565,53.7059026,0.0],[37.2849966,53.7059839,0.0],[37.2843718,53.7063614,0.0],[37.2842317,53.7062802,0.0],[37.2848565,53.7059026,0.0]]]},"properties":{"addr:housenumber":"8","building:levels":"5","addr:street":"улица Победы","building:flats":"60","addr:postcode":"301470","building":"apartments","addr:city":"Плавск","start_date":"1985"}},{"type":"Feature","geometry":{"type":"Polygon","coordinates":[[[37.2839673,53.7064735,0.0],[37.284081,53.7063736,0.0],[37.2855347,53.7069528,0.0],[37.2854211,53.7070527,0.0],[37.2839673,53.7064735,0.0]]]},"properties":{"addr:housenumber":"12","building:levels":"5","addr:street":"улица Победы","building:flats":"113","addr:postcode":"301470","building":"apartments","addr:city":"Плавск","start_date":"1976"}},{"type":"Feature","geometry":{"type":"Polygon","coordinates":[[[37.2909251,53.7058632,0.0],[37.2912431,53.7061062,0.0],[37.2914072,53.7060309,0.0],[37.2910892,53.7057879,0.0],[37.2909251,53.7058632,0.0]]]},"properties":{"building":"yes"}},{"type":"Feature","geometry":{"type":"Polygon","coordinates":[[[37.2920702,53.7075414,0.0],[37.2925062,53.7073504,0.0],[37.2923826,53.7072516,0.0],[37.2919466,53.7074426,0.0],[37.2920702,53.7075414,0.0]]]},"properties":{"building":"yes"}},{"type":"Feature","geometry":{"type":"Polygon","coordinates":[[[37.2912768,53.7051672,0.0],[37.2915903,53.7054018,0.0],[37.29175,53.7053271,0.0],[37.2914365,53.7050924,0.0],[37.2912768,53.7051672,0.0]]]},"properties":{"building":"yes"}},{"type":"Feature","geometry":{"type":"Polygon","coordinates":[[[37.2923212,53.7081182,0.0],[37.2927529,53.7079221,0.0],[37.2926213,53.7078207,0.0],[37.2921896,53.7080168,0.0],[37.2923212,53.7081182,0.0]]]},"properties":{"addr:housenumber":"7","building:levels":"2","addr:street":"улица Орлова","building:flats":"16","addr:postcode":"301470","building":"apartments","addr:city":"Плавск","start_date":"1960"}},{"type":"Feature","geometry":{"type":"Polygon","coordinates":[[[37.2925847,53.7083267,0.0],[37.292964,53.7081486,0.0],[37.292833,53.7080509,0.0],[37.2924537,53.7082289,0.0],[37.2925847,53.7083267,0.0]]]},"properties":{"addr:housenumber":"5","addr:street":"улица Орлова","building":"apartments","addr:city":"Плавск"}},{"type":"Feature","geometry":{"type":"Polygon","coordinates":[[[37.2913462,53.7061422,0.0],[37.2915146,53.7062756,0.0],[37.2916494,53.706216,0.0],[37.291481,53.7060826,0.0],[37.2913462,53.7061422,0.0]]]},"properties":{"building":"yes"}},{"type":"Feature","geometry":{"type":"Polygon","coordinates":[[[37.2906002,53.7056199,0.0],[37.290798,53.7057721,0.0],[37.2909572,53.7057927,0.0],[37.2910083,53.7057409,0.0],[37.2907646,53.705545,0.0],[37.2906002,53.7056199,0.0]]]},"properties":{"building":"yes"}},{"type":"Feature","geometry":{"type":"Polygon","coordinates":[[[37.2916636,53.7076369,0.0],[37.2919862,53.7078743,0.0],[37.2921492,53.7077967,0.0],[37.2918266,53.7075593,0.0],[37.2916636,53.7076369,0.0]]]},"properties":{"addr:housenumber":"9","addr:street":"улица Орлова","building":"apartments","addr:city":"Плавск"}},{"type":"Feature","geometry":{"type":"Polygon","coordinates":[[[37.2882262,53.7061216,0.0],[37.2897468,53.7066911,0.0],[37.2898492,53.7065953,0.0],[37.2883286,53.7060258,0.0],[37.2882262,53.7061216,0.0]]]},"properties":{"addr:housenumber":"4","addr:street":"Октябрьская улица","building":"apartments","addr:city":"Плавск"}},{"type":"Feature","geometry":{"type":"Polygon","coordinates":[[[37.291185,53.7065682,0.0],[37.2916123,53.7063824,0.0],[37.2914893,53.7062833,0.0],[37.291062,53.7064691,0.0],[37.291185,53.7065682,0.0]]]},"properties":{"building":"yes"}},{"type":"Feature","geometry":{"type":"Polygon","coordinates":[[[37.2940071,53.707161,0.0],[37.2942101,53.7073237,0.0],[37.2944005,53.7072405,0.0],[37.2941975,53.7070778,0.0],[37.2940071,53.707161,0.0]]]},"properties":{"addr:housenumber":"39","addr:street":"улица Коммунаров","building":"yes"}},{"type":"Feature","geometry":{"type":"Polygon","coordinates":[[[37.2929354,53.7086678,0.0],[37.293386,53.7088325,0.0],[37.2934924,53.7087305,0.0],[37.2930418,53.7085658,0.0],[37.2929354,53.7086678,0.0]]]},"properties":{"building":"yes"}},{"type":"Feature","geometry":{"type":"Polygon","coordinates":[[[37.2897964,53.7060144,0.0],[37.2902587,53.7061678,0.0],[37.2903567,53.7060644,0.0],[37.2898945,53.7059109,0.0],[37.2897964,53.7060144,0.0]]]},"properties":{"building":"yes"}},{"type":"Feature","geometry":{"type":"Polygon","coordinates":[[[37.2947786,53.7079302,0.0],[37.2949559,53.7078796,0.0],[37.2945874,53.7074266,0.0],[37.2944101,53.7074772,0.0],[37.2947786,53.7079302,0.0]]]},"properties":{"building":"yes"}},{"type":"Feature","geometry":{"type":"Polygon","coordinates":[[[37.2884463,53.7055709,0.0],[37.2891001,53.7052911,0.0],[37.2889839,53.7051959,0.0],[37.28833,53.7054757,0.0],[37.2884463,53.7055709,0.0]]]},"properties":{"building":"yes"}},{"type":"Feature","geometry":{"type":"Polygon","coordinates":[[[37.2895947,53.7105811,0.0],[37.2901702,53.7099911,0.0],[37.2899351,53.7099108,0.0],[37.2893596,53.7105007,0.0],[37.2895947,53.7105811,0.0]]]},"properties":{"building":"yes"}},{"type":"Feature","geometry":{"type":"Polygon","coordinates":[[[37.2905366,53.711183,0.0],[37.2908911,53.7108078,0.0],[37.2906819,53.7107386,0.0],[37.2903275,53.7111137,0.0],[37.2905366,53.711183,0.0]]]},"properties":{"amenity":"police","building":"yes"}},{"type":"Feature","geometry":{"type":"Polygon","coordinates":[[[37.297396,53.7153151,0.0],[37.2981952,53.715214,0.0],[37.2977764,53.7140552,0.0],[37.2969772,53.7141563,0.0],[37.297396,53.7153151,0.0]]]},"properties":{"building":"yes"}},{"type":"Feature","geometry":{"type":"Polygon","coordinates":[[[37.2902655,53.7099093,0.0],[37.2908202,53.7093317,0.0],[37.2906145,53.7092625,0.0],[37.2900598,53.7098401,0.0],[37.2902655,53.7099093,0.0]]]},"properties":{"building":"yes"}},{"type":"Feature","geometry":{"type":"Polygon","coordinates":[[[37.2885996,53.7047468,0.0],[37.2884249,53.7048229,0.0],[37.2878602,53.7043688,0.0],[37.2880334,53.7042933,0.0],[37.2882547,53.7044713,0.0],[37.2885601,53.7043382,0.0],[37.2883215,53.7041463,0.0],[37.2885151,53.7040619,0.0],[37.2891074,53.7045383,0.0],[37.2888613,53.7046455,0.0],[37.2886357,53.704464,0.0],[37.2883842,53.7045736,0.0],[37.2885996,53.7047468,0.0]]]},"properties":{"addr:housenumber":"68","name":"Плавская средняя общеобразовательная школа №2","addr:street":"улица Коммунаров","building":"school","addr:city":"Плавск"}},{"type":"Feature","geometry":{"type":"Polygon","coordinates":[[[37.2877996,53.7068176,0.0],[37.2890677,53.7073048,0.0],[37.2891892,53.707194,0.0],[37.2879211,53.7067068,0.0],[37.2877996,53.7068176,0.0]]]},"properties":{"addr:housenumber":"4А","addr:street":"Октябрьская улица","building":"apartments","addr:city":"Плавск"}},{"type":"Feature","geometry":{"type":"Polygon","coordinates":[[[37.291243,53.7074091,0.0],[37.2911598,53.7073389,0.0],[37.2912046,53.7073203,0.0],[37.2910403,53.7071817,0.0],[37.2910016,53.7071978,0.0],[37.2909077,53.7071186,0.0],[37.2912265,53.7069864,0.0],[37.2912462,53.7069778,0.0],[37.2912483,53.706977,0.0],[37.291337,53.7070502,0.0],[37.2913191,53.707058,0.0],[37.2915073,53.7072083,0.0],[37.2915172,53.707204,0.0],[37.2915923,53.7072639,0.0],[37.291243,53.7074091,0.0]]]},"properties":{"operator:type":"government","addr:housenumber":"11","website":"http://plavskdk.ru/","amenity":"community_centre","name":"МБУ «Городской дом культуры»","addr:street":"улица Орлова","building":"yes","operator":"отдкл культуры администрации МО Плавский район","addr:city":"Плавск"}},{"type":"Feature","geometry":{"type":"Polygon","coordinates":[[[37.2929666,53.7061722,0.0],[37.2927135,53.7062894,0.0],[37.2930767,53.7065641,0.0],[37.2933478,53.7064385,0.0],[37.2932388,53.706356,0.0],[37.2931392,53.7064021,0.0],[37.2929839,53.7062845,0.0],[37.2930653,53.7062468,0.0],[37.2929666,53.7061722,0.0]]]},"properties":{"addr:housenumber":"43","amenity":"townhall","name":"Администрация МО Плавский район","addr:street":"улица Коммунаров","building":"yes","addr:city":"Плавск"}},{"type":"Feature","geometry":{"type":"Polygon","coordinates":[[[37.291224,53.7079077,0.0],[37.291405,53.7079675,0.0],[37.2914549,53.7079147,0.0],[37.2915504,53.7079463,0.0],[37.2916668,53.7078229,0.0],[37.2913903,53.7077315,0.0],[37.291224,53.7079077,0.0]]]},"properties":{"building":"yes"}},{"type":"Feature","geometry":{"type":"Polygon","coordinates":[[[37.2939827,53.7070957,0.0],[37.2941022,53.7070352,0.0],[37.2939439,53.7069257,0.0],[37.2938245,53.7069861,0.0],[37.2939827,53.7070957,0.0]]]},"properties":{"building":"yes"}},{"type":"Feature","geometry":{"type":"Polygon","coordinates":[[[37.2924471,53.7060343,0.0],[37.2926307,53.705949,0.0],[37.2924536,53.7058154,0.0],[37.2926387,53.7057294,0.0],[37.2925142,53.7056355,0.0],[37.2923411,53.7057159,0.0],[37.2922818,53.7056712,0.0],[37.2920861,53.7057621,0.0],[37.2924471,53.7060343,0.0]]]},"properties":{"addr:housenumber":"45","addr:street":"улица Коммунаров","building":"yes","addr:city":"Плавск"}},{"type":"Feature","geometry":{"type":"Polygon","coordinates":[[[37.2850429,53.7041679,0.0],[37.2860508,53.7045336,0.0],[37.2861488,53.7044389,0.0],[37.2851409,53.7040732,0.0],[37.2850429,53.7041679,0.0]]]},"properties":{"building":"yes"}},{"type":"Feature","geometry":{"type":"Polygon","coordinates":[[[37.2893017,53.7075381,0.0],[37.289467,53.7075971,0.0],[37.2895799,53.7074863,0.0],[37.2894146,53.7074272,0.0],[37.2893017,53.7075381,0.0]]]},"properties":{"building":"yes"}},{"type":"Feature","geometry":{"type":"Polygon","coordinates":[[[37.2895261,53.7072774,0.0],[37.289729,53.7073454,0.0],[37.2898658,53.7072026,0.0],[37.2896629,53.7071345,0.0],[37.2895261,53.7072774,0.0]]]},"properties":{"building":"yes"}},{"type":"Feature","geometry":{"type":"Polygon","coordinates":[[[37.2898024,53.7070234,0.0],[37.2899875,53.707133,0.0],[37.290194,53.7070107,0.0],[37.2900089,53.7069012,0.0],[37.2898024,53.7070234,0.0]]]},"properties":{"building":"yes"}},{"type":"Feature","geometry":{"type":"Polygon","coordinates":[[[37.2900841,53.7063709,0.0],[37.2899614,53.7065061,0.0],[37.2902511,53.7065982,0.0],[37.2903738,53.706463,0.0],[37.2900841,53.7063709,0.0]]]},"properties":{"building":"yes"}},{"type":"Feature","geometry":{"type":"Polygon","coordinates":[[[37.2903832,53.7069131,0.0],[37.290807,53.7066908,0.0],[37.2906174,53.7065642,0.0],[37.2904462,53.7066541,0.0],[37.290507,53.7066947,0.0],[37.2903647,53.7067694,0.0],[37.2903402,53.7067531,0.0],[37.2902301,53.7068108,0.0],[37.2903832,53.7069131,0.0]]]},"properties":{"building":"yes"}},{"type":"Feature","geometry":{"type":"Polygon","coordinates":[[[37.2890756,53.7057724,0.0],[37.2896549,53.7059661,0.0],[37.2899162,53.7056922,0.0],[37.2897471,53.7056357,0.0],[37.2895825,53.7058082,0.0],[37.2891723,53.705671,0.0],[37.2890756,53.7057724,0.0]]]},"properties":{"building":"yes"}},{"type":"Feature","geometry":{"type":"Polygon","coordinates":[[[37.2934301,53.7084388,0.0],[37.2940202,53.7085229,0.0],[37.2941195,53.7084816,0.0],[37.2941436,53.7084229,0.0],[37.2940862,53.7083609,0.0],[37.2934961,53.7082768,0.0],[37.2934301,53.7084388,0.0]]]},"properties":{"building":"yes"}},{"type":"Feature","geometry":{"type":"Polygon","coordinates":[[[37.2928548,53.7076791,0.0],[37.292977,53.7077698,0.0],[37.2933739,53.7075824,0.0],[37.2932518,53.7074917,0.0],[37.2928548,53.7076791,0.0]]]},"properties":{"building":"yes"}},{"type":"Feature","geometry":{"type":"Polygon","coordinates":[[[37.2926618,53.7071983,0.0],[37.293039,53.7074871,0.0],[37.2932032,53.7074119,0.0],[37.292826,53.7071232,0.0],[37.2926618,53.7071983,0.0]]]},"properties":{"building":"yes"}},{"type":"Feature","geometry":{"type":"Polygon","coordinates":[[[37.2915439,53.7100703,0.0],[37.2917781,53.7101393,0.0],[37.2922769,53.7095455,0.0],[37.2920428,53.7094766,0.0],[37.2915439,53.7100703,0.0]]]},"properties":{"building":"yes"}},{"type":"Feature","geometry":{"type":"Polygon","coordinates":[[[37.2968278,53.7137088,0.0],[37.2971237,53.7136734,0.0],[37.2970379,53.7134226,0.0],[37.296742,53.713458,0.0],[37.2968278,53.7137088,0.0]]]},"properties":{"building":"yes"}},{"type":"Feature","geometry":{"type":"Polygon","coordinates":[[[37.2966602,53.7132756,0.0],[37.2969438,53.7132447,0.0],[37.2967072,53.7124838,0.0],[37.2964236,53.7125147,0.0],[37.2966602,53.7132756,0.0]]]},"properties":{"addr:housenumber":"27","addr:street":"улица Коммунаров","building":"yes"}},{"type":"Feature","geometry":{"type":"Polygon","coordinates":[[[37.2870222,53.711992,0.0],[37.2869824,53.7121098,0.0],[37.2875994,53.7121829,0.0],[37.2876392,53.712065,0.0],[37.2870222,53.711992,0.0]]]},"properties":{"building":"yes"}},{"type":"Feature","geometry":{"type":"Polygon","coordinates":[[[37.2861586,53.711911,0.0],[37.2861248,53.712031,0.0],[37.2866398,53.7120819,0.0],[37.2866736,53.7119619,0.0],[37.2861586,53.711911,0.0]]]},"properties":{"building":"yes"}},{"type":"Feature","geometry":{"type":"Polygon","coordinates":[[[37.2845439,53.7117459,0.0],[37.284508,53.7118575,0.0],[37.2853234,53.7119496,0.0],[37.2853593,53.711838,0.0],[37.2845439,53.7117459,0.0]]]},"properties":{"addr:housenumber":"15А","building":"apartments"}},{"type":"Feature","geometry":{"type":"Polygon","coordinates":[[[37.2830997,53.7115869,0.0],[37.2830627,53.7117157,0.0],[37.284072,53.7118172,0.0],[37.2841089,53.7116883,0.0],[37.2830997,53.7115869,0.0]]]},"properties":{"addr:housenumber":"17А","building:levels":"5","addr:street":"улица Мичурина","addr:postcode":"301471","building":"apartments","start_date":"1973"}},{"type":"Feature","geometry":{"type":"Polygon","coordinates":[[[37.2822359,53.7076529,0.0],[37.2837299,53.7082245,0.0],[37.2838369,53.7081265,0.0],[37.2823429,53.7075549,0.0],[37.2822359,53.7076529,0.0]]]},"properties":{"addr:housenumber":"18","building:levels":"5","addr:street":"улица Победы","building:flats":"98","addr:postcode":"301471","building":"apartments","start_date":"1984"}},{"type":"Feature","geometry":{"type":"Polygon","coordinates":[[[37.2959556,53.7111518,0.0],[37.2962018,53.7111171,0.0],[37.2960088,53.7106368,0.0],[37.2959107,53.7106506,0.0],[37.2958691,53.7105471,0.0],[37.295721,53.710568,0.0],[37.2959556,53.7111518,0.0]]]},"properties":{"building":"commercial"}},{"type":"Feature","geometry":{"type":"Polygon","coordinates":[[[37.2947044,53.710346,0.0],[37.2949495,53.710315,0.0],[37.2948498,53.7100391,0.0],[37.2944831,53.7100855,0.0],[37.2945321,53.7102211,0.0],[37.2946537,53.7102057,0.0],[37.2947044,53.710346,0.0]]]},"properties":{"addr:housenumber":"3","shop":"mall","name":"Торговый центр «Продуктовка»","addr:street":"улица Свободы","building":"yes"}},{"type":"Feature","geometry":{"type":"Polygon","coordinates":[[[37.2849894,53.711555,0.0],[37.2850603,53.7114163,0.0],[37.285097,53.7114229,0.0],[37.2852029,53.7112157,0.0],[37.2854977,53.7112685,0.0],[37.2853706,53.7115172,0.0],[37.2853362,53.711511,0.0],[37.2852941,53.7115936,0.0],[37.2851509,53.7115679,0.0],[37.2851434,53.7115826,0.0],[37.2849894,53.711555,0.0]]]},"properties":{"addr:housenumber":"17Б","building":"commercial"}},{"type":"Feature","geometry":{"type":"Polygon","coordinates":[[[37.2948852,53.7097898,0.0],[37.2948316,53.7096739,0.0],[37.2947243,53.7096913,0.0],[37.2947779,53.7098072,0.0],[37.2948852,53.7097898,0.0]]]},"properties":{"building":"yes"}},{"type":"Feature","geometry":{"type":"Polygon","coordinates":[[[37.2848565,53.7059026,0.0],[37.2849966,53.7059839,0.0],[37.2852127,53.7058534,0.0],[37.2850726,53.7057721,0.0],[37.2848565,53.7059026,0.0]]]},"properties":{"building":"yes"}},{"type":"Feature","geometry":{"type":"Polygon","coordinates":[[[37.2921011,53.7094072,0.0],[37.2922477,53.7094503,0.0],[37.2923747,53.7092992,0.0],[37.2922281,53.7092561,0.0],[37.2921011,53.7094072,0.0]]]},"properties":{"building":"yes"}},{"type":"Feature","geometry":{"type":"Polygon","coordinates":[[[37.2912374,53.7101581,0.0],[37.2911274,53.7102889,0.0],[37.2915673,53.7104184,0.0],[37.2916773,53.7102876,0.0],[37.2912374,53.7101581,0.0]]]},"properties":{"building":"yes"}},{"type":"Feature","geometry":{"type":"Polygon","coordinates":[[[37.2899388,53.7051159,0.0],[37.2901056,53.7052444,0.0],[37.2902883,53.7051613,0.0],[37.2901215,53.7050328,0.0],[37.2899388,53.7051159,0.0]]]},"properties":{"building":"yes"}},{"type":"Feature","geometry":{"type":"Polygon","coordinates":[[[37.2898507,53.7049777,0.0],[37.2897933,53.7050038,0.0],[37.2899388,53.7051159,0.0],[37.2901215,53.7050328,0.0],[37.289976,53.7049207,0.0],[37.2898507,53.7049777,0.0]]]},"properties":{"building":"yes"}},{"type":"Feature","geometry":{"type":"Polygon","coordinates":[[[37.2898507,53.7049777,0.0],[37.289976,53.7049207,0.0],[37.2898212,53.7048015,0.0],[37.2896959,53.7048585,0.0],[37.2898507,53.7049777,0.0]]]},"properties":{"building":"yes"}},{"type":"Feature","geometry":{"type":"Polygon","coordinates":[[[37.2893518,53.7046681,0.0],[37.2895476,53.7048189,0.0],[37.2897097,53.7047452,0.0],[37.2895139,53.7045944,0.0],[37.2893518,53.7046681,0.0]]]},"properties":{"addr:housenumber":"66","addr:street":"улица Коммунаров","building":"yes","addr:city":"Плавск"}},{"type":"Feature","geometry":{"type":"Polygon","coordinates":[[[37.2884975,53.7081752,0.0],[37.2886728,53.7082385,0.0],[37.2888512,53.7080655,0.0],[37.2886759,53.7080022,0.0],[37.2884975,53.7081752,0.0]]]},"properties":{"building":"yes"}},{"type":"Feature","geometry":{"type":"Polygon","coordinates":[[[37.283349,53.7039774,0.0],[37.2835174,53.7040346,0.0],[37.2836065,53.7039425,0.0],[37.2834382,53.7038854,0.0],[37.283349,53.7039774,0.0]]]},"properties":{"building":"yes"}},{"type":"Feature","geometry":{"type":"Polygon","coordinates":[[[37.2832485,53.7044418,0.0],[37.283159,53.7045342,0.0],[37.2832614,53.7045689,0.0],[37.2832231,53.7046085,0.0],[37.283328,53.7046441,0.0],[37.2833663,53.7046045,0.0],[37.2834764,53.7046419,0.0],[37.2835659,53.7045496,0.0],[37.2832485,53.7044418,0.0]]]},"properties":{"building":"yes"}},{"type":"Feature","geometry":{"type":"Polygon","coordinates":[[[37.2876567,53.7060732,0.0],[37.2878055,53.706129,0.0],[37.2879007,53.7060399,0.0],[37.2877519,53.7059841,0.0],[37.2876567,53.7060732,0.0]]]},"properties":{"building":"yes"}},{"type":"Feature","geometry":{"type":"Polygon","coordinates":[[[37.2875279,53.7066098,0.0],[37.2876941,53.7066721,0.0],[37.2881985,53.7062002,0.0],[37.2880323,53.706138,0.0],[37.2875279,53.7066098,0.0]]]},"properties":{"building":"yes"}},{"type":"Feature","geometry":{"type":"Polygon","coordinates":[[[37.2904542,53.7062621,0.0],[37.2907212,53.706347,0.0],[37.2908458,53.7062097,0.0],[37.2905788,53.7061248,0.0],[37.2904542,53.7062621,0.0]]]},"properties":{"building":"yes"}},{"type":"Feature","geometry":{"type":"Polygon","coordinates":[[[37.290583,53.7082927,0.0],[37.2908228,53.708372,0.0],[37.291055,53.708126,0.0],[37.2908152,53.7080467,0.0],[37.290583,53.7082927,0.0]]]},"properties":{"building":"yes"}},{"type":"Feature","geometry":{"type":"Polygon","coordinates":[[[37.2936004,53.7076863,0.0],[37.2934601,53.7077507,0.0],[37.2935808,53.7078428,0.0],[37.2937211,53.7077783,0.0],[37.2936004,53.7076863,0.0]]]},"properties":{"building":"yes"}},{"type":"Feature","geometry":{"type":"Polygon","coordinates":[[[37.2937077,53.7080292,0.0],[37.293933,53.7079593,0.0],[37.2938141,53.7078249,0.0],[37.2935888,53.7078948,0.0],[37.2937077,53.7080292,0.0]]]},"properties":{"building":"yes"}},{"type":"Feature","geometry":{"type":"Polygon","coordinates":[[[37.3013628,53.7076609,0.0],[37.3014425,53.7075455,0.0],[37.3009704,53.7074312,0.0],[37.3008907,53.7075465,0.0],[37.3013628,53.7076609,0.0]]]},"properties":{"building":"yes"}},{"type":"Feature","geometry":{"type":"Polygon","coordinates":[[[37.3015022,53.7077323,0.0],[37.3017543,53.7078007,0.0],[37.3018723,53.7076483,0.0],[37.3016202,53.7075799,0.0],[37.3015022,53.7077323,0.0]]]},"properties":{"building":"yes"}},{"type":"Feature","geometry":{"type":"Polygon","coordinates":[[[37.3007753,53.707845,0.0],[37.3005327,53.7080706,0.0],[37.3011603,53.7083071,0.0],[37.301403,53.7080816,0.0],[37.3007753,53.707845,0.0]]]},"properties":{"building":"construction"}},{"type":"Feature","geometry":{"type":"Polygon","coordinates":[[[37.2974038,53.7130441,0.0],[37.3010355,53.7131425,0.0],[37.3010627,53.7127906,0.0],[37.3012605,53.7127959,0.0],[37.3012996,53.7122906,0.0],[37.3001547,53.7122596,0.0],[37.3001339,53.7125288,0.0],[37.2990078,53.7124983,0.0],[37.2990155,53.7123978,0.0],[37.2974571,53.7123556,0.0],[37.2974038,53.7130441,0.0]]]},"properties":{"building":"yes"}},{"type":"Feature","geometry":{"type":"Polygon","coordinates":[[[37.2928165,53.7058465,0.0],[37.2931276,53.7058624,0.0],[37.2931679,53.7056131,0.0],[37.2928514,53.7055956,0.0],[37.2928165,53.7058465,0.0]]]},"properties":{"amenity":"school","name":"Плавская средняя общеобразовательная школа №3","building":"yes"}},{"type":"Feature","geometry":{"type":"Polygon","coordinates":[[[37.3006483,53.7152243,0.0],[37.3009134,53.7149236,0.0],[37.3011716,53.7150032,0.0],[37.3009066,53.715304,0.0],[37.3006483,53.7152243,0.0]]]},"properties":{"building":"yes"}},{"type":"Feature","geometry":{"type":"Polygon","coordinates":[[[37.2956158,53.7098947,0.0],[37.2973003,53.7096851,0.0],[37.2971286,53.7101233,0.0],[37.295766,53.7103138,0.0],[37.2956158,53.7098947,0.0]]]},"properties":{"building":"yes"}},{"type":"Feature","geometry":{"type":"Polygon","coordinates":[[[37.3008783,53.7163958,0.0],[37.3013428,53.7158606,0.0],[37.3015147,53.7159129,0.0],[37.3010502,53.7164481,0.0],[37.3008783,53.7163958,0.0]]]},"properties":{"building":"yes"}},{"type":"Feature","geometry":{"type":"Polygon","coordinates":[[[37.2908505,53.7049624,0.0],[37.2909664,53.7049082,0.0],[37.2911156,53.70502,0.0],[37.2909996,53.7050742,0.0],[37.2908505,53.7049624,0.0]]]},"properties":{"building":"yes"}},{"type":"Feature","geometry":{"type":"Polygon","coordinates":[[[37.2880003,53.7038008,0.0],[37.2884115,53.7036288,0.0],[37.288651,53.7038294,0.0],[37.2883548,53.7039533,0.0],[37.2882963,53.7039043,0.0],[37.2883345,53.7038883,0.0],[37.2882285,53.7037994,0.0],[37.2880752,53.7038635,0.0],[37.2880003,53.7038008,0.0]]]},"properties":{"building":"yes"}},{"type":"Feature","geometry":{"type":"Polygon","coordinates":[[[37.2924321,53.705442,0.0],[37.2927529,53.7054475,0.0],[37.2927481,53.7055476,0.0],[37.2924273,53.7055422,0.0],[37.2924321,53.705442,0.0]]]},"properties":{"building":"yes"}},{"type":"Feature","geometry":{"type":"Polygon","coordinates":[[[37.2936014,53.7066212,0.0],[37.293748,53.7065488,0.0],[37.2938474,53.7066192,0.0],[37.2937008,53.7066917,0.0],[37.2936014,53.7066212,0.0]]]},"properties":{"building":"yes"}},{"type":"Feature","geometry":{"type":"Polygon","coordinates":[[[37.2837761,53.7106183,0.0],[37.2839144,53.7104353,0.0],[37.2845618,53.7106066,0.0],[37.2844235,53.7107896,0.0],[37.2837761,53.7106183,0.0]]]},"properties":{"addr:housenumber":"27В","name":"Плавский ФОК","addr:street":"улица Мичурина","addr:postcode":"301470","leisure":"fitness_centre","sport":"soccer;basketball;table_tennis;volleyball","building":"yes","addr:city":"Плавск"}},{"type":"Feature","geometry":{"type":"Polygon","coordinates":[[[37.2955064,53.7122708,0.0],[37.295716,53.7123088,0.0],[37.2956557,53.7124252,0.0],[37.2954461,53.7123871,0.0],[37.2955064,53.7122708,0.0]]]},"properties":{"addr:housenumber":"1","amenity":"police","name":"Отдел вневедомственной охраны","addr:street":"улица В.И.Ульянова","building":"yes","operator":"Росгвардия"}},{"type":"Feature","geometry":{"type":"Polygon","coordinates":[[[37.2952937,53.7122969,0.0],[37.2954567,53.7123235,0.0],[37.2954138,53.7124158,0.0],[37.2952507,53.7123892,0.0],[37.2952937,53.7122969,0.0]]]},"properties":{"building":"yes"}},{"type":"Feature","geometry":{"type":"Polygon","coordinates":[[[37.2954908,53.7124088,0.0],[37.2956566,53.7124301,0.0],[37.2956197,53.712531,0.0],[37.2954538,53.7125097,0.0],[37.2954908,53.7124088,0.0]]]},"properties":{"building":"yes"}},{"type":"Feature","geometry":{"type":"Polygon","coordinates":[[[37.2968662,53.7137811,0.0],[37.2971445,53.7137564,0.0],[37.2971698,53.7138559,0.0],[37.2968915,53.7138806,0.0],[37.2968662,53.7137811,0.0]]]},"properties":{"building":"yes"}},{"type":"Feature","geometry":{"type":"Polygon","coordinates":[[[37.2961402,53.7143581,0.0],[37.296328,53.7143365,0.0],[37.2963516,53.7144086,0.0],[37.2961639,53.7144301,0.0],[37.2961402,53.7143581,0.0]]]},"properties":{"building":"yes"}},{"type":"Feature","geometry":{"type":"Polygon","coordinates":[[[37.2961384,53.7142152,0.0],[37.2962866,53.7142024,0.0],[37.2963067,53.7142844,0.0],[37.2961585,53.7142971,0.0],[37.2961384,53.7142152,0.0]]]},"properties":{"building":"yes"}},{"type":"Feature","geometry":{"type":"Polygon","coordinates":[[[37.2953491,53.7149067,0.0],[37.2954234,53.7148097,0.0],[37.2955806,53.7148519,0.0],[37.2955064,53.7149489,0.0],[37.2953491,53.7149067,0.0]]]},"properties":{"building":"yes"}},{"type":"Feature","geometry":{"type":"Polygon","coordinates":[[[37.2955266,53.7147021,0.0],[37.2955926,53.7146083,0.0],[37.2957492,53.7146468,0.0],[37.2956832,53.7147407,0.0],[37.2955266,53.7147021,0.0]]]},"properties":{"building":"yes"}},{"type":"Feature","geometry":{"type":"Polygon","coordinates":[[[37.2889626,53.7034458,0.0],[37.2890609,53.7034011,0.0],[37.2891843,53.7034961,0.0],[37.289086,53.7035409,0.0],[37.2889626,53.7034458,0.0]]]},"properties":{"building":"yes"}},{"type":"Feature","geometry":{"type":"Polygon","coordinates":[[[37.2907974,53.7035594,0.0],[37.2909734,53.7034744,0.0],[37.2910798,53.7035516,0.0],[37.2909038,53.7036366,0.0],[37.2907974,53.7035594,0.0]]]},"properties":{"building":"yes"}},{"type":"Feature","geometry":{"type":"Polygon","coordinates":[[[37.2910651,53.7034322,0.0],[37.2912411,53.7033472,0.0],[37.2913475,53.7034244,0.0],[37.2911715,53.7035094,0.0],[37.2910651,53.7034322,0.0]]]},"properties":{"building":"yes"}},{"type":"Feature","geometry":{"type":"Polygon","coordinates":[[[37.2916497,53.7035511,0.0],[37.2918258,53.7034661,0.0],[37.2919322,53.7035433,0.0],[37.2917562,53.7036283,0.0],[37.2916497,53.7035511,0.0]]]},"properties":{"building":"yes"}},{"type":"Feature","geometry":{"type":"Polygon","coordinates":[[[37.2913644,53.7036991,0.0],[37.2915405,53.7036141,0.0],[37.2916469,53.7036913,0.0],[37.2914709,53.7037763,0.0],[37.2913644,53.7036991,0.0]]]},"properties":{"building":"yes"}},{"type":"Feature","geometry":{"type":"Polygon","coordinates":[[[37.2910897,53.7038221,0.0],[37.2912657,53.7037371,0.0],[37.2913722,53.7038143,0.0],[37.2911961,53.7038993,0.0],[37.2910897,53.7038221,0.0]]]},"properties":{"building":"yes"}},{"type":"Feature","geometry":{"type":"Polygon","coordinates":[[[37.2908044,53.703966,0.0],[37.2909804,53.703881,0.0],[37.2910869,53.7039582,0.0],[37.2909108,53.7040432,0.0],[37.2908044,53.703966,0.0]]]},"properties":{"building":"yes"}},{"type":"Feature","geometry":{"type":"Polygon","coordinates":[[[37.2905156,53.703695,0.0],[37.2906916,53.7036099,0.0],[37.290798,53.7036871,0.0],[37.290622,53.7037722,0.0],[37.2905156,53.703695,0.0]]]},"properties":{"building":"yes"}},{"type":"Feature","geometry":{"type":"Polygon","coordinates":[[[37.2905121,53.7034051,0.0],[37.2906881,53.7033201,0.0],[37.2907945,53.7033973,0.0],[37.2906185,53.7034823,0.0],[37.2905121,53.7034051,0.0]]]},"properties":{"building":"yes"}},{"type":"Feature","geometry":{"type":"Polygon","coordinates":[[[37.2902162,53.7035407,0.0],[37.2903922,53.7034556,0.0],[37.2904986,53.7035328,0.0],[37.2903226,53.7036179,0.0],[37.2902162,53.7035407,0.0]]]},"properties":{"building":"yes"}},{"type":"Feature","geometry":{"type":"Polygon","coordinates":[[[37.2902019,53.7053358,0.0],[37.2903965,53.7052492,0.0],[37.2905831,53.7053962,0.0],[37.290431,53.7054639,0.0],[37.2903683,53.7054145,0.0],[37.2903259,53.7054334,0.0],[37.2902019,53.7053358,0.0]]]},"properties":{"building":"yes"}},{"type":"Feature","geometry":{"type":"Polygon","coordinates":[[[37.2904169,53.7054987,0.0],[37.290632,53.7054066,0.0],[37.290707,53.705468,0.0],[37.2904919,53.7055601,0.0],[37.2904169,53.7054987,0.0]]]},"properties":{"building":"yes"}},{"type":"Feature","geometry":{"type":"Polygon","coordinates":[[[37.2975943,53.7103372,0.0],[37.2978398,53.7104031,0.0],[37.2977334,53.7105418,0.0],[37.2982578,53.7106827,0.0],[37.2981748,53.710791,0.0],[37.2979978,53.7107434,0.0],[37.2980303,53.7107011,0.0],[37.2974374,53.7105418,0.0],[37.2975943,53.7103372,0.0]]]},"properties":{"addr:housenumber":"10/2","addr:street":"улица Свободы","building":"yes"}},{"type":"Feature","geometry":{"type":"Polygon","coordinates":[[[37.2968232,53.7113013,0.0],[37.2969288,53.7111649,0.0],[37.297122,53.7112173,0.0],[37.2970163,53.7113537,0.0],[37.2968232,53.7113013,0.0]]]},"properties":{"building":"yes"}},{"type":"Feature","geometry":{"type":"Polygon","coordinates":[[[37.2971348,53.7109324,0.0],[37.2973033,53.7106888,0.0],[37.297661,53.7107754,0.0],[37.2976119,53.7108465,0.0],[37.2974858,53.7108159,0.0],[37.2973664,53.7109886,0.0],[37.2971348,53.7109324,0.0]]]},"properties":{"addr:housenumber":"14/1","addr:street":"улица Свободы","building":"yes"}},{"type":"Feature","geometry":{"type":"Polygon","coordinates":[[[37.2948853,53.7105702,0.0],[37.2950586,53.7105492,0.0],[37.2951026,53.7106763,0.0],[37.2949293,53.7106973,0.0],[37.2948853,53.7105702,0.0]]]},"properties":{"building":"yes"}},{"type":"Feature","geometry":{"type":"Polygon","coordinates":[[[37.2947397,53.7107855,0.0],[37.2950828,53.7107315,0.0],[37.2951444,53.7108685,0.0],[37.2950262,53.7108871,0.0],[37.2950049,53.7108398,0.0],[37.2947801,53.7108752,0.0],[37.2947397,53.7107855,0.0]]]},"properties":{"building":"yes"}},{"type":"Feature","geometry":{"type":"Polygon","coordinates":[[[37.2961939,53.7144706,0.0],[37.2963462,53.7144517,0.0],[37.2963776,53.7145403,0.0],[37.2962253,53.7145592,0.0],[37.2961939,53.7144706,0.0]]]},"properties":{"building":"yes"}},{"type":"Feature","geometry":{"type":"Polygon","coordinates":[[[37.2950425,53.7109366,0.0],[37.2951643,53.7109194,0.0],[37.2952052,53.7110212,0.0],[37.2950079,53.711049,0.0],[37.2949839,53.7109893,0.0],[37.2950594,53.7109787,0.0],[37.2950425,53.7109366,0.0]]]},"properties":{"building":"yes"}},{"type":"Feature","geometry":{"type":"Polygon","coordinates":[[[37.2948617,53.7111533,0.0],[37.2950559,53.7111338,0.0],[37.2950832,53.7112291,0.0],[37.2948891,53.7112486,0.0],[37.2948617,53.7111533,0.0]]]},"properties":{"building":"yes"}},{"type":"Feature","geometry":{"type":"Polygon","coordinates":[[[37.2957444,53.7093479,0.0],[37.297094,53.7092125,0.0],[37.2971187,53.7092987,0.0],[37.2957691,53.7094341,0.0],[37.2957444,53.7093479,0.0]]]},"properties":{"building":"retail"}},{"type":"Feature","geometry":{"type":"Polygon","coordinates":[[[37.2970472,53.7091054,0.0],[37.2971231,53.7092477,0.0],[37.2972723,53.7092198,0.0],[37.2971963,53.7090775,0.0],[37.2970472,53.7091054,0.0]]]},"properties":{"building":"retail"}},{"type":"Feature","geometry":{"type":"Polygon","coordinates":[[[37.2977681,53.7092354,0.0],[37.2979776,53.7092472,0.0],[37.2979371,53.7094983,0.0],[37.2977276,53.7094864,0.0],[37.2977681,53.7092354,0.0]]]},"properties":{"building":"retail"}},{"type":"Feature","geometry":{"type":"Polygon","coordinates":[[[37.3020797,53.7162453,0.0],[37.3024845,53.7158018,0.0],[37.3028422,53.7159162,0.0],[37.3027552,53.7160115,0.0],[37.3026294,53.7159713,0.0],[37.3023115,53.7163194,0.0],[37.3020797,53.7162453,0.0]]]},"properties":{"building":"yes"}},{"type":"Feature","geometry":{"type":"Polygon","coordinates":[[[37.2982221,53.7086111,0.0],[37.2981993,53.7088183,0.0],[37.2983295,53.7088233,0.0],[37.2983523,53.7086162,0.0],[37.2982221,53.7086111,0.0]]]},"properties":{"addr:housenumber":"3","phone":"+7 4875222265","name":"Плавский районный краеведческий музей","tourism":"museum","addr:street":"улица Калинина","building":"yes"}},{"type":"Feature","geometry":{"type":"Polygon","coordinates":[[[37.2967144,53.7086061,0.0],[37.2972568,53.7085102,0.0],[37.297373,53.7086749,0.0],[37.2972215,53.7087124,0.0],[37.2971546,53.7086103,0.0],[37.2967496,53.7086811,0.0],[37.2967144,53.7086061,0.0]]]},"properties":{"building":"yes"}},{"type":"Feature","geometry":{"type":"Polygon","coordinates":[[[37.2974655,53.7087455,0.0],[37.2975555,53.7087218,0.0],[37.2976068,53.7087898,0.0],[37.2975168,53.7088135,0.0],[37.2974655,53.7087455,0.0]]]},"properties":{"building":"yes"}},{"type":"Feature","geometry":{"type":"Polygon","coordinates":[[[37.2975498,53.7088755,0.0],[37.2976288,53.7088233,0.0],[37.2977354,53.7088799,0.0],[37.2976564,53.708932,0.0],[37.2975498,53.7088755,0.0]]]},"properties":{"building":"yes"}},{"type":"Feature","geometry":{"type":"Polygon","coordinates":[[[37.2977602,53.7089451,0.0],[37.297812,53.7089195,0.0],[37.2978883,53.7089738,0.0],[37.2978365,53.7089993,0.0],[37.2977602,53.7089451,0.0]]]},"properties":{"building":"yes"}},{"type":"Feature","geometry":{"type":"Polygon","coordinates":[[[37.2981816,53.7085641,0.0],[37.2982001,53.7083401,0.0],[37.2984265,53.7083466,0.0],[37.2984124,53.7085178,0.0],[37.2985032,53.7085204,0.0],[37.2984989,53.7085733,0.0],[37.2981816,53.7085641,0.0]]]},"properties":{"building":"yes"}},{"type":"Feature","geometry":{"type":"Polygon","coordinates":[[[37.2949354,53.7062896,0.0],[37.2951393,53.7062961,0.0],[37.2951327,53.7063687,0.0],[37.2949288,53.7063622,0.0],[37.2949354,53.7062896,0.0]]]},"properties":{"building":"yes"}},{"type":"Feature","geometry":{"type":"Polygon","coordinates":[[[37.2952269,53.7053427,0.0],[37.2954308,53.7053491,0.0],[37.2954242,53.7054218,0.0],[37.2952203,53.7054153,0.0],[37.2952269,53.7053427,0.0]]]},"properties":{"building":"yes"}},{"type":"Feature","geometry":{"type":"Polygon","coordinates":[[[37.2943808,53.7054651,0.0],[37.2945247,53.7054568,0.0],[37.2945372,53.7055332,0.0],[37.2943933,53.7055415,0.0],[37.2943808,53.7054651,0.0]]]},"properties":{"building":"yes"}},{"type":"Feature","geometry":{"type":"Polygon","coordinates":[[[37.294896,53.7055677,0.0],[37.2952353,53.7055619,0.0],[37.2952395,53.7056484,0.0],[37.2949002,53.7056542,0.0],[37.294896,53.7055677,0.0]]]},"properties":{"building":"yes"}},{"type":"Feature","geometry":{"type":"Polygon","coordinates":[[[37.2934597,53.7088807,0.0],[37.2936692,53.7089427,0.0],[37.2931023,53.7094606,0.0],[37.2928805,53.7093804,0.0],[37.2934597,53.7088807,0.0]]]},"properties":{"building":"residential"}},{"type":"Feature","geometry":{"type":"Polygon","coordinates":[[[37.2928169,53.7094041,0.0],[37.2929217,53.7092983,0.0],[37.2925828,53.7091852,0.0],[37.2924534,53.7092728,0.0],[37.2928169,53.7094041,0.0]]]},"properties":{"building":"residential"}},{"type":"Feature","geometry":{"type":"Polygon","coordinates":[[[37.2908312,53.7106418,0.0],[37.291086,53.7107088,0.0],[37.2911214,53.7106711,0.0],[37.2912417,53.7106962,0.0],[37.2914116,53.7105035,0.0],[37.2910435,53.7103988,0.0],[37.2908312,53.7106418,0.0]]]},"properties":{"leisure":"fitness_centre","sport":"basketball","building":"yes"}},{"type":"Feature","geometry":{"type":"Polygon","coordinates":[[[37.2958696,53.7059494,0.0],[37.2959865,53.7059561,0.0],[37.2960053,53.7058418,0.0],[37.2958884,53.7058351,0.0],[37.2958696,53.7059494,0.0]]]},"properties":{"building":"yes"}},{"type":"Feature","geometry":{"type":"Polygon","coordinates":[[[37.2975165,53.7054032,0.0],[37.2976643,53.705372,0.0],[37.2976241,53.7053053,0.0],[37.2974762,53.7053365,0.0],[37.2975165,53.7054032,0.0]]]},"properties":{"building":"yes"}},{"type":"Feature","geometry":{"type":"Polygon","coordinates":[[[37.2970283,53.7054889,0.0],[37.2971764,53.7054928,0.0],[37.2971817,53.7054197,0.0],[37.2970337,53.7054159,0.0],[37.2970283,53.7054889,0.0]]]},"properties":{"building":"yes"}},{"type":"Feature","geometry":{"type":"Polygon","coordinates":[[[37.2977713,53.7057112,0.0],[37.29798,53.7057138,0.0],[37.2979827,53.7056392,0.0],[37.297774,53.7056366,0.0],[37.2977713,53.7057112,0.0]]]},"properties":{"building":"yes"}},{"type":"Feature","geometry":{"type":"Polygon","coordinates":[[[37.2976398,53.7062082,0.0],[37.2979403,53.7062082,0.0],[37.2979403,53.7061367,0.0],[37.2976398,53.7061367,0.0],[37.2976398,53.7062082,0.0]]]},"properties":{"building":"yes"}},{"type":"Feature","geometry":{"type":"Polygon","coordinates":[[[37.2974816,53.7060224,0.0],[37.2977957,53.7060309,0.0],[37.2978011,53.705961,0.0],[37.297487,53.7059525,0.0],[37.2974816,53.7060224,0.0]]]},"properties":{"building":"yes"}},{"type":"Feature","geometry":{"type":"Polygon","coordinates":[[[37.2978169,53.7060827,0.0],[37.2980892,53.7061004,0.0],[37.2981134,53.7059702,0.0],[37.297841,53.7059525,0.0],[37.2978169,53.7060827,0.0]]]},"properties":{"building":"yes"}},{"type":"Feature","geometry":{"type":"Polygon","coordinates":[[[37.2971517,53.7061351,0.0],[37.2973122,53.706155,0.0],[37.2973363,53.7060867,0.0],[37.2971758,53.7060669,0.0],[37.2971517,53.7061351,0.0]]]},"properties":{"building":"yes"}},{"type":"Feature","geometry":{"type":"Polygon","coordinates":[[[37.2967494,53.7058398,0.0],[37.2969369,53.7058381,0.0],[37.2969342,53.7057365,0.0],[37.2967467,53.7057382,0.0],[37.2967494,53.7058398,0.0]]]},"properties":{"building":"yes"}},{"type":"Feature","geometry":{"type":"Polygon","coordinates":[[[37.2962505,53.706432,0.0],[37.2964368,53.7064384,0.0],[37.2964475,53.7063289,0.0],[37.2962612,53.7063225,0.0],[37.2962505,53.706432,0.0]]]},"properties":{"building":"yes"}},{"type":"Feature","geometry":{"type":"Polygon","coordinates":[[[37.2959742,53.7064558,0.0],[37.2961553,53.7064662,0.0],[37.2961795,53.7063186,0.0],[37.2959983,53.7063082,0.0],[37.2959742,53.7064558,0.0]]]},"properties":{"building":"yes"}},{"type":"Feature","geometry":{"type":"Polygon","coordinates":[[[37.2956791,53.7064161,0.0],[37.2958921,53.7064273,0.0],[37.2959082,53.7063193,0.0],[37.2956952,53.7063082,0.0],[37.2956791,53.7064161,0.0]]]},"properties":{"building":"yes"}},{"type":"Feature","geometry":{"type":"Polygon","coordinates":[[[37.2948745,53.7068972,0.0],[37.2950537,53.7069002,0.0],[37.295059,53.7067875,0.0],[37.2948799,53.7067845,0.0],[37.2948745,53.7068972,0.0]]]},"properties":{"building":"yes"}},{"type":"Feature","geometry":{"type":"Polygon","coordinates":[[[37.2954404,53.7069163,0.0],[37.295615,53.7069217,0.0],[37.2956257,53.706801,0.0],[37.2954512,53.7067956,0.0],[37.2954404,53.7069163,0.0]]]},"properties":{"building":"yes"}},{"type":"Feature","geometry":{"type":"Polygon","coordinates":[[[37.2944078,53.706721,0.0],[37.2946218,53.7067164,0.0],[37.2946137,53.7065846,0.0],[37.2943997,53.7065892,0.0],[37.2944078,53.706721,0.0]]]},"properties":{"building":"yes"}},{"type":"Feature","geometry":{"type":"Polygon","coordinates":[[[37.2943917,53.7063574,0.0],[37.294654,53.7063546,0.0],[37.2946513,53.7062673,0.0],[37.294389,53.7062701,0.0],[37.2943917,53.7063574,0.0]]]},"properties":{"building":"yes"}},{"type":"Feature","geometry":{"type":"Polygon","coordinates":[[[37.2946385,53.7064797,0.0],[37.2948021,53.7064797,0.0],[37.2948021,53.7064257,0.0],[37.2946385,53.7064257,0.0],[37.2946385,53.7064797,0.0]]]},"properties":{"building":"yes"}},{"type":"Feature","geometry":{"type":"Polygon","coordinates":[[[37.2944024,53.7065606,0.0],[37.2945396,53.706551,0.0],[37.2945262,53.7064843,0.0],[37.294389,53.7064939,0.0],[37.2944024,53.7065606,0.0]]]},"properties":{"building":"yes"}},{"type":"Feature","geometry":{"type":"Polygon","coordinates":[[[37.2960198,53.7054492,0.0],[37.2962507,53.7054534,0.0],[37.2962534,53.705401,0.0],[37.2960225,53.7053969,0.0],[37.2960198,53.7054492,0.0]]]},"properties":{"building":"yes"}},{"type":"Feature","geometry":{"type":"Polygon","coordinates":[[[37.2956309,53.7056541,0.0],[37.2958056,53.7056557,0.0],[37.2958083,53.7055525,0.0],[37.2956336,53.7055509,0.0],[37.2956309,53.7056541,0.0]]]},"properties":{"building":"yes"}},{"type":"Feature","geometry":{"type":"Polygon","coordinates":[[[37.2963443,53.7057065,0.0],[37.2965781,53.7057092,0.0],[37.2965808,53.7056298,0.0],[37.296347,53.7056271,0.0],[37.2963443,53.7057065,0.0]]]},"properties":{"building":"yes"}},{"type":"Feature","geometry":{"type":"Polygon","coordinates":[[[37.2967118,53.7061177,0.0],[37.2970272,53.7061326,0.0],[37.2970433,53.7060135,0.0],[37.2967279,53.7059986,0.0],[37.2967118,53.7061177,0.0]]]},"properties":{"building":"yes"}},{"type":"Feature","geometry":{"type":"Polygon","coordinates":[[[37.2964972,53.7061224,0.0],[37.2966716,53.7061192,0.0],[37.2966689,53.7060684,0.0],[37.2964945,53.7060716,0.0],[37.2964972,53.7061224,0.0]]]},"properties":{"building":"yes"}},{"type":"Feature","geometry":{"type":"Polygon","coordinates":[[[37.2958428,53.7060883,0.0],[37.2960175,53.706101,0.0],[37.2960376,53.7060042,0.0],[37.2958629,53.7059914,0.0],[37.2958428,53.7060883,0.0]]]},"properties":{"building":"yes"}},{"type":"Feature","geometry":{"type":"Polygon","coordinates":[[[37.2949858,53.7060416,0.0],[37.2954382,53.7060416,0.0],[37.2954381,53.7059311,0.0],[37.2951387,53.7059311,0.0],[37.2951387,53.7058358,0.0],[37.2949858,53.7058359,0.0],[37.2949858,53.7060416,0.0]]]},"properties":{"building":"yes"}},{"type":"Feature","geometry":{"type":"Polygon","coordinates":[[[37.2947551,53.705812,0.0],[37.2948958,53.7058108,0.0],[37.2948945,53.7057568,0.0],[37.2947538,53.7057581,0.0],[37.2947551,53.705812,0.0]]]},"properties":{"building":"yes"}},{"type":"Feature","geometry":{"type":"Polygon","coordinates":[[[37.2946559,53.7060407,0.0],[37.2947802,53.7060378,0.0],[37.2947722,53.7059163,0.0],[37.2946478,53.7059192,0.0],[37.2946559,53.7060407,0.0]]]},"properties":{"building":"yes"}},{"type":"Feature","geometry":{"type":"Polygon","coordinates":[[[37.2943595,53.7058938,0.0],[37.2945391,53.705888,0.0],[37.2945271,53.7057578,0.0],[37.2943474,53.7057636,0.0],[37.2943595,53.7058938,0.0]]]},"properties":{"building":"yes"}},{"type":"Feature","geometry":{"type":"Polygon","coordinates":[[[37.2943729,53.706047,0.0],[37.2945602,53.7060424,0.0],[37.2945521,53.7059273,0.0],[37.2943649,53.7059319,0.0],[37.2943729,53.706047,0.0]]]},"properties":{"building":"yes"}},{"type":"Feature","geometry":{"type":"Polygon","coordinates":[[[37.2920771,53.7044232,0.0],[37.2923249,53.7044509,0.0],[37.2923557,53.7043541,0.0],[37.292108,53.7043265,0.0],[37.2920771,53.7044232,0.0]]]},"properties":{"building":"yes"}},{"type":"Feature","geometry":{"type":"Polygon","coordinates":[[[37.2915997,53.7043724,0.0],[37.2918474,53.7044,0.0],[37.2918783,53.7043033,0.0],[37.2916305,53.7042756,0.0],[37.2915997,53.7043724,0.0]]]},"properties":{"building":"yes"}},{"type":"Feature","geometry":{"type":"Polygon","coordinates":[[[37.2936796,53.7048138,0.0],[37.2939317,53.7048114,0.0],[37.293929,53.7047129,0.0],[37.2936769,53.7047153,0.0],[37.2936796,53.7048138,0.0]]]},"properties":{"building":"yes"}},{"type":"Feature","geometry":{"type":"Polygon","coordinates":[[[37.2937306,53.7052758,0.0],[37.2939826,53.7052734,0.0],[37.2939799,53.705175,0.0],[37.2937279,53.7051774,0.0],[37.2937306,53.7052758,0.0]]]},"properties":{"building":"yes"}},{"type":"Feature","geometry":{"type":"Polygon","coordinates":[[[37.2937467,53.7057346,0.0],[37.2939987,53.7057322,0.0],[37.293996,53.7056338,0.0],[37.293744,53.7056362,0.0],[37.2937467,53.7057346,0.0]]]},"properties":{"building":"yes"}},{"type":"Feature","geometry":{"type":"Polygon","coordinates":[[[37.2937091,53.7055902,0.0],[37.2939612,53.7055878,0.0],[37.2939585,53.7054893,0.0],[37.2937064,53.7054917,0.0],[37.2937091,53.7055902,0.0]]]},"properties":{"building":"yes"}},{"type":"Feature","geometry":{"type":"Polygon","coordinates":[[[37.2937238,53.7054381,0.0],[37.2939759,53.7054357,0.0],[37.2939732,53.7053373,0.0],[37.2937211,53.7053397,0.0],[37.2937238,53.7054381,0.0]]]},"properties":{"building":"yes"}},{"type":"Feature","geometry":{"type":"Polygon","coordinates":[[[37.2905534,53.7040933,0.0],[37.2906909,53.7040504,0.0],[37.2906399,53.7039932,0.0],[37.2905025,53.7040362,0.0],[37.2905534,53.7040933,0.0]]]},"properties":{"building":"yes"}},{"type":"Feature","geometry":{"type":"Polygon","coordinates":[[[37.2901323,53.7044363,0.0],[37.2904425,53.7043,0.0],[37.2903111,53.7041952,0.0],[37.2900009,53.7043315,0.0],[37.2901323,53.7044363,0.0]]]},"properties":{"building":"yes"}},{"type":"Feature","geometry":{"type":"Polygon","coordinates":[[[37.2897407,53.7040648,0.0],[37.2898928,53.7039927,0.0],[37.2898285,53.7039451,0.0],[37.2896764,53.7040171,0.0],[37.2897407,53.7040648,0.0]]]},"properties":{"building":"yes"}},{"type":"Feature","geometry":{"type":"Polygon","coordinates":[[[37.2901377,53.7039028,0.0],[37.2903535,53.7038035,0.0],[37.2902784,53.7037463,0.0],[37.2900626,53.7038456,0.0],[37.2901377,53.7039028,0.0]]]},"properties":{"building":"yes"}},{"type":"Feature","geometry":{"type":"Polygon","coordinates":[[[37.2901323,53.7041346,0.0],[37.2903649,53.7040342,0.0],[37.29022,53.7039167,0.0],[37.2899875,53.7040171,0.0],[37.2901323,53.7041346,0.0]]]},"properties":{"building":"yes"}},{"type":"Feature","geometry":{"type":"Polygon","coordinates":[[[37.2892901,53.7049094,0.0],[37.289491,53.7048252,0.0],[37.2893998,53.704749,0.0],[37.2891989,53.7048332,0.0],[37.2892901,53.7049094,0.0]]]},"properties":{"building":"yes"}},{"type":"Feature","geometry":{"type":"Polygon","coordinates":[[[37.2887537,53.7051523,0.0],[37.2889113,53.7050878,0.0],[37.2888147,53.7050052,0.0],[37.2886571,53.7050698,0.0],[37.2887537,53.7051523,0.0]]]},"properties":{"building":"yes"}},{"type":"Feature","geometry":{"type":"Polygon","coordinates":[[[37.288641,53.7052111,0.0],[37.288733,53.7051728,0.0],[37.2885988,53.70506,0.0],[37.2885069,53.7050984,0.0],[37.288641,53.7052111,0.0]]]},"properties":{"building":"yes"}},{"type":"Feature","geometry":{"type":"Polygon","coordinates":[[[37.288169,53.7054302,0.0],[37.2883519,53.7053408,0.0],[37.2882124,53.7052408,0.0],[37.2880295,53.7053302,0.0],[37.288169,53.7054302,0.0]]]},"properties":{"building":"yes"}},{"type":"Feature","geometry":{"type":"Polygon","coordinates":[[[37.289384,53.7051111,0.0],[37.289668,53.7049838,0.0],[37.2895929,53.7049251,0.0],[37.2893089,53.7050523,0.0],[37.289384,53.7051111,0.0]]]},"properties":{"building":"yes"}},{"type":"Feature","geometry":{"type":"Polygon","coordinates":[[[37.2906238,53.7047736,0.0],[37.2907882,53.7047066,0.0],[37.2909015,53.7048039,0.0],[37.2907371,53.704871,0.0],[37.2906238,53.7047736,0.0]]]},"properties":{"building":"yes"}},{"type":"Feature","geometry":{"type":"Polygon","coordinates":[[[37.2903351,53.7045504,0.0],[37.290451,53.7044962,0.0],[37.2906002,53.704608,0.0],[37.2904842,53.7046622,0.0],[37.2903351,53.7045504,0.0]]]},"properties":{"building":"yes"}},{"type":"Feature","geometry":{"type":"Polygon","coordinates":[[[37.2904703,53.7076196,0.0],[37.2907734,53.7077179,0.0],[37.2908646,53.7076195,0.0],[37.2905615,53.7075211,0.0],[37.2904703,53.7076196,0.0]]]},"properties":{"building":"yes"}},{"type":"Feature","geometry":{"type":"Polygon","coordinates":[[[37.2899795,53.7074815,0.0],[37.2902009,53.7075558,0.0],[37.2903028,53.7074494,0.0],[37.2900814,53.7073751,0.0],[37.2899795,53.7074815,0.0]]]},"properties":{"building":"yes"}},{"type":"Feature","geometry":{"type":"Polygon","coordinates":[[[37.2918865,53.7041362,0.0],[37.2920878,53.7041635,0.0],[37.2921173,53.7040873,0.0],[37.291916,53.70406,0.0],[37.2918865,53.7041362,0.0]]]},"properties":{"building":"yes"}},{"type":"Feature","geometry":{"type":"Polygon","coordinates":[[[37.2922513,53.7041918,0.0],[37.292419,53.7042197,0.0],[37.2924968,53.7040562,0.0],[37.2923291,53.7040282,0.0],[37.2922513,53.7041918,0.0]]]},"properties":{"building":"yes"}},{"type":"Feature","geometry":{"type":"Polygon","coordinates":[[[37.2923264,53.7038615,0.0],[37.2925648,53.7039018,0.0],[37.2926024,53.703824,0.0],[37.2923639,53.7037837,0.0],[37.2923264,53.7038615,0.0]]]},"properties":{"building":"yes"}},{"type":"Feature","geometry":{"type":"Polygon","coordinates":[[[37.291857,53.7038456,0.0],[37.2920519,53.703876,0.0],[37.2920921,53.7037855,0.0],[37.2918972,53.7037551,0.0],[37.291857,53.7038456,0.0]]]},"properties":{"building":"yes"}},{"type":"Feature","geometry":{"type":"Polygon","coordinates":[[[37.2913206,53.7041902,0.0],[37.2914613,53.7041002,0.0],[37.2912815,53.7040017,0.0],[37.2911409,53.7040917,0.0],[37.2913206,53.7041902,0.0]]]},"properties":{"building":"yes"}},{"type":"Feature","geometry":{"type":"Polygon","coordinates":[[[37.2928495,53.7036049,0.0],[37.2927943,53.7037505,0.0],[37.2929566,53.703772,0.0],[37.2930118,53.7036264,0.0],[37.2928495,53.7036049,0.0]]]},"properties":{"building":"yes"}},{"type":"Feature","geometry":{"type":"Polygon","coordinates":[[[37.292861,53.7038138,0.0],[37.2928233,53.7039135,0.0],[37.2929344,53.7039283,0.0],[37.2929721,53.7038286,0.0],[37.292861,53.7038138,0.0]]]},"properties":{"building":"yes"}},{"type":"Feature","geometry":{"type":"Polygon","coordinates":[[[37.2927959,53.7039478,0.0],[37.2927407,53.7040934,0.0],[37.292903,53.704115,0.0],[37.2929581,53.7039694,0.0],[37.2927959,53.7039478,0.0]]]},"properties":{"building":"yes"}},{"type":"Feature","geometry":{"type":"Polygon","coordinates":[[[37.2926886,53.7041304,0.0],[37.2926334,53.704276,0.0],[37.2927957,53.7042976,0.0],[37.2928509,53.704152,0.0],[37.2926886,53.7041304,0.0]]]},"properties":{"building":"yes"}},{"type":"Feature","geometry":{"type":"Polygon","coordinates":[[[37.2925331,53.7044613,0.0],[37.2927808,53.704489,0.0],[37.2928117,53.7043922,0.0],[37.2925639,53.7043646,0.0],[37.2925331,53.7044613,0.0]]]},"properties":{"building":"yes"}},{"type":"Feature","geometry":{"type":"Point","coordinates":[37.2946408,53.7085439]},"properties":{"highway":"crossing"}},{"type":"Feature","geometry":{"type":"Point","coordinates":[37.2921843,53.7062671]},"properties":{"traffic_signals":"signal","highway":"traffic_signals"}},{"type":"Feature","geometry":{"type":"Point","coordinates":[37.2873884,53.7055838]},"properties":{"highway":"crossing"}},{"type":"Feature","geometry":{"type":"Point","coordinates":[37.2866761,53.7018179]},"properties":{"highway":"crossing"}},{"type":"Feature","geometry":{"type":"Point","coordinates":[37.290937,53.7066273]},"properties":{"highway":"crossing","crossing":"marked"}},{"type":"Feature","geometry":{"type":"Point","coordinates":[37.2920915,53.7061942]},"properties":{"highway":"crossing","crossing":"unmarked"}},{"type":"Feature","geometry":{"type":"Point","coordinates":[37.2962654,53.7131754]},"properties":{"highway":"crossing","crossing":"unmarked"}},{"type":"Feature","geometry":{"type":"Point","coordinates":[37.297852,53.7089042]},"properties":{"bus":"yes","name":"Краеведческий музей","public_transport":"platform","highway":"bus_stop"}},{"type":"Feature","geometry":{"type":"Point","coordinates":[37.2982465,53.7088625]},"properties":{"bus":"yes","name":"Краеведческий музей","public_transport":"platform","highway":"bus_stop"}},{"type":"Feature","geometry":{"type":"Point","coordinates":[37.2928596,53.7069937]},"properties":{"highway":"crossing","crossing":"marked"}},{"type":"Feature","geometry":{"type":"Point","coordinates":[37.2920301,53.7063405]},"properties":{"highway":"crossing","crossing":"marked"}},{"type":"Feature","geometry":{"type":"Point","coordinates":[37.2858374,53.7052261]},"properties":{"highway":"crossing","crossing":"marked"}},{"type":"Feature","geometry":{"type":"Point","coordinates":[37.2833115,53.70406]},"properties":{"highway":"crossing","crossing":"marked"}},{"type":"Feature","geometry":{"type":"Point","coordinates":[37.2895756,53.7042822]},"properties":{"highway":"crossing","crossing":"marked"}},{"type":"Feature","geometry":{"type":"Point","coordinates":[37.2895198,53.7042386]},"properties":{"traffic_signals":"signal","highway":"traffic_signals"}},{"type":"Feature","geometry":{"type":"Point","coordinates":[37.2923071,53.7062309]},"properties":{"highway":"crossing","crossing":"marked"}},{"type":"Feature","geometry":{"type":"Point","coordinates":[37.2874472,53.7056034]},"properties":{"highway":"crossing","crossing":"marked"}},{"type":"Feature","geometry":{"type":"Point","coordinates":[37.2881847,53.7029146]},"properties":{"highway":"crossing"}},{"type":"Feature","geometry":{"type":"Point","coordinates":[37.2890365,53.7036357]},"properties":{"highway":"crossing"}},{"type":"Feature","geometry":{"type":"Point","coordinates":[37.2947302,53.7083297]},"properties":{"highway":"crossing"}},{"type":"Feature","geometry":{"type":"LineString","coordinates":[[37.295319,53.7104213,0.0],[37.2948986,53.7105105,0.0],[37.2945598,53.7106657,0.0],[37.2944289,53.7107299,0.0],[37.2942889,53.7107679,0.0],[37.2930617,53.710982,0.0],[37.292779,53.7110152,0.0],[37.2919554,53.7111118,0.0],[37.2918484,53.7111435,0.0],[37.2917343,53.7112113,0.0],[37.2915809,53.71133,0.0],[37.2911018,53.7117175,0.0],[37.2903737,53.7127155,0.0],[37.2902437,53.7127893,0.0],[37.2901136,53.7128284,0.0]]},"properties":{"surface":"asphalt","name":"улица Свободы","highway":"secondary"}},{"type":"Feature","geometry":{"type":"LineString","coordinates":[[37.295672,53.7114597,0.0],[37.2956546,53.7114094,0.0]]},"properties":{"int_ref":"E 105","ref":"М-2","surface":"asphalt","lanes":"2","maxspeed":"60","name":"улица Коммунаров","highway":"trunk"}},{"type":"Feature","geometry":{"type":"LineString","coordinates":[[37.2873956,53.7127055,0.0],[37.2873107,53.7128092,0.0],[37.2868927,53.7131506,0.0],[37.2837128,53.7156858,0.0],[37.2834912,53.715822,0.0],[37.2827404,53.7162026,0.0]]},"properties":{"name":"улица Лермонтова","highway":"residential"}},{"type":"Feature","geometry":{"type":"LineString","coordinates":[[37.2958605,53.7120259,0.0],[37.2959184,53.712192,0.0]]},"properties":{"int_ref":"E 105","ref":"М-2","surface":"asphalt","lanes":"2","maxspeed":"60","name":"«Крым»","highway":"trunk"}},{"type":"Feature","geometry":{"type":"LineString","coordinates":[[37.295672,53.7114597,0.0],[37.2958605,53.7120259,0.0]]},"properties":{"int_ref":"E 105","ref":"М-2","surface":"asphalt","lanes":"2","maxspeed":"60","name":"«Крым»","bridge":"yes","highway":"trunk","layer":"1"}},{"type":"Feature","geometry":{"type":"LineString","coordinates":[[37.2921843,53.7062671,0.0],[37.2920301,53.7063405,0.0],[37.2911911,53.7067099,0.0],[37.290937,53.7066273,0.0],[37.2903509,53.706334,0.0],[37.2902325,53.7062993,0.0],[37.2893057,53.7060275,0.0],[37.2882204,53.7058616,0.0],[37.2878687,53.7057442,0.0],[37.2874472,53.7056034,0.0],[37.2873884,53.7055838,0.0],[37.2870471,53.7054588,0.0],[37.2860505,53.7050842,0.0],[37.2858238,53.7050018,0.0],[37.28443,53.7044998,0.0],[37.2835314,53.7041489,0.0],[37.2833115,53.70406,0.0],[37.283079,53.7039791,0.0],[37.2826202,53.7037925,0.0],[37.2818542,53.7035168,0.0],[37.2802632,53.702943,0.0],[37.2789146,53.7024317,0.0],[37.2776252,53.7019593,0.0],[37.2761653,53.7014329,0.0]]},"properties":{"name":"Октябрьская улица","highway":"residential"}},{"type":"Feature","geometry":{"type":"LineString","coordinates":[[37.2932761,53.7070882,0.0],[37.2934456,53.7070248,0.0],[37.2937062,53.7069187,0.0],[37.2939662,53.7067885,0.0],[37.2941934,53.7066477,0.0],[37.2942115,53.7066275,0.0],[37.2942531,53.7065808,0.0],[37.2942851,53.7064618,0.0],[37.2942931,53.7061427,0.0],[37.2942339,53.7057596,0.0],[37.2941782,53.7053989,0.0],[37.294133,53.705106,0.0],[37.2941288,53.7047808,0.0],[37.2941494,53.7046256,0.0],[37.2941652,53.7045064,0.0],[37.2942848,53.7042401,0.0],[37.2943215,53.7041583,0.0],[37.2945826,53.7036527,0.0],[37.2946208,53.7035521,0.0],[37.2947175,53.7032976,0.0],[37.2948864,53.7027067,0.0],[37.294912,53.7026171,0.0],[37.2949347,53.7022495,0.0],[37.2948986,53.7020276,0.0],[37.2948185,53.7018902,0.0],[37.2947065,53.7017599,0.0],[37.2942984,53.7014662,0.0],[37.2942894,53.7014354,0.0],[37.2943095,53.7013708,0.0],[37.2944738,53.7012772,0.0],[37.2945261,53.7012463,0.0],[37.2947512,53.7010963,0.0],[37.2948188,53.7009756,0.0],[37.2948265,53.7008811,0.0],[37.2948065,53.7006514,0.0],[37.2947816,53.7003407,0.0]]},"properties":{"name":"Красноармейская улица","highway":"tertiary"}},{"type":"Feature","geometry":{"type":"LineString","coordinates":[[37.2988111,53.7089129,0.0],[37.2995223,53.7088531,0.0]]},"properties":{"bridge":"yes","highway":"tertiary","layer":"1"}},{"type":"Feature","geometry":{"type":"LineString","coordinates":[[37.2961881,53.7129502,0.0],[37.2958722,53.7130451,0.0],[37.2957442,53.7131037,0.0],[37.2956336,53.7131711,0.0],[37.2955538,53.7132348,0.0],[37.2954765,53.7133366,0.0],[37.295305,53.7135639,0.0],[37.2951003,53.7138241,0.0],[37.2948818,53.7140933,0.0],[37.2947459,53.7142734,0.0],[37.2944914,53.714589,0.0],[37.2944094,53.7147055,0.0],[37.2942892,53.714855,0.0],[37.2941136,53.7150747,0.0],[37.2940489,53.7151602,0.0],[37.2938449,53.7154343,0.0],[37.293729,53.7156368,0.0],[37.2935634,53.7158789,0.0],[37.293409,53.7161478,0.0],[37.2932739,53.7163769,0.0],[37.2928317,53.7171677,0.0],[37.2926293,53.7175687,0.0]]},"properties":{"name":"улица В.И.Ульянова","highway":"residential"}},{"type":"Feature","geometry":{"type":"LineString","coordinates":[[37.2981538,53.7089123,0.0],[37.2980502,53.7094421,0.0],[37.2980134,53.7095446,0.0],[37.2978477,53.7097819,0.0],[37.2976019,53.7101423,0.0],[37.2975114,53.7102582,0.0],[37.2974846,53.7102924,0.0],[37.297264,53.7105882,0.0],[37.2969371,53.7110265,0.0],[37.2968005,53.7111509,0.0],[37.296672,53.711242,0.0],[37.2965092,53.7112807,0.0],[37.2963588,53.7113135,0.0],[37.2959341,53.7113713,0.0],[37.2956546,53.7114094,0.0]]},"properties":{"highway":"tertiary"}},{"type":"Feature","geometry":{"type":"LineString","coordinates":[[37.2945414,53.708321,0.0],[37.2947302,53.7083297,0.0],[37.2956849,53.7083738,0.0],[37.2963464,53.7084051,0.0],[37.2969079,53.7084201,0.0],[37.2971475,53.7084243,0.0],[37.2973552,53.7084749,0.0],[37.297567,53.7086313,0.0],[37.2977647,53.7087601,0.0],[37.2978789,53.7088168,0.0],[37.2979,53.7088273,0.0],[37.2979297,53.708842,0.0],[37.2980483,53.7088781,0.0],[37.2981538,53.7089123,0.0],[37.2983285,53.708924,0.0],[37.298671,53.7089177,0.0],[37.2988111,53.7089129,0.0]]},"properties":{"name":"Советская улица","highway":"tertiary"}},{"type":"Feature","geometry":{"type":"LineString","coordinates":[[37.2899449,53.7074121,0.0],[37.2895127,53.7078688,0.0],[37.2889977,53.7083289,0.0],[37.2888313,53.7083879,0.0],[37.2888024,53.7083927,0.0],[37.2885927,53.7084088,0.0]]},"properties":{"highway":"service"}},{"type":"Feature","geometry":{"type":"LineString","coordinates":[[37.2889845,53.7037927,0.0],[37.2888304,53.7038647,0.0],[37.2877224,53.7043985,0.0],[37.2884291,53.704938,0.0],[37.2890514,53.7046617,0.0]]},"properties":{"highway":"service"}},{"type":"Feature","geometry":{"type":"LineString","coordinates":[[37.2959184,53.712192,0.0],[37.2962128,53.7121737,0.0],[37.2964101,53.7121614,0.0],[37.2975108,53.7120928,0.0],[37.2985917,53.7119642,0.0],[37.2994967,53.7118164,0.0],[37.2999837,53.7117293,0.0],[37.3004723,53.7116186,0.0],[37.3008822,53.7114721,0.0],[37.3011666,53.7112991,0.0],[37.3012876,53.7112058,0.0],[37.3013923,53.7111376,0.0],[37.3014995,53.7110852,0.0],[37.3016202,53.7110423,0.0],[37.30178,53.7109919,0.0],[37.302346,53.7108451,0.0],[37.3025027,53.7108177,0.0],[37.302665,53.7107971,0.0],[37.3028621,53.7107867,0.0],[37.3030111,53.7107864,0.0],[37.3031625,53.710805,0.0],[37.3033772,53.7108411,0.0]]},"properties":{"name":"Набережная улица","highway":"residential"}},{"type":"Feature","geometry":{"type":"LineString","coordinates":[[37.295305,53.7135639,0.0],[37.2942475,53.7133025,0.0],[37.2942206,53.7132937,0.0],[37.2937371,53.7131354,0.0],[37.2930126,53.7128983,0.0],[37.292841,53.7128421,0.0],[37.292136,53.7126996,0.0],[37.2916823,53.7126294,0.0]]},"properties":{"name":"улица Пушкина","highway":"residential"}},{"type":"Feature","geometry":{"type":"LineString","coordinates":[[37.2767706,53.7115321,0.0],[37.2769112,53.7113519,0.0],[37.2770292,53.711136,0.0],[37.2773556,53.7108697,0.0],[37.2774262,53.7108121,0.0],[37.2782583,53.7102059,0.0],[37.2786808,53.7098884,0.0],[37.2790103,53.7096266,0.0],[37.2791976,53.7094824,0.0],[37.2795064,53.7092537,0.0],[37.279927,53.708971,0.0],[37.2801332,53.7088428,0.0],[37.2809235,53.7082692,0.0],[37.2817763,53.7076503,0.0],[37.2821962,53.7073456,0.0],[37.2832447,53.7066289,0.0],[37.2836186,53.7064096,0.0],[37.2850728,53.7056378,0.0],[37.2858374,53.7052261,0.0],[37.2860505,53.7050842,0.0]]},"properties":{"name":"улица Победы","highway":"residential"}},{"type":"Feature","geometry":{"type":"LineString","coordinates":[[37.2865166,53.706256,0.0],[37.2853615,53.7057593,0.0],[37.2850728,53.7056378,0.0]]},"properties":{"highway":"service"}},{"type":"Feature","geometry":{"type":"LineString","coordinates":[[37.2854893,53.7071615,0.0],[37.2862238,53.7065257,0.0],[37.2865166,53.706256,0.0],[37.2868113,53.7059668,0.0]]},"properties":{"highway":"service"}},{"type":"Feature","geometry":{"type":"LineString","coordinates":[[37.2901136,53.7128284,0.0],[37.290127,53.7129266,0.0],[37.2896141,53.713475,0.0],[37.2892795,53.7138327,0.0],[37.288928,53.7140251,0.0],[37.287014,53.7154892,0.0],[37.2864765,53.7160569,0.0],[37.2856997,53.7167369,0.0],[37.2854108,53.7169525,0.0],[37.2845507,53.717241,0.0],[37.284321,53.7173528,0.0]]},"properties":{"name":"Трудовая улица","source":"gps","highway":"residential"}},{"type":"Feature","geometry":{"type":"LineString","coordinates":[[37.2963464,53.7084051,0.0],[37.2964686,53.7077196,0.0],[37.2965294,53.7076132,0.0],[37.2965383,53.7073868,0.0],[37.2966582,53.7070254,0.0],[37.2967641,53.706663,0.0],[37.2968208,53.706268,0.0]]},"properties":{"name":"переулок Евстахова","highway":"residential"}},{"type":"Feature","geometry":{"type":"LineString","coordinates":[[37.2978509,53.7077886,0.0],[37.2969633,53.7077496,0.0],[37.2964686,53.7077196,0.0],[37.2957879,53.7076772,0.0],[37.2954123,53.7076485,0.0]]},"properties":{"name":"переулок Маяковского","highway":"residential"}},{"type":"Feature","geometry":{"type":"LineString","coordinates":[[37.2910315,53.7079067,0.0],[37.2922413,53.7082691,0.0],[37.2924806,53.7083408,0.0],[37.2931522,53.7085239,0.0],[37.2938505,53.7087777,0.0],[37.2942375,53.708691,0.0],[37.2944463,53.7084473,0.0],[37.2945414,53.708321,0.0]]},"properties":{"name":"улица Орлова","highway":"residential"}},{"type":"Feature","geometry":{"type":"LineString","coordinates":[[37.2930339,53.7069044,0.0],[37.2928596,53.7069937,0.0],[37.2924493,53.7071588,0.0],[37.2917855,53.7074259,0.0],[37.2917395,53.7074444,0.0],[37.2914003,53.7075969,0.0],[37.2912347,53.7076713,0.0],[37.2910315,53.7079067,0.0]]},"properties":{"name":"улица Орлова","highway":"residential"}},{"type":"Feature","geometry":{"type":"LineString","coordinates":[[37.293188,53.7030998,0.0],[37.2929372,53.7032157,0.0],[37.2926071,53.7033497,0.0],[37.2924793,53.7033836,0.0],[37.2920803,53.7035597,0.0],[37.2908806,53.7041517,0.0],[37.2901269,53.7045236,0.0],[37.2899742,53.7045937,0.0]]},"properties":{"name":"улица Мира","highway":"residential"}},{"type":"Feature","geometry":{"type":"LineString","coordinates":[[37.3046579,53.7063521,0.0],[37.3042649,53.7068877,0.0],[37.3039645,53.7072751,0.0],[37.3037214,53.707565,0.0],[37.3031893,53.7079434,0.0],[37.3028192,53.7082562,0.0],[37.3024356,53.7085928,0.0],[37.3021245,53.7088071,0.0],[37.3020222,53.7089033,0.0],[37.3019287,53.7089976,0.0],[37.3018831,53.7090611,0.0],[37.3018375,53.7091246,0.0],[37.3015505,53.7093659,0.0],[37.3013118,53.7095691,0.0],[37.3012152,53.7096706,0.0],[37.3008746,53.71002,0.0],[37.3005339,53.7103502,0.0],[37.3003569,53.7104915,0.0],[37.3001696,53.710583,0.0],[37.299976,53.7106709,0.0],[37.299858,53.7107629,0.0],[37.2997358,53.710875,0.0],[37.2995603,53.7110773,0.0],[37.2994503,53.7112027,0.0],[37.2994247,53.7112706,0.0],[37.2994155,53.711409,0.0],[37.2996086,53.7114948,0.0],[37.2998983,53.7114884,0.0],[37.3003542,53.7114027,0.0],[37.3005795,53.7113074,0.0],[37.3008734,53.7111896,0.0],[37.3009121,53.7111741,0.0],[37.3010784,53.711155,0.0],[37.3012876,53.7112058,0.0]]},"properties":{"name":"улица Чайковского","highway":"residential"}},{"type":"Feature","geometry":{"type":"LineString","coordinates":[[37.2827404,53.7162026,0.0],[37.2821769,53.7159061,0.0],[37.2815371,53.7156268,0.0],[37.281255,53.7154729,0.0],[37.282835,53.7142307,0.0],[37.2838595,53.7134242,0.0],[37.2842924,53.7131023,0.0],[37.2844842,53.7130247,0.0],[37.2847864,53.7129479,0.0],[37.2849154,53.7128473,0.0],[37.2850977,53.7124527,0.0]]},"properties":{"name":"улица Сафонова","highway":"residential"}},{"type":"Feature","geometry":{"type":"LineString","coordinates":[[37.2859407,53.7125357,0.0],[37.285763,53.7129431,0.0],[37.283734,53.7146399,0.0],[37.2828755,53.7153703,0.0]]},"properties":{"name":"улица Дзержинского","highway":"residential"}},{"type":"Feature","geometry":{"type":"LineString","coordinates":[[37.283734,53.7146399,0.0],[37.282835,53.7142307,0.0],[37.2817654,53.7138031,0.0],[37.2806615,53.7133241,0.0],[37.279501,53.7128348,0.0],[37.2788215,53.7125584,0.0]]},"properties":{"name":"улица Крупской","highway":"residential"}},{"type":"Feature","geometry":{"type":"LineString","coordinates":[[37.2901136,53.7128284,0.0],[37.2899768,53.7128306,0.0],[37.289841,53.7128066,0.0],[37.2885371,53.7124485,0.0],[37.2883594,53.712425,0.0],[37.2881964,53.7124437,0.0],[37.288025,53.7124995,0.0],[37.2877184,53.7126139,0.0],[37.2873956,53.7127055,0.0],[37.2859407,53.7125357,0.0],[37.285272,53.7124692,0.0],[37.2850977,53.7124527,0.0],[37.2822317,53.7121854,0.0],[37.281902,53.7121533,0.0],[37.2801476,53.7119828,0.0],[37.2785462,53.7118271,0.0],[37.2776118,53.7117107,0.0],[37.2772411,53.7116477,0.0],[37.2767706,53.7115321,0.0]]},"properties":{"surface":"asphalt","name":"улица Мичурина","highway":"secondary"}},{"type":"Feature","geometry":{"type":"LineString","coordinates":[[37.287014,53.7154892,0.0],[37.2863568,53.7152273,0.0],[37.2863729,53.7151162,0.0],[37.2866841,53.7148781,0.0],[37.2867967,53.7146273,0.0],[37.2872634,53.7142241,0.0],[37.287242,53.7140368,0.0],[37.2873814,53.7138686,0.0],[37.2874941,53.713859,0.0],[37.2876604,53.7139067,0.0],[37.2884221,53.7133447,0.0]]},"properties":{"highway":"residential"}},{"type":"Feature","geometry":{"type":"LineString","coordinates":[[37.285272,53.7124692,0.0],[37.2855383,53.7118309,0.0],[37.2853768,53.7117837,0.0],[37.2851783,53.7117361,0.0],[37.2846177,53.7116345,0.0],[37.2841001,53.7115868,0.0]]},"properties":{"highway":"service"}},{"type":"Feature","geometry":{"type":"LineString","coordinates":[[37.2995223,53.7088531,0.0],[37.3001373,53.7088059,0.0],[37.30042,53.7087842,0.0],[37.3007878,53.7087535,0.0],[37.3009497,53.7087222,0.0],[37.3010948,53.70868,0.0],[37.3012595,53.7086134,0.0],[37.3014206,53.7085242,0.0],[37.3016736,53.7083429,0.0],[37.3021393,53.707995,0.0],[37.302682,53.7075843,0.0],[37.3031196,53.707237,0.0],[37.3032435,53.7071272,0.0],[37.3035343,53.7068256,0.0],[37.3037997,53.7065548,0.0],[37.3039109,53.706463,0.0],[37.3040439,53.7063699,0.0],[37.3041745,53.7063132,0.0],[37.3042689,53.7063018,0.0],[37.3043921,53.7062982,0.0],[37.304517,53.7063193,0.0],[37.3046579,53.7063521,0.0],[37.3054446,53.7065709,0.0],[37.3060982,53.7067712,0.0],[37.3064071,53.7068552,0.0],[37.3065117,53.7068627,0.0],[37.3065904,53.7068567,0.0],[37.3066521,53.7068361,0.0],[37.3067157,53.7067912,0.0],[37.306754,53.7067346,0.0]]},"properties":{"name":"улица Урицкого","highway":"tertiary"}},{"type":"Feature","geometry":{"type":"LineString","coordinates":[[37.295319,53.7104213,0.0],[37.2948773,53.7091536,0.0],[37.2946408,53.7085439,0.0],[37.2945414,53.708321,0.0],[37.2944266,53.708099,0.0],[37.2943729,53.7080308,0.0],[37.294271,53.7079006,0.0],[37.294153,53.7077894,0.0],[37.2939599,53.7076275,0.0],[37.2932761,53.7070882,0.0],[37.2930339,53.7069044,0.0],[37.2921843,53.7062671,0.0],[37.2920915,53.7061942,0.0],[37.2904552,53.7049787,0.0],[37.2899742,53.7045937,0.0],[37.2895756,53.7042822,0.0],[37.2895198,53.7042386,0.0],[37.2889845,53.7037927,0.0],[37.288883,53.7037059,0.0],[37.2880214,53.7029688,0.0],[37.2872635,53.7023204,0.0],[37.286839,53.7019573,0.0],[37.2866761,53.7018179,0.0],[37.2865351,53.7016972,0.0],[37.2865244,53.7016881,0.0],[37.2855338,53.700847,0.0],[37.2852092,53.7005844,0.0],[37.2850995,53.7004944,0.0],[37.2844209,53.6999381,0.0]]},"properties":{"int_ref":"E 105","ref":"М-2","surface":"asphalt","lanes":"2","maxspeed":"60","name":"улица Коммунаров","highway":"trunk"}},{"type":"Feature","geometry":{"type":"LineString","coordinates":[[37.2956546,53.7114094,0.0],[37.2954868,53.7109154,0.0],[37.295319,53.7104213,0.0]]},"properties":{"int_ref":"E 105","ref":"М-2","surface":"asphalt","lanes":"2","maxspeed":"60","name":"улица Коммунаров","highway":"trunk"}},{"type":"Feature","geometry":{"type":"LineString","coordinates":[[37.2959184,53.712192,0.0],[37.295998,53.7124157,0.0],[37.2961881,53.7129502,0.0],[37.2962654,53.7131754,0.0],[37.2964065,53.7135867,0.0],[37.2965365,53.7139655,0.0],[37.2965749,53.7140775,0.0],[37.2967838,53.7146863,0.0],[37.2971387,53.7156735,0.0],[37.2974854,53.7166212,0.0]]},"properties":{"int_ref":"E 105","ref":"М-2","surface":"asphalt","lanes":"2","maxspeed":"60","name":"улица Коммунаров","highway":"trunk"}},{"type":"Feature","geometry":{"type":"LineString","coordinates":[[37.2911911,53.7067099,0.0],[37.2910356,53.7067897,0.0],[37.2904213,53.7071053,0.0],[37.2901577,53.7072407,0.0],[37.2900704,53.707311,0.0],[37.2899449,53.7074121,0.0]]},"properties":{"highway":"residential"}},{"type":"Feature","geometry":{"type":"LineString","coordinates":[[37.3008856,53.7172456,0.0],[37.3013245,53.7167974,0.0],[37.3017595,53.7163275,0.0],[37.3023792,53.7156581,0.0],[37.3024783,53.7153606,0.0],[37.3028393,53.714992,0.0],[37.303264,53.7145061,0.0]]},"properties":{"highway":"unclassified"}},{"type":"Feature","geometry":{"type":"LineString","coordinates":[[37.303264,53.7145061,0.0],[37.3037046,53.714217,0.0],[37.3040315,53.7138135,0.0],[37.3042111,53.7137695,0.0],[37.3044951,53.7136999,0.0],[37.3048908,53.7137637,0.0],[37.3053858,53.7139406,0.0],[37.3059649,53.7140899,0.0],[37.3063852,53.714123,0.0],[37.3070203,53.7141175,0.0],[37.3072631,53.7141065,0.0],[37.3078329,53.7141728,0.0]]},"properties":{"highway":"unclassified"}},{"type":"Feature","geometry":{"type":"LineString","coordinates":[[37.303264,53.7145061,0.0],[37.3032955,53.7142348,0.0],[37.3031274,53.7141685,0.0],[37.3032768,53.7138479,0.0],[37.3035757,53.7135107,0.0],[37.3035477,53.7134278,0.0],[37.303062,53.7132509,0.0]]},"properties":{"highway":"unclassified"}},{"type":"Feature","geometry":{"type":"LineString","coordinates":[[37.3051967,53.7127671,0.0],[37.3050157,53.7125894,0.0],[37.3047772,53.7123552,0.0],[37.3036065,53.7119467,0.0],[37.3031314,53.7118664,0.0],[37.3030026,53.7118446,0.0],[37.302867,53.7117206,0.0]]},"properties":{"surface":"ground","highway":"service"}},{"type":"Feature","geometry":{"type":"LineString","coordinates":[[37.304252,53.7047131,0.0],[37.3039131,53.7044052,0.0],[37.3038399,53.7043185,0.0],[37.3027666,53.7042993,0.0],[37.3027399,53.7042778,0.0],[37.3026799,53.7042295,0.0],[37.3027477,53.7036094,0.0]]},"properties":{"name":"улица Свердлова","highway":"unclassified"}},{"type":"Feature","geometry":{"type":"LineString","coordinates":[[37.3027477,53.7036094,0.0],[37.3027069,53.7031643,0.0],[37.3026797,53.7025171,0.0],[37.3027077,53.7021356,0.0],[37.3029318,53.7020471,0.0],[37.3033428,53.702025,0.0],[37.3033459,53.7020204,0.0],[37.3039592,53.7020471,0.0],[37.3042217,53.7021594,0.0]]},"properties":{"highway":"unclassified"}},{"type":"Feature","geometry":{"type":"LineString","coordinates":[[37.2969371,53.7110265,0.0],[37.2978523,53.71126,0.0]]},"properties":{"name":"Северный переулок","highway":"unclassified"}},{"type":"Feature","geometry":{"type":"LineString","coordinates":[[37.297264,53.7105882,0.0],[37.2982425,53.710863,0.0]]},"properties":{"name":"переулок Дружбы","highway":"unclassified"}},{"type":"Feature","geometry":{"type":"LineString","coordinates":[[37.2976019,53.7101423,0.0],[37.2987757,53.7103407,0.0]]},"properties":{"name":"переулок Гайдара","highway":"unclassified"}},{"type":"Feature","geometry":{"type":"LineString","coordinates":[[37.2978477,53.7097819,0.0],[37.2983267,53.7098966,0.0],[37.2988666,53.7099366,0.0]]},"properties":{"name":"переулок Гоголя","highway":"unclassified"}},{"type":"Feature","geometry":{"type":"LineString","coordinates":[[37.2980134,53.7095446,0.0],[37.2986654,53.7096478,0.0]]},"properties":{"name":"Южный переулок","highway":"unclassified"}},{"type":"Feature","geometry":{"type":"LineString","coordinates":[[37.2974846,53.7102924,0.0],[37.2986755,53.7105122,0.0]]},"properties":{"highway":"service"}},{"type":"Feature","geometry":{"type":"LineString","coordinates":[[37.292779,53.7110152,0.0],[37.2937595,53.7112976,0.0],[37.2942889,53.7107679,0.0]]},"properties":{"highway":"unclassified"}},{"type":"Feature","geometry":{"type":"LineString","coordinates":[[37.2945598,53.7106657,0.0],[37.2947841,53.7113166,0.0]]},"properties":{"highway":"service"}},{"type":"Feature","geometry":{"type":"LineString","coordinates":[[37.2946208,53.7035521,0.0],[37.295488,53.7035495,0.0],[37.295981,53.7036261,0.0],[37.2962768,53.7037975,0.0],[37.2966342,53.70402,0.0],[37.2969238,53.7043155,0.0],[37.2969771,53.7044133,0.0],[37.2970532,53.7045526,0.0],[37.2971148,53.7046365,0.0],[37.2972134,53.7046657,0.0],[37.2976879,53.704662,0.0],[37.2978235,53.7047131,0.0],[37.2979652,53.7047824,0.0],[37.2980978,53.7050914,0.0],[37.2981562,53.7052274,0.0],[37.2982302,53.7056286,0.0],[37.2982115,53.7059304,0.0],[37.2982055,53.7060262,0.0],[37.2981193,53.7062122,0.0],[37.2977999,53.706392,0.0]]},"properties":{"name":"улица Калинина","highway":"residential"}},{"type":"Feature","geometry":{"type":"LineString","coordinates":[[37.2977999,53.706392,0.0],[37.2978319,53.7064745,0.0],[37.2978481,53.7068451,0.0],[37.2978487,53.7070512,0.0],[37.2978498,53.7074232,0.0],[37.2978509,53.7077886,0.0],[37.2979202,53.708715,0.0],[37.2979297,53.708842,0.0]]},"properties":{"name":"улица Калинина","highway":"residential"}},{"type":"Feature","geometry":{"type":"LineString","coordinates":[[37.2942931,53.7061427,0.0],[37.295405,53.7061978,0.0],[37.2958132,53.706218,0.0],[37.2964525,53.7062497,0.0],[37.2968208,53.706268,0.0],[37.2970872,53.7062821,0.0],[37.2976286,53.7063109,0.0],[37.2977999,53.706392,0.0]]},"properties":{"name":"улица Ленина","highway":"residential"}},{"type":"Feature","geometry":{"type":"LineString","coordinates":[[37.295405,53.7061978,0.0],[37.2953372,53.7069098,0.0],[37.2953422,53.7069647,0.0]]},"properties":{"name":"переулок Чапаева","highway":"residential"}},{"type":"Feature","geometry":{"type":"LineString","coordinates":[[37.2947122,53.7069336,0.0],[37.2953422,53.7069647,0.0],[37.2954121,53.7069681,0.0],[37.296276,53.7070003,0.0],[37.2966582,53.7070254,0.0],[37.2972724,53.7070401,0.0],[37.2978487,53.7070512,0.0]]},"properties":{"name":"переулок Чапаева","highway":"residential"}},{"type":"Feature","geometry":{"type":"LineString","coordinates":[[37.2939599,53.7076275,0.0],[37.2941211,53.7075507,0.0],[37.2942973,53.7074392,0.0],[37.2945307,53.7072792,0.0],[37.2945663,53.7072548,0.0],[37.2953591,53.7071878,0.0],[37.295412,53.7072013,0.0],[37.2955715,53.7072422,0.0],[37.2957767,53.7073554,0.0],[37.2965383,53.7073868,0.0]]},"properties":{"highway":"unclassified"}},{"type":"Feature","geometry":{"type":"LineString","coordinates":[[37.2954121,53.7069681,0.0],[37.295412,53.7072013,0.0]]},"properties":{"highway":"unclassified"}},{"type":"Feature","geometry":{"type":"LineString","coordinates":[[37.2972354,53.7074105,0.0],[37.2977343,53.7074137,0.0],[37.2978498,53.7074232,0.0]]},"properties":{"highway":"unclassified"}},{"type":"Feature","geometry":{"type":"LineString","coordinates":[[37.2957879,53.7076772,0.0],[37.2956849,53.7083738,0.0]]},"properties":{"highway":"unclassified"}},{"type":"Feature","geometry":{"type":"LineString","coordinates":[[37.2969633,53.7077496,0.0],[37.2969079,53.7084201,0.0]]},"properties":{"highway":"unclassified"}},{"type":"Feature","geometry":{"type":"LineString","coordinates":[[37.2942339,53.7057596,0.0],[37.2946545,53.705743,0.0],[37.2951052,53.7057367,0.0],[37.2956309,53.7057398,0.0],[37.295773,53.705743,0.0],[37.2960278,53.7057621,0.0],[37.2964033,53.7058287,0.0],[37.2964442,53.7058368,0.0],[37.2966126,53.70587,0.0],[37.2970149,53.7059208,0.0],[37.2971705,53.7059208,0.0],[37.2972992,53.7058573,0.0],[37.2973958,53.7058732,0.0],[37.2982115,53.7059304,0.0]]},"properties":{"name":"переулок Фурманова","highway":"residential"}},{"type":"Feature","geometry":{"type":"LineString","coordinates":[[37.2941782,53.7053989,0.0],[37.2948155,53.7053969,0.0],[37.2948798,53.7054413,0.0],[37.297326,53.7056001,0.0],[37.2982302,53.7056286,0.0]]},"properties":{"name":"улица Дуничева","highway":"residential"}},{"type":"Feature","geometry":{"type":"LineString","coordinates":[[37.297326,53.7056001,0.0],[37.2972992,53.7058573,0.0]]},"properties":{"highway":"unclassified"}},{"type":"Feature","geometry":{"type":"LineString","coordinates":[[37.2971705,53.7059208,0.0],[37.2971329,53.7060891,0.0],[37.2970872,53.7062821,0.0]]},"properties":{"highway":"unclassified"}},{"type":"Feature","geometry":{"type":"LineString","coordinates":[[37.2964525,53.7062497,0.0],[37.2964689,53.706066,0.0],[37.2964442,53.7058368,0.0]]},"properties":{"highway":"unclassified"}},{"type":"Feature","geometry":{"type":"LineString","coordinates":[[37.2958132,53.706218,0.0],[37.295773,53.705743,0.0]]},"properties":{"highway":"unclassified"}},{"type":"Feature","geometry":{"type":"LineString","coordinates":[[37.297326,53.7056001,0.0],[37.2974023,53.7053325,0.0]]},"properties":{"highway":"unclassified"}},{"type":"Feature","geometry":{"type":"LineString","coordinates":[[37.2980978,53.7050914,0.0],[37.2974667,53.7051198,0.0],[37.2969625,53.7050975,0.0],[37.2960237,53.7050753,0.0],[37.2956535,53.7050308,0.0]]},"properties":{"name":"Гвардейский переулок","highway":"residential"}},{"type":"Feature","geometry":{"type":"LineString","coordinates":[[37.2969771,53.7044133,0.0],[37.2968341,53.7044548,0.0],[37.2964428,53.7044931,0.0],[37.2962856,53.704535,0.0]]},"properties":{"highway":"unclassified"}},{"type":"Feature","geometry":{"type":"LineString","coordinates":[[37.2941494,53.7046256,0.0],[37.2943582,53.7045974,0.0],[37.2946484,53.7044738,0.0],[37.2950838,53.7044613,0.0]]},"properties":{"highway":"service"}},{"type":"Feature","geometry":{"type":"LineString","coordinates":[[37.2908806,53.7041517,0.0],[37.2924977,53.7043263,0.0],[37.2941652,53.7045064,0.0]]},"properties":{"name":"улица Мира","highway":"residential"}},{"type":"Feature","geometry":{"type":"LineString","coordinates":[[37.2924977,53.7043263,0.0],[37.2928447,53.7034496,0.0],[37.2929372,53.7032157,0.0]]},"properties":{"name":"улица Мира","highway":"residential"}},{"type":"Feature","geometry":{"type":"LineString","coordinates":[[37.2942848,53.7042401,0.0],[37.2935916,53.7041209,0.0]]},"properties":{"highway":"service"}},{"type":"Feature","geometry":{"type":"LineString","coordinates":[[37.2926071,53.7033497,0.0],[37.2928447,53.7034496,0.0],[37.2934622,53.7035264,0.0],[37.2934746,53.7037416,0.0]]},"properties":{"highway":"service"}},{"type":"Feature","geometry":{"type":"LineString","coordinates":[[37.2920803,53.7035597,0.0],[37.2918416,53.7033768,0.0],[37.2915009,53.703153,0.0],[37.2913918,53.7030813,0.0],[37.2908865,53.7027859,0.0],[37.2908093,53.7027918,0.0],[37.2907447,53.7027968,0.0],[37.2890365,53.7036357,0.0],[37.288883,53.7037059,0.0]]},"properties":{"name":"улица Мира","highway":"residential"}},{"type":"Feature","geometry":{"type":"LineString","coordinates":[[37.2908806,53.7041517,0.0],[37.290412,53.7037598,0.0],[37.2903812,53.7036978,0.0],[37.2904305,53.7036504,0.0],[37.2915009,53.703153,0.0]]},"properties":{"name":"улица Мира","highway":"residential"}},{"type":"Feature","geometry":{"type":"LineString","coordinates":[[37.2955538,53.7132348,0.0],[37.2952372,53.7131559,0.0],[37.2948993,53.7130257,0.0],[37.2946042,53.7129495,0.0],[37.2945023,53.7128828,0.0],[37.2946579,53.7126574,0.0],[37.2950602,53.712251,0.0]]},"properties":{"name":"улица 10-й Армии","highway":"residential"}},{"type":"Feature","geometry":{"type":"LineString","coordinates":[[37.2930126,53.7128983,0.0],[37.2934401,53.712251,0.0]]},"properties":{"highway":"residential"}},{"type":"Feature","geometry":{"type":"LineString","coordinates":[[37.2937371,53.7131354,0.0],[37.294277,53.7124288,0.0]]},"properties":{"highway":"residential"}},{"type":"Feature","geometry":{"type":"LineString","coordinates":[[37.2918952,53.7130733,0.0],[37.2924316,53.7132352,0.0],[37.2933543,53.7135337,0.0],[37.2940302,53.7137686,0.0],[37.2942502,53.7138734,0.0],[37.2943467,53.7139464,0.0],[37.2944594,53.7140004,0.0],[37.2948818,53.7140933,0.0]]},"properties":{"name":"улица Пушкина","highway":"residential"}},{"type":"Feature","geometry":{"type":"LineString","coordinates":[[37.2944914,53.714589,0.0],[37.2940356,53.7144575,0.0],[37.2936547,53.714321,0.0],[37.2930915,53.7140353,0.0],[37.2928959,53.7139221,0.0],[37.2928447,53.7138924,0.0],[37.2925818,53.7137813,0.0],[37.292201,53.7136987,0.0],[37.2918362,53.7136448,0.0],[37.2916592,53.713648,0.0]]},"properties":{"highway":"residential"}},{"type":"Feature","geometry":{"type":"LineString","coordinates":[[37.2928959,53.7139221,0.0],[37.2926301,53.7142226,0.0]]},"properties":{"highway":"residential"}},{"type":"Feature","geometry":{"type":"LineString","coordinates":[[37.2915465,53.7145337,0.0],[37.2913909,53.7147033,0.0],[37.2911998,53.7151055,0.0],[37.291129,53.7152312,0.0],[37.2909167,53.7154197,0.0],[37.2905345,53.7157632,0.0],[37.2903292,53.7159517,0.0],[37.290223,53.7160983,0.0],[37.2900036,53.716291,0.0],[37.2898903,53.7164166,0.0],[37.2897417,53.7164501,0.0],[37.2895718,53.7165716,0.0],[37.2892037,53.716936,0.0],[37.2887719,53.7174429,0.0]]},"properties":{"name":"Береговая улица","highway":"residential"}},{"type":"Feature","geometry":{"type":"LineString","coordinates":[[37.291129,53.7152312,0.0],[37.2913512,53.7152731,0.0],[37.2916101,53.7153461,0.0],[37.2919736,53.715481,0.0],[37.2922139,53.7155539,0.0],[37.2925159,53.7156889,0.0],[37.2928671,53.715755,0.0],[37.2935634,53.7158789,0.0]]},"properties":{"highway":"residential"}},{"type":"Feature","geometry":{"type":"LineString","coordinates":[[37.2936547,53.714321,0.0],[37.2934895,53.7145766,0.0],[37.2932853,53.7150126,0.0],[37.2931658,53.7150474,0.0],[37.2930024,53.7153155,0.0],[37.2928671,53.715755,0.0]]},"properties":{"name":"улица 10-й Армии","highway":"residential"}},{"type":"Feature","geometry":{"type":"LineString","coordinates":[[37.2928671,53.715755,0.0],[37.2926955,53.7160152,0.0],[37.2924394,53.7161572,0.0],[37.2922198,53.7164723,0.0],[37.2921141,53.7166576,0.0],[37.2920776,53.7168356,0.0],[37.2919475,53.7170088,0.0]]},"properties":{"name":"улица 10-й Армии","highway":"residential"}},{"type":"Feature","geometry":{"type":"LineString","coordinates":[[37.293409,53.7161478,0.0],[37.2926955,53.7160152,0.0],[37.2915686,53.71569,0.0]]},"properties":{"highway":"residential"}},{"type":"Feature","geometry":{"type":"LineString","coordinates":[[37.2926293,53.7175687,0.0],[37.2929362,53.717628,0.0],[37.2932581,53.7176692,0.0],[37.2937248,53.7176248,0.0],[37.2946957,53.7174629,0.0],[37.2960315,53.7171962,0.0],[37.296643,53.7169804,0.0],[37.2967457,53.7169434,0.0],[37.2968898,53.7168915,0.0],[37.2972277,53.7167677,0.0],[37.2972548,53.716687,0.0],[37.297178,53.7164259,0.0],[37.2969408,53.7158347,0.0],[37.2967723,53.7152868,0.0],[37.2965933,53.714705,0.0]]},"properties":{"name":"Железнодорожный проезд","highway":"residential"}},{"type":"Feature","geometry":{"type":"LineString","coordinates":[[37.2947459,53.7142734,0.0],[37.2952709,53.7144027,0.0],[37.295481,53.714469,0.0],[37.295587,53.7145226,0.0],[37.2957052,53.7145823,0.0],[37.2961862,53.7146707,0.0],[37.2964804,53.7146984,0.0],[37.2965933,53.714705,0.0],[37.2967838,53.7146863,0.0]]},"properties":{"highway":"residential"}},{"type":"Feature","geometry":{"type":"LineString","coordinates":[[37.2951003,53.7138241,0.0],[37.2955838,53.7139632,0.0],[37.2957466,53.7140046,0.0],[37.2960835,53.7140903,0.0],[37.2965749,53.7140775,0.0]]},"properties":{"highway":"residential"}},{"type":"Feature","geometry":{"type":"LineString","coordinates":[[37.2944094,53.7147055,0.0],[37.2949767,53.7148504,0.0],[37.2951509,53.7148987,0.0],[37.2951886,53.7149092,0.0],[37.2955044,53.7149969,0.0],[37.2960835,53.7151848,0.0],[37.2964524,53.7152649,0.0],[37.2966345,53.7152953,0.0],[37.2967723,53.7152868,0.0]]},"properties":{"name":"переулок Огарёва","highway":"residential"}},{"type":"Feature","geometry":{"type":"LineString","coordinates":[[37.2941136,53.7150747,0.0],[37.2942482,53.7151875,0.0],[37.2947011,53.7153285,0.0],[37.2948489,53.7153651,0.0],[37.2952148,53.7154556,0.0],[37.2958967,53.7156574,0.0],[37.2963216,53.7157679,0.0],[37.2966906,53.7158315,0.0],[37.2969408,53.7158347,0.0]]},"properties":{"name":"переулок Герцена","highway":"residential"}},{"type":"Feature","geometry":{"type":"LineString","coordinates":[[37.293729,53.7156368,0.0],[37.2942762,53.7157513,0.0],[37.2945255,53.7158197,0.0],[37.2949113,53.7159255,0.0],[37.2956772,53.7161244,0.0],[37.296798,53.716434,0.0],[37.2969094,53.7164476,0.0],[37.297178,53.7164259,0.0]]},"properties":{"name":"Урожайный переулок","highway":"residential"}},{"type":"Feature","geometry":{"type":"LineString","coordinates":[[37.2825541,53.7117328,0.0],[37.2828372,53.7117525,0.0],[37.2829283,53.7114955,0.0],[37.2833719,53.7115466,0.0],[37.2833999,53.711548,0.0],[37.2836179,53.7108409,0.0],[37.2837121,53.7106662,0.0],[37.2838997,53.7103232,0.0]]},"properties":{"highway":"service"}},{"type":"Feature","geometry":{"type":"LineString","coordinates":[[37.28443,53.7044998,0.0],[37.2848661,53.70417,0.0],[37.2858107,53.7045055,0.0],[37.2860424,53.7045949,0.0]]},"properties":{"highway":"service"}},{"type":"Feature","geometry":{"type":"LineString","coordinates":[[37.2848661,53.70417,0.0],[37.2853298,53.7036717,0.0]]},"properties":{"highway":"service"}},{"type":"Feature","geometry":{"type":"LineString","coordinates":[[37.2896141,53.713475,0.0],[37.2896361,53.7136695,0.0],[37.2893786,53.7140823,0.0],[37.2892016,53.7144918,0.0],[37.2898346,53.714695,0.0],[37.2898668,53.7148442,0.0],[37.2898239,53.7150378,0.0],[37.2896254,53.7152379,0.0]]},"properties":{"highway":"residential"}},{"type":"Feature","geometry":{"type":"LineString","coordinates":[[37.2953895,53.7100597,0.0],[37.2953144,53.7098723,0.0]]},"properties":{"highway":"steps"}},{"type":"Feature","geometry":{"type":"LineString","coordinates":[[37.2949308,53.7101121,0.0],[37.2953895,53.7100597,0.0]]},"properties":{"bridge":"yes","highway":"footway","layer":"1"}},{"type":"Feature","geometry":{"type":"LineString","coordinates":[[37.2948664,53.7099327,0.0],[37.2949308,53.7101121,0.0]]},"properties":{"highway":"steps"}},{"type":"Feature","geometry":{"type":"LineString","coordinates":[[37.2883594,53.712425,0.0],[37.2882387,53.712352,0.0],[37.2879329,53.7122425,0.0],[37.2866937,53.7121123,0.0],[37.2860607,53.712044,0.0],[37.286168,53.7117218,0.0],[37.2861412,53.7116916,0.0],[37.2857925,53.7115805,0.0]]},"properties":{"highway":"service"}},{"type":"Feature","geometry":{"type":"LineString","coordinates":[[37.2855383,53.7118309,0.0],[37.2856343,53.7117218,0.0],[37.2857925,53.7115805,0.0],[37.2858891,53.7114233,0.0],[37.285704,53.7113281,0.0],[37.2855753,53.7112344,0.0],[37.2851461,53.7111423,0.0],[37.2849771,53.7112836,0.0]]},"properties":{"highway":"service"}},{"type":"Feature","geometry":{"type":"LineString","coordinates":[[37.2838595,53.7134242,0.0],[37.2827908,53.712963,0.0]]},"properties":{"highway":"residential"}},{"type":"Feature","geometry":{"type":"LineString","coordinates":[[37.2884291,53.704938,0.0],[37.287941,53.7051555,0.0],[37.287662,53.7052952,0.0],[37.2875681,53.7053857,0.0],[37.2873884,53.7055838,0.0]]},"properties":{"highway":"service"}},{"type":"Feature","geometry":{"type":"LineString","coordinates":[[37.299976,53.7106709,0.0],[37.2999519,53.7104978,0.0],[37.3001236,53.7099612,0.0],[37.3003167,53.7096152,0.0],[37.3003032,53.7092419,0.0],[37.3001719,53.7089119,0.0]]},"properties":{"name":"улица Урицкого","highway":"residential"}},{"type":"Feature","geometry":{"type":"LineString","coordinates":[[37.2965383,53.7073868,0.0],[37.2972354,53.7074105,0.0]]},"properties":{"highway":"footway"}},{"type":"Feature","geometry":{"type":"LineString","coordinates":[[37.2960835,53.7140903,0.0],[37.295587,53.7145226,0.0],[37.2951886,53.7149092,0.0],[37.2948489,53.7153651,0.0],[37.2945255,53.7158197,0.0]]},"properties":{"highway":"service"}},{"type":"Feature","geometry":{"type":"LineString","coordinates":[[37.2959542,53.7114292,0.0],[37.2959341,53.7113713,0.0]]},"properties":{"highway":"footway"}},{"type":"Feature","geometry":{"type":"LineString","coordinates":[[37.2961451,53.7119787,0.0],[37.2959542,53.7114292,0.0]]},"properties":{"bridge":"yes","highway":"footway","layer":"1"}},{"type":"Feature","geometry":{"type":"LineString","coordinates":[[37.2962128,53.7121737,0.0],[37.2961451,53.7119787,0.0]]},"properties":{"highway":"footway"}},{"type":"Feature","geometry":{"type":"LineString","coordinates":[[37.2916592,53.713648,0.0],[37.2915626,53.7137813,0.0],[37.2915089,53.714048,0.0],[37.2914768,53.7143305,0.0],[37.2915143,53.7144924,0.0],[37.2915465,53.7145337,0.0]]},"properties":{"highway":"residential"}},{"type":"Feature","geometry":{"type":"LineString","coordinates":[[37.2915465,53.7145337,0.0],[37.2916699,53.7145369,0.0],[37.2918415,53.7145591,0.0],[37.2920883,53.7146289,0.0],[37.2926945,53.7148131,0.0],[37.2931451,53.7149782,0.0],[37.2932853,53.7150126,0.0],[37.2937137,53.7151178,0.0],[37.2940489,53.7151602,0.0]]},"properties":{"highway":"residential"}},{"type":"Feature","geometry":{"type":"LineString","coordinates":[[37.2882204,53.7058616,0.0],[37.2880777,53.7060044,0.0],[37.2880838,53.7060737,0.0],[37.288281,53.7061831,0.0],[37.288373,53.7062171,0.0],[37.2897723,53.7067339,0.0],[37.2903207,53.7069637,0.0],[37.2904213,53.7071053,0.0]]},"properties":{"highway":"service"}},{"type":"Feature","geometry":{"type":"LineString","coordinates":[[37.288373,53.7062171,0.0],[37.2877757,53.7067339,0.0]]},"properties":{"highway":"service"}},{"type":"Feature","geometry":{"type":"LineString","coordinates":[[37.2899449,53.7074121,0.0],[37.2896305,53.7074306,0.0],[37.2892978,53.7073467,0.0],[37.2890575,53.7073941,0.0],[37.2885645,53.7073503,0.0],[37.2883057,53.7073613,0.0],[37.287215,53.7070695,0.0],[37.2867343,53.7068907,0.0],[37.2865988,53.7068652,0.0],[37.2862968,53.7069345,0.0],[37.2858593,53.7073102,0.0]]},"properties":{"highway":"service"}},{"type":"Feature","geometry":{"type":"LineString","coordinates":[[37.2822963,53.7078605,0.0],[37.2837875,53.7083529,0.0]]},"properties":{"highway":"service"}},{"type":"Feature","geometry":{"type":"LineString","coordinates":[[37.2948986,53.7105105,0.0],[37.2948398,53.710377,0.0]]},"properties":{"highway":"service"}},{"type":"Feature","geometry":{"type":"LineString","coordinates":[[37.2921843,53.7062671,0.0],[37.2923071,53.7062309,0.0],[37.292785,53.7060666,0.0],[37.2942931,53.7061427,0.0]]},"properties":{"name":"улица Ленина","highway":"residential"}},{"type":"Feature","geometry":{"type":"LineString","coordinates":[[37.298085,53.7169181,0.0],[37.2983005,53.7168373,0.0],[37.2991461,53.7165486,0.0],[37.2998209,53.7163225,0.0],[37.3004184,53.7158032,0.0],[37.3006673,53.7157407,0.0],[37.301354,53.7149724,0.0]]},"properties":{"highway":"service"}},{"type":"Feature","geometry":{"type":"LineString","coordinates":[[37.2848661,53.70417,0.0],[37.2847491,53.7041009,0.0],[37.2847253,53.7040748,0.0],[37.2847264,53.704039,0.0],[37.2847595,53.7040067,0.0],[37.2853298,53.7036717,0.0],[37.2861435,53.7031938,0.0],[37.2870438,53.7027697,0.0],[37.287088,53.7027421,0.0],[37.2871128,53.7027044,0.0],[37.287137,53.702656,0.0],[37.2871283,53.7026115,0.0],[37.2869532,53.7024555,0.0]]},"properties":{"highway":"service"}},{"type":"Feature","geometry":{"type":"LineString","coordinates":[[37.2888024,53.7083927,0.0],[37.2887671,53.7085134,0.0],[37.2886759,53.7086213,0.0],[37.2874171,53.7098043,0.0],[37.2870834,53.7101179,0.0],[37.2861707,53.7109756,0.0],[37.2846998,53.7105531,0.0],[37.284335,53.7104483,0.0],[37.2838997,53.7103232,0.0],[37.2828475,53.7100136,0.0],[37.2826741,53.7099495,0.0]]},"properties":{"highway":"footway"}},{"type":"Feature","geometry":{"type":"LineString","coordinates":[[37.2945023,53.7128828,0.0],[37.2942206,53.7132937,0.0]]},"properties":{"highway":"path"}},{"type":"Feature","geometry":{"type":"LineString","coordinates":[[37.2964101,53.7121614,0.0],[37.2964757,53.7123824,0.0]]},"properties":{"highway":"service"}},{"type":"Feature","geometry":{"type":"LineString","coordinates":[[37.302867,53.7117206,0.0],[37.3031505,53.711283,0.0],[37.3035079,53.7110569,0.0],[37.3036188,53.7108672,0.0],[37.3033772,53.7108411,0.0]]},"properties":{"highway":"unclassified"}},{"type":"Feature","geometry":{"type":"LineString","coordinates":[[37.2977027,53.716593,0.0],[37.2967537,53.7139271,0.0],[37.296551,53.7133575,0.0]]},"properties":{"highway":"footway"}},{"type":"Feature","geometry":{"type":"LineString","coordinates":[[37.2947122,53.7069336,0.0],[37.2945481,53.7069322,0.0],[37.2944405,53.7069017,0.0],[37.2942115,53.7066275,0.0]]},"properties":{"highway":"service"}},{"type":"Feature","geometry":{"type":"LineString","coordinates":[[37.2944405,53.7069017,0.0],[37.2944218,53.7071178,0.0],[37.2945307,53.7072792,0.0]]},"properties":{"highway":"service"}},{"type":"Feature","geometry":{"type":"LineString","coordinates":[[37.2944266,53.708099,0.0],[37.2945779,53.7080641,0.0],[37.2951634,53.7079394,0.0],[37.2946906,53.7073215,0.0]]},"properties":{"highway":"service"}},{"type":"Feature","geometry":{"type":"LineString","coordinates":[[37.2975114,53.7102582,0.0],[37.2973105,53.7102071,0.0],[37.2971833,53.7102241,0.0],[37.2956908,53.7104232,0.0],[37.2954755,53.7097555,0.0],[37.2974088,53.7095394,0.0],[37.2973667,53.7093815,0.0],[37.295424,53.7095976,0.0]]},"properties":{"highway":"service"}},{"type":"Feature","geometry":{"type":"LineString","coordinates":[[37.2974088,53.7095394,0.0],[37.2971833,53.7102241,0.0]]},"properties":{"highway":"service"}},{"type":"Feature","geometry":{"type":"LineString","coordinates":[[37.295998,53.7124157,0.0],[37.2958053,53.7123615,0.0],[37.2956367,53.7121815,0.0],[37.2954495,53.7121482,0.0]]},"properties":{"highway":"service"}},{"type":"Feature","geometry":{"type":"LineString","coordinates":[[37.2965365,53.7139655,0.0],[37.2967537,53.7139271,0.0],[37.2982163,53.7137927,0.0],[37.2989232,53.713837,0.0],[37.2990215,53.713909,0.0],[37.2989606,53.7147097,0.0]]},"properties":{"highway":"service"}},{"type":"Feature","geometry":{"type":"LineString","coordinates":[[37.3001373,53.7088059,0.0],[37.3001719,53.7089119,0.0]]},"properties":{"highway":"path"}},{"type":"Feature","geometry":{"type":"LineString","coordinates":[[37.2979202,53.708715,0.0],[37.2981169,53.7087173,0.0]]},"properties":{"highway":"service"}},{"type":"Feature","geometry":{"type":"LineString","coordinates":[[37.2984276,53.7085931,0.0],[37.298129,53.7085931,0.0],[37.2981169,53.7087173,0.0],[37.2981471,53.7087567,0.0],[37.2981566,53.708825,0.0],[37.2981538,53.7089123,0.0]]},"properties":{"highway":"footway"}},{"type":"Feature","geometry":{"type":"LineString","coordinates":[[37.2973667,53.7093815,0.0],[37.2974898,53.7090311,0.0],[37.2977539,53.7089039,0.0]]},"properties":{"highway":"service"}},{"type":"Feature","geometry":{"type":"LineString","coordinates":[[37.2979,53.7088273,0.0],[37.2977539,53.7089039,0.0]]},"properties":{"highway":"footway"}},{"type":"Feature","geometry":{"type":"LineString","coordinates":[[37.3020574,53.7074889,0.0],[37.301707,53.7074999,0.0],[37.3015595,53.7075326,0.0],[37.3014795,53.7075799,0.0],[37.3011599,53.7079438,0.0],[37.3008402,53.7082603,0.0],[37.3007234,53.7084423,0.0],[37.3007878,53.7087535,0.0]]},"properties":{"highway":"service","layer":"-1"}},{"type":"Feature","geometry":{"type":"LineString","coordinates":[[37.3016669,53.7041227,0.0],[37.3021776,53.7042019,0.0]]},"properties":{"bridge":"yes","highway":"path","layer":"1"}},{"type":"Feature","geometry":{"type":"LineString","coordinates":[[37.3021776,53.7042019,0.0],[37.3024015,53.7042351,0.0],[37.3025776,53.7042768,0.0],[37.3027399,53.7042778,0.0]]},"properties":{"highway":"path"}},{"type":"Feature","geometry":{"type":"LineString","coordinates":[[37.2991811,53.7027756,0.0],[37.2994445,53.7028556,0.0],[37.2995859,53.7029357,0.0],[37.3000777,53.7030194,0.0],[37.300551,53.7031177,0.0],[37.3012395,53.7032123,0.0],[37.3014547,53.7033287,0.0],[37.3016022,53.7034925,0.0],[37.3016821,53.7036708,0.0],[37.3016391,53.7038564,0.0],[37.3016145,53.704042,0.0],[37.3016669,53.7041227,0.0]]},"properties":{"highway":"path"}},{"type":"Feature","geometry":{"type":"LineString","coordinates":[[37.2885927,53.7084088,0.0],[37.28698,53.7077606,0.0],[37.2858593,53.7073102,0.0],[37.2854893,53.7071615,0.0],[37.2853092,53.7070891,0.0],[37.2836186,53.7064096,0.0]]},"properties":{"highway":"service"}},{"type":"Feature","geometry":{"type":"LineString","coordinates":[[37.2912347,53.7076713,0.0],[37.2900704,53.707311,0.0]]},"properties":{"highway":"service"}},{"type":"Feature","geometry":{"type":"LineString","coordinates":[[37.2922413,53.7082691,0.0],[37.2919516,53.7080376,0.0],[37.2914003,53.7075969,0.0]]},"properties":{"highway":"service"}},{"type":"Feature","geometry":{"type":"LineString","coordinates":[[37.2944463,53.7084473,0.0],[37.2943864,53.7083954,0.0],[37.2942281,53.7082953,0.0],[37.2936427,53.7082041,0.0],[37.2931435,53.7080072,0.0]]},"properties":{"highway":"service"}},{"type":"Feature","geometry":{"type":"LineString","coordinates":[[37.2922413,53.7082691,0.0],[37.2924476,53.7090155,0.0]]},"properties":{"highway":"footway"}},{"type":"Feature","geometry":{"type":"LineString","coordinates":[[37.2943864,53.7083954,0.0],[37.2937659,53.7077081,0.0],[37.2936471,53.7076084,0.0],[37.2935009,53.7074856,0.0],[37.2928596,53.7069937,0.0]]},"properties":{"highway":"footway"}},{"type":"Feature","geometry":{"type":"LineString","coordinates":[[37.2928596,53.7069937,0.0],[37.2920301,53.7063405,0.0],[37.2898933,53.7047293,0.0],[37.2895417,53.7044433,0.0],[37.2888304,53.7038647,0.0]]},"properties":{"highway":"footway"}},{"type":"Feature","geometry":{"type":"LineString","coordinates":[[37.2888304,53.7038647,0.0],[37.2871214,53.7023853,0.0]]},"properties":{"highway":"footway"}},{"type":"Feature","geometry":{"type":"LineString","coordinates":[[37.2848661,53.70417,0.0],[37.2842332,53.7042101,0.0],[37.2837833,53.7041335,0.0],[37.2835314,53.7041489,0.0]]},"properties":{"highway":"footway"}},{"type":"Feature","geometry":{"type":"LineString","coordinates":[[37.2858238,53.7050018,0.0],[37.2858542,53.7047824,0.0],[37.2860424,53.7045949,0.0],[37.2863077,53.7044265,0.0],[37.286735,53.7042357,0.0],[37.2867904,53.704232,0.0],[37.2871848,53.7045238,0.0],[37.2877224,53.7043985,0.0],[37.2872464,53.7040898,0.0]]},"properties":{"highway":"footway"}},{"type":"Feature","geometry":{"type":"LineString","coordinates":[[37.2878687,53.7057442,0.0],[37.2882385,53.7054758,0.0],[37.2898933,53.7047293,0.0]]},"properties":{"highway":"footway"}},{"type":"Feature","geometry":{"type":"LineString","coordinates":[[37.2952788,53.7095212,0.0],[37.2950969,53.7089846,0.0],[37.2949305,53.7087148,0.0],[37.2948443,53.7085689,0.0],[37.2947302,53.7083297,0.0],[37.2945779,53.7080641,0.0],[37.2945054,53.7079196,0.0],[37.2941211,53.7075507,0.0]]},"properties":{"highway":"footway"}},{"type":"Feature","geometry":{"type":"LineString","coordinates":[[37.2941211,53.7075507,0.0],[37.2934456,53.7070248,0.0],[37.2923071,53.7062309,0.0]]},"properties":{"highway":"footway"}},{"type":"Feature","geometry":{"type":"LineString","coordinates":[[37.2923071,53.7062309,0.0],[37.2906725,53.7049433,0.0],[37.2901269,53.7045236,0.0],[37.2897236,53.7042174,0.0]]},"properties":{"highway":"footway"}},{"type":"Feature","geometry":{"type":"LineString","coordinates":[[37.2897236,53.7042174,0.0],[37.2890365,53.7036357,0.0],[37.2881847,53.7029146,0.0],[37.2868398,53.7017524,0.0]]},"properties":{"highway":"footway"}},{"type":"Feature","geometry":{"type":"LineString","coordinates":[[37.2863077,53.7044265,0.0],[37.2857367,53.7041992,0.0],[37.285139,53.7040204,0.0],[37.2850158,53.7041262,0.0],[37.2848661,53.70417,0.0]]},"properties":{"highway":"footway"}},{"type":"Feature","geometry":{"type":"LineString","coordinates":[[37.2910356,53.7067897,0.0],[37.2908266,53.706643,0.0],[37.290574,53.7065227,0.0],[37.290309,53.7063987,0.0],[37.2899701,53.7062929,0.0],[37.2896312,53.7062199,0.0],[37.2892553,53.706136,0.0],[37.2888362,53.7060485,0.0],[37.2884912,53.7060047,0.0],[37.2883741,53.7059865,0.0]]},"properties":{"highway":"footway"}},{"type":"Feature","geometry":{"type":"LineString","coordinates":[[37.287382,53.7056436,0.0],[37.2872649,53.7057348,0.0],[37.287536,53.705837,0.0],[37.2862968,53.7069345,0.0]]},"properties":{"highway":"footway"}},{"type":"Feature","geometry":{"type":"LineString","coordinates":[[37.2872649,53.7057348,0.0],[37.2858374,53.7052261,0.0]]},"properties":{"highway":"footway"}},{"type":"Feature","geometry":{"type":"LineString","coordinates":[[37.2858374,53.7052261,0.0],[37.2855901,53.7051372,0.0],[37.2840733,53.704551,0.0],[37.2840237,53.7044873,0.0],[37.2839436,53.7044399,0.0],[37.2829559,53.7041071,0.0],[37.2824752,53.7039055,0.0],[37.2817327,53.7036209,0.0]]},"properties":{"highway":"footway"}},{"type":"Feature","geometry":{"type":"LineString","coordinates":[[37.2841001,53.7115868,0.0],[37.2840431,53.7115387,0.0],[37.2839753,53.7114184,0.0],[37.2839199,53.7112251,0.0],[37.2837658,53.7107509,0.0],[37.2837121,53.7106662,0.0]]},"properties":{"highway":"footway"}},{"type":"Feature","geometry":{"type":"LineString","coordinates":[[37.2936471,53.7076084,0.0],[37.293019,53.7078794,0.0],[37.2929272,53.7078815,0.0],[37.2928253,53.7078339,0.0],[37.2927019,53.7077196,0.0]]},"properties":{"service":"alley","highway":"service"}},{"type":"Feature","geometry":{"type":"LineString","coordinates":[[37.2890514,53.7046617,0.0],[37.2895417,53.7044433,0.0]]},"properties":{"highway":"footway"}},{"type":"Feature","geometry":{"type":"LineString","coordinates":[[37.2902325,53.7062993,0.0],[37.2903067,53.7062082,0.0],[37.2905213,53.7060367,0.0],[37.2908163,53.7059097,0.0],[37.2912991,53.706278,0.0],[37.2909772,53.7064019,0.0]]},"properties":{"highway":"service"}},{"type":"Feature","geometry":{"type":"LineString","coordinates":[[37.2920871,53.7076553,0.0],[37.2927595,53.7073833,0.0]]},"properties":{"highway":"service"}},{"type":"Feature","geometry":{"type":"LineString","coordinates":[[37.2917855,53.7074259,0.0],[37.2920871,53.7076553,0.0],[37.2922781,53.7078006,0.0],[37.2923878,53.7078527,0.0]]},"properties":{"highway":"service"}},{"type":"Feature","geometry":{"type":"LineString","coordinates":[[37.2919516,53.7080376,0.0],[37.2923878,53.7078527,0.0],[37.2927019,53.7077196,0.0],[37.2929916,53.7075513,0.0],[37.2927595,53.7073833,0.0],[37.2924493,53.7071588,0.0]]},"properties":{"highway":"service"}},{"type":"Feature","geometry":{"type":"LineString","coordinates":[[37.2854117,53.7092249,0.0],[37.2826741,53.7099495,0.0]]},"properties":{"highway":"footway"}},{"type":"Feature","geometry":{"type":"LineString","coordinates":[[37.2858299,53.7091694,0.0],[37.2887671,53.7085134,0.0]]},"properties":{"highway":"footway"}},{"type":"Feature","geometry":{"type":"LineString","coordinates":[[37.2858027,53.7092548,0.0],[37.2874171,53.7098043,0.0]]},"properties":{"highway":"footway"}},{"type":"Feature","geometry":{"type":"LineString","coordinates":[[37.2870834,53.7101179,0.0],[37.2859859,53.7103362,0.0],[37.2846998,53.7105531,0.0]]},"properties":{"highway":"footway"}},{"type":"Feature","geometry":{"type":"LineString","coordinates":[[37.2856891,53.7093099,0.0],[37.2859859,53.7103362,0.0],[37.2861707,53.7109756,0.0]]},"properties":{"highway":"footway"}},{"type":"Feature","geometry":{"type":"LineString","coordinates":[[37.284839,53.7075968,0.0],[37.285571,53.709066,0.0]]},"properties":{"highway":"footway"}},{"type":"Feature","geometry":{"type":"LineString","coordinates":[[37.2857167,53.7090771,0.0],[37.28698,53.7077606,0.0]]},"properties":{"highway":"footway"}},{"type":"Feature","geometry":{"type":"LineString","coordinates":[[37.284335,53.7104483,0.0],[37.285498,53.7092953,0.0]]},"properties":{"highway":"footway"}},{"type":"Feature","geometry":{"type":"LineString","coordinates":[[37.2838837,53.7086349,0.0],[37.2854219,53.7091382,0.0]]},"properties":{"highway":"footway"}},{"type":"Feature","geometry":{"type":"Polygon","coordinates":[[[37.2854117,53.7092249,0.0],[37.2854309,53.7092522,0.0],[37.2854602,53.709276,0.0],[37.285498,53.7092953,0.0],[37.2855422,53.7093088,0.0],[37.2855906,53.709316,0.0],[37.2856404,53.7093163,0.0],[37.2856891,53.7093099,0.0],[37.2857339,53.7092969,0.0],[37.2857725,53.7092782,0.0],[37.2858027,53.7092548,0.0],[37.285823,53.7092278,0.0],[37.2858322,53.7091988,0.0],[37.2858299,53.7091694,0.0],[37.2858162,53.709141,0.0],[37.2857918,53.7091153,0.0],[37.285758,53.7090936,0.0],[37.2857167,53.7090771,0.0],[37.28567,53.7090667,0.0],[37.2856206,53.7090629,0.0],[37.285571,53.709066,0.0],[37.285524,53.7090757,0.0],[37.285482,53.7090916,0.0],[37.2854474,53.7091129,0.0],[37.2854219,53.7091382,0.0],[37.2854071,53.7091664,0.0],[37.2854036,53.7091958,0.0],[37.2854117,53.7092249,0.0]]]},"properties":{"highway":"footway"}},{"type":"Feature","geometry":{"type":"LineString","coordinates":[[37.2853092,53.7070891,0.0],[37.284839,53.7075968,0.0],[37.2838837,53.7086349,0.0],[37.2829496,53.70965,0.0],[37.2826741,53.7099495,0.0]]},"properties":{"highway":"footway"}},{"type":"Feature","geometry":{"type":"Polygon","coordinates":[[[37.2917221,53.7073675,0.0],[37.2915923,53.7072639,0.0],[37.2915172,53.707204,0.0],[37.2915073,53.7072083,0.0],[37.2913191,53.707058,0.0],[37.291337,53.7070502,0.0],[37.2912462,53.7069778,0.0],[37.2912265,53.7069864,0.0],[37.291224,53.7069844,0.0],[37.2910734,53.7068642,0.0],[37.2911266,53.7068408,0.0],[37.2911111,53.7068285,0.0],[37.2920045,53.706432,0.0],[37.2920541,53.7064209,0.0],[37.2920944,53.7064304,0.0],[37.2927317,53.7069345,0.0],[37.2926717,53.7069609,0.0],[37.2926304,53.7069279,0.0],[37.2926736,53.7069089,0.0],[37.2923945,53.7066861,0.0],[37.2923018,53.7067267,0.0],[37.2926216,53.706982,0.0],[37.2924724,53.7070475,0.0],[37.2924322,53.7070154,0.0],[37.2917885,53.7072979,0.0],[37.2918212,53.707324,0.0],[37.2917221,53.7073675,0.0]],[[37.2914646,53.7067316,0.0],[37.2915081,53.7067658,0.0],[37.292121,53.7064923,0.0],[37.2920775,53.7064582,0.0],[37.2914646,53.7067316,0.0]],[[37.2916089,53.7069465,0.0],[37.2917258,53.7070376,0.0],[37.2918641,53.7069755,0.0],[37.2917472,53.7068843,0.0],[37.2916089,53.7069465,0.0]],[[37.2920502,53.706558,0.0],[37.292228,53.706685,0.0],[37.2923207,53.7066395,0.0],[37.2921429,53.7065125,0.0],[37.2920502,53.706558,0.0]]]},"properties":{"name":"площадь Ленина","highway":"pedestrian","type":"multipolygon"}},{"type":"Feature","geometry":{"type":"Point","coordinates":[37.436669,53.8041948]},"properties":{"esr:user":"214217","uic_ref":"2000181","name":"Сумароково","public_transport":"station","railway":"station","source":"survey"}},{"type":"Feature","geometry":{"type":"Point","coordinates":[37.3133935,53.707063]},"properties":{"esr:user":"214306","uic_ref":"2000182","name":"Плавск","public_transport":"station","railway":"station","source":"survey","uic_name":"Plawsk"}},{"type":"Feature","geometry":{"type":"Point","coordinates":[37.2092767,53.6270667]},"properties":{"name":"Самозвановка","public_transport":"station","railway":"station"}},{"type":"Feature","geometry":{"type":"Polygon","coordinates":[[[37.2929396,53.7117553,0.0],[37.2926121,53.7118134,0.0],[37.2923237,53.711844,0.0],[37.2915566,53.7119647,0.0],[37.2913903,53.7120472,0.0],[37.2911704,53.7123171,0.0],[37.2914064,53.7123456,0.0],[37.291578,53.7121583,0.0],[37.2919375,53.7120758,0.0],[37.2923188,53.7120733,0.0],[37.2926024,53.7120565,0.0],[37.2930691,53.7120263,0.0],[37.2932588,53.7120044,0.0],[37.2936149,53.7118976,0.0],[37.2937444,53.7119086,0.0],[37.2938647,53.7118867,0.0],[37.2939803,53.711914,0.0],[37.2941052,53.7119277,0.0],[37.2945492,53.7118675,0.0],[37.2947677,53.7118658,0.0],[37.29491,53.7118483,0.0],[37.2954003,53.7118045,0.0],[37.2955899,53.7118073,0.0],[37.2959646,53.7117881,0.0],[37.2963022,53.7117963,0.0],[37.2965057,53.7118511,0.0],[37.2969451,53.7118702,0.0],[37.2975834,53.7118401,0.0],[37.2979904,53.71181,0.0],[37.2981708,53.7117799,0.0],[37.2982772,53.711695,0.0],[37.2984715,53.7116731,0.0],[37.2985005,53.7116605,0.0],[37.2985409,53.711643,0.0],[37.2985547,53.7115582,0.0],[37.298527,53.7115034,0.0],[37.2986704,53.7113583,0.0],[37.2989803,53.711153,0.0],[37.2991375,53.7111065,0.0],[37.299378,53.7109012,0.0],[37.2996787,53.7106028,0.0],[37.2997527,53.7105015,0.0],[37.2997203,53.7103619,0.0],[37.2996278,53.7103537,0.0],[37.2995214,53.7104029,0.0],[37.299378,53.7103892,0.0],[37.2992069,53.7103537,0.0],[37.2992115,53.7105809,0.0],[37.2991329,53.7107314,0.0],[37.2987397,53.7110901,0.0],[37.2985085,53.7112789,0.0],[37.2982356,53.7114076,0.0],[37.2979118,53.711539,0.0],[37.2976297,53.7116047,0.0],[37.2970654,53.7116978,0.0],[37.2964225,53.7117115,0.0],[37.2961496,53.7117032,0.0],[37.2954558,53.7116759,0.0],[37.2951274,53.7116649,0.0],[37.2941343,53.7117349,0.0],[37.2937504,53.7116583,0.0],[37.2932231,53.7116583,0.0],[37.2930473,53.7117103,0.0],[37.2929396,53.7117553,0.0]]]},"properties":{"natural":"water","water":"river"}},{"type":"Feature","geometry":{"type":"Polygon","coordinates":[[[37.2863531,53.7039758,0.0],[37.2866803,53.7038329,0.0],[37.2868949,53.7040012,0.0],[37.2874421,53.7037885,0.0],[37.2866964,53.7031851,0.0],[37.2863692,53.7033185,0.0],[37.28594,53.7035027,0.0],[37.2858006,53.7036138,0.0],[37.2863531,53.7039758,0.0]]]},"properties":{"natural":"wood"}},{"type":"Feature","geometry":{"type":"Polygon","coordinates":[[[37.2963022,53.7117963,0.0],[37.2962397,53.7119266,0.0],[37.2965133,53.7120218,0.0],[37.2971302,53.7120059,0.0],[37.2980636,53.7119297,0.0],[37.2983694,53.7118535,0.0],[37.2984821,53.7117837,0.0],[37.2984715,53.7116731,0.0],[37.2982772,53.711695,0.0],[37.2981708,53.7117799,0.0],[37.2979904,53.71181,0.0],[37.2975834,53.7118401,0.0],[37.2969451,53.7118702,0.0],[37.2965057,53.7118511,0.0],[37.2963022,53.7117963,0.0]]]},"properties":{"natural":"wood"}},{"type":"Feature","geometry":{"type":"Polygon","coordinates":[[[37.2947677,53.7118658,0.0],[37.2947109,53.7119377,0.0],[37.294727,53.712025,0.0],[37.2951561,53.712079,0.0],[37.2954297,53.7120059,0.0],[37.2954726,53.7119012,0.0],[37.2954003,53.7118045,0.0],[37.29491,53.7118483,0.0],[37.2947677,53.7118658,0.0]]]},"properties":{"natural":"wood"}},{"type":"Feature","geometry":{"type":"Polygon","coordinates":[[[37.2954558,53.7116759,0.0],[37.2953761,53.7115678,0.0],[37.295199,53.7115011,0.0],[37.2949898,53.7114948,0.0],[37.2947431,53.7115233,0.0],[37.2944426,53.7115583,0.0],[37.2941852,53.7115456,0.0],[37.2939277,53.7115583,0.0],[37.2937131,53.7115614,0.0],[37.2936541,53.7115773,0.0],[37.2931874,53.7115805,0.0],[37.2928816,53.7115932,0.0],[37.2924149,53.7116503,0.0],[37.2920555,53.7117488,0.0],[37.2917068,53.7118313,0.0],[37.291342,53.7119361,0.0],[37.2911113,53.7120155,0.0],[37.290886,53.7121774,0.0],[37.2907895,53.7124187,0.0],[37.290709,53.7126631,0.0],[37.2906607,53.7128917,0.0],[37.2908109,53.7129425,0.0],[37.2908753,53.7129012,0.0],[37.2909343,53.7127615,0.0],[37.2910201,53.7125552,0.0],[37.2911704,53.7123171,0.0],[37.2913903,53.7120472,0.0],[37.2915566,53.7119647,0.0],[37.2923237,53.711844,0.0],[37.2926121,53.7118134,0.0],[37.2929396,53.7117553,0.0],[37.2930473,53.7117103,0.0],[37.2932231,53.7116583,0.0],[37.2937504,53.7116583,0.0],[37.2941343,53.7117349,0.0],[37.2951274,53.7116649,0.0],[37.2954558,53.7116759,0.0]]]},"properties":{"natural":"wood"}},{"type":"Feature","geometry":{"type":"Point","coordinates":[37.2859117,53.7093598]},"properties":{"leisure":"playground"}},{"type":"Feature","geometry":{"type":"Point","coordinates":[37.2848358,53.707973]},"properties":{"leisure":"playground"}},{"type":"Feature","geometry":{"type":"Polygon","coordinates":[[[37.2824795,53.7099629,0.0],[37.2825802,53.7098606,0.0],[37.2837191,53.7086027,0.0],[37.2850544,53.7071735,0.0],[37.2884769,53.7084689,0.0],[37.2859664,53.7110217,0.0],[37.2842547,53.7104888,0.0],[37.2824795,53.7099629,0.0]]]},"properties":{"name":"парк имени 40-летия Октября","leisure":"park"}},{"type":"Feature","geometry":{"type":"Polygon","coordinates":[[[37.2836565,53.7034188,0.0],[37.2836243,53.7035024,0.0],[37.2836322,53.7035866,0.0],[37.2836995,53.7036569,0.0],[37.2840158,53.703809,0.0],[37.2841226,53.7038277,0.0],[37.2842373,53.7038231,0.0],[37.2843401,53.7037879,0.0],[37.2844397,53.7037364,0.0],[37.2855126,53.7029869,0.0],[37.2855857,53.7029265,0.0],[37.2856148,53.7028441,0.0],[37.2855461,53.7027767,0.0],[37.2851586,53.7025965,0.0],[37.2850242,53.7025824,0.0],[37.2848976,53.7025988,0.0],[37.284783,53.7026376,0.0],[37.2836565,53.7034188,0.0]]]},"properties":{"surface":"grass","lit":"yes","description":"Футбольное поле","leisure":"pitch","sport":"soccer"}},{"type":"Feature","geometry":{"type":"Polygon","coordinates":[[[37.2945306,53.7085082,0.0],[37.2931042,53.7092777,0.0],[37.2930577,53.7093202,0.0],[37.2929217,53.7094442,0.0],[37.2916773,53.7105795,0.0],[37.290884,53.7116655,0.0],[37.2910121,53.7116907,0.0],[37.2918168,53.7110303,0.0],[37.2930077,53.7109287,0.0],[37.2941335,53.7104723,0.0],[37.2941846,53.710381,0.0],[37.2943083,53.7100865,0.0],[37.2948323,53.7100268,0.0],[37.2947184,53.7098,0.0],[37.2946553,53.7096465,0.0],[37.2947778,53.7096244,0.0],[37.2945944,53.7090062,0.0],[37.2945306,53.7085082,0.0]]]},"properties":{"name":"Старый парк","leisure":"park"}},{"type":"Feature","geometry":{"type":"Polygon","coordinates":[[[37.2822477,53.7033161,0.0],[37.2843506,53.7041164,0.0],[37.2861852,53.7030748,0.0],[37.2848119,53.7022491,0.0],[37.2852089,53.7019824,0.0],[37.2845008,53.701506,0.0],[37.2831811,53.7023126,0.0],[37.2822477,53.7033161,0.0]]]},"properties":{"name":"Городской стадион","leisure":"stadium"}},{"type":"Feature","geometry":{"type":"Polygon","coordinates":[[[37.2917885,53.7072979,0.0],[37.2918731,53.7073644,0.0],[37.2925103,53.7070763,0.0],[37.2924724,53.7070475,0.0],[37.2924322,53.7070154,0.0],[37.2917885,53.7072979,0.0]]]},"properties":{"leisure":"park"}},{"type":"Feature","geometry":{"type":"Polygon","coordinates":[[[37.2926449,53.706992,0.0],[37.2926878,53.706972,0.0],[37.2926717,53.7069609,0.0],[37.2926304,53.7069279,0.0],[37.2926736,53.7069089,0.0],[37.2923945,53.7066861,0.0],[37.2923018,53.7067267,0.0],[37.2926216,53.706982,0.0],[37.2926449,53.706992,0.0]]]},"properties":{"leisure":"park"}},{"type":"Feature","geometry":{"type":"Polygon","coordinates":[[[37.2914646,53.7067316,0.0],[37.2920775,53.7064582,0.0],[37.292121,53.7064923,0.0],[37.2915081,53.7067658,0.0],[37.2914646,53.7067316,0.0]]]},"properties":{"leisure":"park"}},{"type":"Feature","geometry":{"type":"Polygon","coordinates":[[[37.2920502,53.706558,0.0],[37.2921429,53.7065125,0.0],[37.2923207,53.7066395,0.0],[37.292228,53.706685,0.0],[37.2920502,53.706558,0.0]]]},"properties":{"leisure":"park"}},{"type":"Feature","geometry":{"type":"Polygon","coordinates":[[[37.2876131,53.7048109,0.0],[37.2878209,53.7047176,0.0],[37.2875481,53.7045048,0.0],[37.2873403,53.7045981,0.0],[37.2876131,53.7048109,0.0]]]},"properties":{"access":"yes","surface":"asphalt","hoops":"2","lit":"no","description":"Площадка у школы","leisure":"pitch","sport":"basketball"}},{"type":"Feature","geometry":{"type":"Polygon","coordinates":[[[37.2859673,53.7073496,0.0],[37.287146,53.7078074,0.0],[37.2872608,53.7077038,0.0],[37.2865136,53.7074136,0.0],[37.2866597,53.7072818,0.0],[37.2862282,53.7071143,0.0],[37.2859673,53.7073496,0.0]]]},"properties":{"leisure":"playground"}},{"type":"Feature","geometry":{"type":"Polygon","coordinates":[[[37.2845819,53.7104641,0.0],[37.2846873,53.7103373,0.0],[37.284542,53.710295,0.0],[37.2844366,53.7104217,0.0],[37.2845819,53.7104641,0.0]]]},"properties":{"fitness_station":"брусья","description":"Площадка для ворк-аута","leisure":"fitness_station","sport":"fitness"}},{"type":"Feature","geometry":{"type":"Polygon","coordinates":[[[37.29515,53.7089579,0.0],[37.2957079,53.708942,0.0],[37.296196,53.7088182,0.0],[37.2960083,53.7086626,0.0],[37.2949944,53.7086912,0.0],[37.29515,53.7089579,0.0]]]},"properties":{"name":"Гагаринский сквер","description":"Гагаринский сквер","leisure":"park"}},{"type":"Feature","geometry":{"type":"Polygon","coordinates":[[[37.2856216,53.7048242,0.0],[37.2845988,53.7044419,0.0],[37.2848597,53.7041973,0.0],[37.2857725,53.7045385,0.0],[37.2856877,53.704618,0.0],[37.2857977,53.7046591,0.0],[37.2856216,53.7048242,0.0]]]},"properties":{"name":"Сквер воинам-интернационалистам","leisure":"park"}},{"type":"Feature","geometry":{"type":"Polygon","coordinates":[[[37.2947968,53.7082853,0.0],[37.2953868,53.7083138,0.0],[37.2951454,53.7079741,0.0],[37.2946412,53.7081011,0.0],[37.2947968,53.7082853,0.0]]]},"properties":{"description":"Аллея Памяти","leisure":"park"}},{"type":"Feature","geometry":{"type":"Polygon","coordinates":[[[37.2877801,53.7101681,0.0],[37.2884506,53.7103586,0.0],[37.2891427,53.7096855,0.0],[37.2884346,53.7094823,0.0],[37.2877801,53.7101681,0.0]]]},"properties":{"leisure":"pitch","sport":"soccer"}},{"type":"Feature","geometry":{"type":"Polygon","coordinates":[[[37.2834391,53.7104936,0.0],[37.2829424,53.7103502,0.0],[37.2829054,53.7103333,0.0],[37.2828724,53.7103045,0.0],[37.2828562,53.7102711,0.0],[37.2828584,53.7102364,0.0],[37.2828788,53.7102038,0.0],[37.2829182,53.7101751,0.0],[37.2829713,53.7101557,0.0],[37.2830323,53.7101478,0.0],[37.2830942,53.7101523,0.0],[37.2836271,53.7103154,0.0],[37.2836809,53.7103342,0.0],[37.2837074,53.7103676,0.0],[37.2837137,53.7104044,0.0],[37.2836991,53.7104403,0.0],[37.2836652,53.7104713,0.0],[37.283616,53.710494,0.0],[37.2835568,53.7105057,0.0],[37.2834944,53.7105052,0.0],[37.2834391,53.7104936,0.0]]]},"properties":{"type":"multipolygon","leisure":"pitch"}},{"type":"Feature","geometry":{"type":"Point","coordinates":[37.2921933,53.705785]},"properties":{"name:ru":"«Ностальжи»","amenity":"restaurant","name":"«Ностальжи»","opening_hours:covid19":"open"}},{"type":"Feature","geometry":{"type":"Point","coordinates":[37.294559,53.7076338]},"properties":{"amenity":"telephone","operator":"Узел связи Центртелеком (Плавский РУЭС)"}},{"type":"Feature","geometry":{"type":"Point","coordinates":[37.2928289,53.7071386]},"properties":{"website":"https://www.sberbank.ru/","amenity":"atm","operator":"ПАО «Сбербанк»"}},{"type":"Feature","geometry":{"type":"Point","coordinates":[37.2895248,53.7046425]},"properties":{"brand:en":"Sberbank","brand:wikidata":"Q205012","contact:youtube":"https://www.youtube.com/sberbank","wheelchair":"yes","contact:facebook":"https://www.facebook.com/sberbank","amenity":"bank","addr:postcode":"301470","branch":"Среднерусский банк","operator":"ПАО Сбербанк","ref":"8604/0155","contact:instagram":"https://www.instagram.com/sberbank","contact:vk":"https://vk.com/sberbank","name:en":"Sberbank","atm":"yes","brand":"Сбербанк","contact:website":"https://www.sberbank.ru","contact:twitter":"https://twitter.com/sberbank","contact:ok":"https://ok.ru/sberbank","brand:wikipedia":"en:Sberbank of Russia","brand:ru":"Сбербанк","addr:city":"Плавск","name:ru":"Сбербанк","addr:housenumber":"66","contact:phone":"+7 800 5555550","phone":"+7 48752 22104","name":"Сбербанк","opening_hours":"Mo-Th,Sa 08:00-16:30","addr:street":"улица Коммунаров"}},{"type":"Feature","geometry":{"type":"Point","coordinates":[37.2946227,53.7077176]},"properties":{"brand:wikidata":"Q1502763","contact:facebook":"https://www.facebook.com/ruspost","amenity":"post_office","brand:wikipedia":"ru:Почта России","addr:country":"RU","addr:postcode":"301470","operator":"АО «Почта России»","ref":"301470","contact:phone":"+7 800 1000000","name":"Плавск 301470","opening_hours":"Mo-Fr 08:00-20:00; Sa 09:00-18:00","contact:vk":"https://vk.com/russianpost","brand":"Почта России","contact:website":"https://www.pochta.ru"}},{"type":"Feature","geometry":{"type":"Point","coordinates":[37.2965366,53.712548]},"properties":{"amenity":"atm"}},{"type":"Feature","geometry":{"type":"Point","coordinates":[37.2941094,53.7071657]},"properties":{"amenity":"police","name":"Миграционная служба","opening_hours:covid19":"open","operator":"ОМВД РФ по Плавскому району"}},{"type":"Feature","geometry":{"type":"Point","coordinates":[37.2947201,53.7078294]},"properties":{"brand:en":"Post Bank","brand:wikidata":"Q24930461","amenity":"bank","brand:wikipedia":"en:Post Bank (Russia)","name":"Почта Банк","name:en":"Post Bank","atm":"yes","brand":"Почта Банк"}},{"type":"Feature","geometry":{"type":"Point","coordinates":[37.2974101,53.7108669]},"properties":{"amenity":"courthouse","name":"Плавский районный суд"}},{"type":"Feature","geometry":{"type":"Point","coordinates":[37.297862,53.7094401]},"properties":{"amenity":"cafe"}},{"type":"Feature","geometry":{"type":"Point","coordinates":[37.2883906,53.7045233]},"properties":{"addr:housenumber":"68","website":"http://plavsksosh2.ru/","amenity":"school","description":"МБОУ МО Плавская СОШ №2","addr:street":"улица Коммунаров","addr:postcode":"301470","addr:city":"Плавск"}},{"type":"Feature","geometry":{"type":"Point","coordinates":[37.2856094,53.7091786]},"properties":{"amenity":"fountain","description":"Фонтан в парке"}},{"type":"Feature","geometry":{"type":"Point","coordinates":[37.2853714,53.7047634]},"properties":{"amenity":"parking"}},{"type":"Feature","geometry":{"type":"Point","coordinates":[37.2896222,53.7047163]},"properties":{"ref":"365165","amenity":"atm","operator":"ПАО «Сбербанк»"}},{"type":"Feature","geometry":{"type":"Polygon","coordinates":[[[37.2881267,53.7076176,0.0],[37.2881301,53.7077417,0.0],[37.2887952,53.7077354,0.0],[37.2887919,53.7076113,0.0],[37.2881267,53.7076176,0.0]]]},"properties":{"amenity":"kindergarten"}},{"type":"Feature","geometry":{"type":"Polygon","coordinates":[[[37.2956481,53.7104945,0.0],[37.2953531,53.7095674,0.0],[37.2974828,53.709307,0.0],[37.2974559,53.7096436,0.0],[37.2972789,53.7101548,0.0],[37.2972306,53.7102627,0.0],[37.2956481,53.7104945,0.0]]]},"properties":{"amenity":"marketplace"}},{"type":"Feature","geometry":{"type":"Point","coordinates":[37.2924482,53.7059789]},"properties":{"shop":"convenience","opening_hours:covid19":"open"}},{"type":"Feature","geometry":{"type":"Point","coordinates":[37.2935532,53.7077579]},"properties":{"shop":"convenience","name":"«Лагуна»"}},{"type":"Feature","geometry":{"type":"Point","coordinates":[37.2929686,53.7072845]},"properties":{"brand:wikidata":"Q4161561","name:ru":"«Дикси»","shop":"supermarket","brand:wikipedia":"ru:Дикси (сеть магазинов)","name":"«Дикси»","opening_hours":"08:00-22:00","name:en":"Dixy","opening_hours:covid19":"open","contact:website":"https://dixy.ru"}},{"type":"Feature","geometry":{"type":"Point","coordinates":[37.2948289,53.7102518]},"properties":{"contact:phone":"+7 800 7707999","shop":"electronics","name":"DNS","opening_hours":"Mo-Su 09:00-20:00","contact:website":"http://dns-shop.ru/","operator":"ДНС Ритейл"}},{"type":"Feature","geometry":{"type":"Point","coordinates":[37.2959724,53.7110807]},"properties":{"brand:wikidata":"Q24933790","name:ru":"Красное & Белое","ref":"5130","shop":"alcohol","brand:wikipedia":"en:Krasnoe & Beloe","name":"Красное & Белое","opening_hours":"09:00-22:05","name:en":"Red&White","brand":"«Красное & Белое»","contact:website":"https://krasnoeibeloe.ru"}},{"type":"Feature","geometry":{"type":"Point","coordinates":[37.295836,53.7107948]},"properties":{"brand:en":"Pyaterochka","brand:wikidata":"Q1768969","shop":"supermarket","brand:wikipedia":"ru:Пятёрочка","operator":"X5 Retail Group","name:ru":"Пятёрочка","ref":"13958","contact:phone":"+7 800 5555505","name":"Пятёрочка","opening_hours":"08:00-23:00","name:en":"Pyaterochka","brand":"«Пятёрочка»","contact:website":"https://5ka.ru"}}]}